place_id,name,address,lat,lng,website,formatted_address,formatted_phone_number
ChIJ09tnI9oNiYgROQonkNyqP2w,Pet Supplies Plus Trussville,"1672 Gadsden Hwy, Birmingham, AL 35235, United States",33.6022814,-86.6393527,https://www.petsuppliesplus.com/store/al/birmingham/4357-birmingham/4357,"1672 Gadsden Hwy, Birmingham, AL 35235, USA",(205) 582-1488
ChIJvZKHls2piIgRsDRCY2-zMXk,Pet Supplies Plus Tuscaloosa,"2600 McFarland Blvd E Suite U, Tuscaloosa, AL 35405, United States",33.1866961,-87.5294143,https://www.petsuppliesplus.com/Store/AL/Tuscaloosa/Tuscaloosa/8020,"2600 McFarland Blvd E Suite U, Tuscaloosa, AL 35405, USA",(205) 345-1212
ChIJFcmOXjUZiYgRMXtszRGbhDU,Pet Supplies Plus Homewood,"421 Green Springs Hwy, Homewood, AL 35209, United States",33.4648372,-86.8195165,https://www.petsuppliesplus.com/Store/AL/Homewood/Homewood/8028,"421 Green Springs Hwy, Homewood, AL 35209, USA",(205) 942-6462
ChIJuUaQ5oxlYogRqsAtJZ36IKk,Pet Supplies Plus Madison,"4577 Wall Triana Hwy SUITE G, Madison, AL 35758, United States",34.7070199,-86.7488445,https://www.petsuppliesplus.com/store/al/madison/4119-madison/4119,"4577 Wall Triana Hwy SUITE G, Madison, AL 35758, USA",(256) 325-0125
ChIJna3QeJ-LYogRWU8c-IhSDtc,Pet Supplies Plus Athens,"22069 US-72 Ste 1, Athens, AL 35613, United States",34.783672,-86.9286448,https://www.petsuppliesplus.com/store/al/athens/4547-athens/4547,"22069 US-72 Ste 1, Athens, AL 35613, USA",(256) 232-0960
ChIJ4emXK-VtYogROi1UEImAjOg,Pet Supplies Plus Huntsville Midtown,"2900 Memorial Pkwy SW Ste B, Huntsville, AL 35801, United States",34.7062998,-86.5906216,https://www.petsuppliesplus.com/store/al/huntsville/4212-huntsville/4212,"2900 Memorial Pkwy SW Ste B, Huntsville, AL 35801, USA",(256) 517-8352
ChIJZ4qDs9LzjIgRea9DxKAZYwo,Pet Supplies Plus Auburn,"1716 Opelika Rd Ste 10, Auburn, AL 36830, United States",32.6247302,-85.4436699,https://www.petsuppliesplus.com/store/al/auburn/4519-auburn/4519,"1716 Opelika Rd Ste 10, Auburn, AL 36830, USA",(334) 457-4366
ChIJc5RwwrMjiYgRbnQsmTMRC1Q,Pet Supplies Plus Pelham,"1928 Montgomery Hwy, Hoover, AL 35244, United States",33.347603,-86.796888,https://www.petsuppliesplus.com/Store/AL/Pelham/Pelham/8015,"1928 Montgomery Hwy, Hoover, AL 35244, USA",(205) 978-9788
ChIJMa7b2eqym4gRv0eFM5Eyc9c,Pet Supplies Plus Mobile,"803 Hillcrest Rd, Mobile, AL 36695, United States",30.675863,-88.189738,https://www.petsuppliesplus.com/Store/AL/Mobile/Mobile/8017,"803 Hillcrest Rd, Mobile, AL 36695, USA",(251) 343-9702
ChIJx4vhX9NJfYgRqOVZ6Us_PLE,Pet Supplies Plus Florence,"244 Seville St, Florence, AL 35630, United States",34.8339701,-87.627719,https://www.petsuppliesplus.com/store/al/florence/4546-florence/4546,"244 Seville St, Florence, AL 35630, USA",(256) 760-7000
ChIJWZ84WCrLiYgRSmIm1nbY1Mg,Pet Supplies Plus Cullman,"1311 2nd Ave SW Unit D, Cullman, AL 35055, United States",34.1634482,-86.8374739,https://www.petsuppliesplus.com/store/al/cullman/4548-cullman/4548,"1311 2nd Ave SW Unit D, Cullman, AL 35055, USA",(256) 736-9940
ChIJC7YtmbDpYYgRPiNur-NGsFw,Pet Supplies Plus Scottsboro,"24540 John T Reid Pkwy Ste A, Scottsboro, AL 35768, United States",34.6660128,-86.0152219,https://www.petsuppliesplus.com/store/al/scottsboro/4555-scottsboro/4555,"24540 John T Reid Pkwy Ste A, Scottsboro, AL 35768, USA",(256) 805-8242
ChIJaREmWzFPfYgRV338-NNi2yM,Pet Supplies Plus Muscle Shoals,"519 W Avalon Ave, Muscle Shoals, AL 35661, United States",34.7462212,-87.6718288,https://www.petsuppliesplus.com/store/al/muscle-shoals/4549-muscle-shoals/4549,"519 W Avalon Ave, Muscle Shoals, AL 35661, USA",(256) 383-4320
ChIJ1wgmJXh4iogRtftx8L7Y16s,Pet Supplies Plus Fort Payne,"1300 Dekalb Plaza Blvd SW, Fort Payne, AL 35967, United States",34.432502,-85.7354145,https://www.petsuppliesplus.com/store/al/fort-payne/4552-fort-payne/4552,"1300 Dekalb Plaza Blvd SW, Fort Payne, AL 35967, USA",(256) 304-5004
ChIJlxMN_kcriIgRa5k1d7zhMjY,Pet Supplies Plus Hartselle,"241 Hwy 31 SW Suite H, Hartselle, AL 35640, United States",34.4401146,-86.94328,https://www.petsuppliesplus.com/store/al/hartselle/4551-hartselle/4551,"241 Hwy 31 SW Suite H, Hartselle, AL 35640, USA",(256) 570-1142
ChIJDSS80URLiogRksp41fGVf00,Pet Supplies Plus Guntersville,"14236 US-431, Guntersville, AL 35976, United States",34.3225938,-86.3107612,https://www.petsuppliesplus.com/store/al/guntersville/4550-guntersville/4550,"14236 US-431, Guntersville, AL 35976, USA",(256) 582-4343
ChIJDYJyPUI5YogR8Y4v5EmH74I,Pet Supplies Plus Hazel Green,"14739 Hwy 231-431 Ste. G, Hazel Green, AL 35750, United States",34.9478365,-86.5734003,https://www.petsuppliesplus.com/store/al/hazel-green/4554-hazel-green/4554,"14739 Hwy 231-431 Ste. G, Hazel Green, AL 35750, USA",(256) 812-5000
ChIJf_fJIThBkFQRpnve9TDEL6Y,Pet Supplies Plus West Seattle,"2600 SW Barton St Suite B15, Seattle, WA 98126, United States",47.5223131,-122.3668021,https://www.petsuppliesplus.com/store/wa/seattle/4173-west-seattle/4173,"2600 SW Barton St Suite B15, Seattle, WA 98126, USA",(206) 848-7387
ChIJH123tP6xB4gRZ1-ZSooylfE,Pet Supplies Plus Fitchburg,"2928 Hardrock Rd, Fitchburg, WI 53719, United States",43.0136843,-89.478062,https://www.petsuppliesplus.com/store/wi/fitchburg/4031-fitchburg/4031,"2928 Hardrock Rd, Fitchburg, WI 53719, USA",(608) 416-5767
ChIJZdxUXllrCIgR3TBzrCIsRHo,Pet Supplies Plus Freeport,"1866 S West Ave, Freeport, IL 61032, United States",42.2746732,-89.6343639,https://www.petsuppliesplus.com/store/il/freeport/4513-freeport/4513,"1866 S West Ave, Freeport, IL 61032, USA",(815) 821-2312
ChIJ4eRhpNtTBogRidxI03wOfcA,Pet Supplies Plus Monona,"2171 W Broadway, Monona, WI 53713, United States",43.0449914,-89.3499918,https://www.petsuppliesplus.com/store/wi/monona/4595-monona/4595,"2171 W Broadway, Monona, WI 53713, USA",(608) 893-1020
ChIJwR3vV6lzB4gRiAoTHfWn5t4,Pet Supplies Plus Sauk City,"500 Water St Ste. A, Sauk City, WI 53583, United States",43.2751513,-89.7195801,https://www.petsuppliesplus.com/store/wi/sauk-city/4480-sauk-city/4480,"500 Water St Ste. A, Sauk City, WI 53583, USA",(608) 643-2434
ChIJwVhWZyA14ocRNsFYHalrWj8,Pet Supplies Plus Davenport,"902 W Kimberly Rd Suite 16, Davenport, IA 52806, United States",41.5609436,-90.5845712,https://www.petsuppliesplus.com/store/ia/davenport/4148-davenport/4148,"902 W Kimberly Rd Suite 16, Davenport, IA 52806, USA",(563) 949-4997
ChIJX9WNVegN1oYRbe_OQnIUj4k,Pet Supplies Plus Oro Valley Grooming,"10540 N La Ca√±ada Dr Suite 110, Oro Valley, AZ 85737, United States",32.3970188,-110.9943218,https://www.petsuppliesplus.com/dog-grooming,"10540 N La Ca√±ada Dr Suite 110, Oro Valley, AZ 85737, USA",(520) 476-3494
ChIJraxhewpV5YcRdMhsL8ldFJI,Pet Supplies Plus Cedar Falls,"713 Brandilynn Blvd, Cedar Falls, IA 50613, United States",42.4862998,-92.4378089,https://www.petsuppliesplus.com/store/ia/cedar-falls/4077-cedar-falls/4077,"713 Brandilynn Blvd, Cedar Falls, IA 50613, USA",(319) 260-2027
ChIJ7wqmH-Q34ocR_ImVG_aP2ms,Pet Supplies Plus Bettendorf,"3280 Middle Rd Suit 1, Bettendorf, IA 52722, United States",41.55078,-90.486478,https://www.petsuppliesplus.com/store/ia/bettendorf/4590-bettendorf/4590,"3280 Middle Rd Suit 1, Bettendorf, IA 52722, USA",(563) 351-4950
ChIJlRAxGi4N1oYRy2-iiHLmbPg,Pet Supplies Plus,"10540 N La Ca√±ada Dr Suite 110, Oro Valley, AZ 85737, United States",32.3970188,-110.9943218,https://www.petsuppliesplus.com/store/az/oro-valley/4614-oro-valley/4614,"10540 N La Ca√±ada Dr Suite 110, Oro Valley, AZ 85737, USA",(520) 476-3494
ChIJWS_ODfizJIgRLllxWOSmiGM,Pet Supplies Plus Livonia,"29493 7 Mile, Livonia, MI 48152, United States",42.42650099999999,-83.3371876,https://www.petsuppliesplus.com/Store/MI/Livonia/Livonia/44,"29493 7 Mile, Livonia, MI 48152, USA",(248) 615-0039
ChIJr8rDNNxvK4cRsmcPoCFFZss,Pet Supplies Plus Phoenix - Moon Valley,"245 E Bell Rd UNIT 16, Phoenix, AZ 85022, United States",33.6388359,-112.0717416,https://www.petsuppliesplus.com/Store/AZ/Phoenix/Phoenix-Moon-Valley/4294,"245 E Bell Rd UNIT 16, Phoenix, AZ 85022, USA",(602) 962-6021
ChIJpeaGDF5zK4cRj0MD1BIRT4Y,Pet Supplies Plus Phoenix - 32nd & Shea,"10624 N 32nd St, Phoenix, AZ 85028, United States",33.5834618,-112.0144261,https://www.petsuppliesplus.com/store/az/phoenix/4406-phoenix/4406,"10624 N 32nd St, Phoenix, AZ 85028, USA",(480) 999-7387
ChIJ25TyCcd5K4cRJV241UfP8KY,Pet Supplies Plus North Scottsdale,"31319 N Scottsdale Rd #125, Scottsdale, AZ 85266, United States",33.7697105,-111.9246215,https://www.petsuppliesplus.com/Store/AZ/Scottsdale/North-Scottsdale/4190,"31319 N Scottsdale Rd #125, Scottsdale, AZ 85266, USA",(480) 777-7387
ChIJk9A4-s9bK4cRdBvDz0DSwGU,Pet Supplies Plus Surprise,"14545 W Grand Ave #101, Surprise, AZ 85374, United States",33.6553749,-112.3755251,https://www.petsuppliesplus.com/store/az/surprise/4347-surprise/4347,"14545 W Grand Ave #101, Surprise, AZ 85374, USA",(623) 440-1149
ChIJy1SZ-79vK4cRTcsfSR4gvMU,Pet Supplies Plus Phoenix - Moon Valley Grooming,"245 E Bell Rd UNIT 16, Phoenix, AZ 85022, United States",33.6388676,-112.0717758,https://www.petsuppliesplus.com/dog-grooming,"245 E Bell Rd UNIT 16, Phoenix, AZ 85022, USA",(602) 962-6021
ChIJj0_uwSJ5K4cRYSXPl6sjffU,Pet Supplies Plus North Scottsdale Grooming,"31319 N Scottsdale Rd Suite 125, Scottsdale, AZ 85266, United States",33.7695474,-111.9247221,https://www.petsuppliesplus.com/dog-grooming,"31319 N Scottsdale Rd Suite 125, Scottsdale, AZ 85266, USA",(480) 777-7387
ChIJ22w2PKsWyYcRdVjxObMEs80,Pet Supplies Plus Rogers,"4327 S Pleasant Crossing Blvd E, Rogers, AR 72758, United States",36.28175239999999,-94.1503158,https://www.petsuppliesplus.com/store/ar/rogers/4023-rogers/4023,"4327 S Pleasant Crossing Blvd E, Rogers, AR 72758, USA",(479) 636-0526
ChIJ7YROUdnv0ocRmXbM4z0lo9U,Pet Supplies Plus Cabot,"290 S Rockwood Dr Suite A, Cabot, AR 72023, United States",34.9780045,-92.0386351,http://www.petsuppliesplus.com/,"290 S Rockwood Dr Suite A, Cabot, AR 72023, USA",(501) 214-0316
ChIJo5mCfwDv0ocRj7ovMzjtBXU,Pet supplies plus,"AR-367, Cabot, AR 72023, United States",34.9756278,-92.0155788,https://www.petsuppliesplus.com/,"AR-367, Cabot, AR 72023, USA",
ChIJuT0csJHpj4ARbZKj31bfQlk,Pet Supplies Plus Pleasanton,"4230 Rosewood Dr SUITE B, Pleasanton, CA 94588, United States",37.698636,-121.8773972,https://www.petsuppliesplus.com/store/ca/pleasanton/4132-pleasanton/4132,"4230 Rosewood Dr SUITE B, Pleasanton, CA 94588, USA",(925) 225-0899
ChIJv_omMdwl3YARCEyPZvthWb4,Pet Supplies Plus Huntington Beach,"5912 Edinger Ave, Huntington Beach, CA 92649, United States",33.728515,-118.025474,https://www.petsuppliesplus.com/store/ca/huntington-beach/4118-huntington-beach/4118,"5912 Edinger Ave, Huntington Beach, CA 92649, USA",(714) 840-7800
ChIJA1hDr0Axw4ARVzVHMdw_S-w,Pet Supplies Plus Upland,"829 W Foothill Blvd A, Upland, CA 91786, United States",34.108461,-117.6616418,https://www.petsuppliesplus.com/store/ca/upland/4073-upland/4073,"829 W Foothill Blvd A, Upland, CA 91786, USA",(909) 608-0770
ChIJ10rVoWkHkYARm_kOvxtkzHQ,Pet Supplies Plus Turlock,"2840 Countryside Dr, Turlock, CA 95382, United States",37.518625,-120.879719,https://www.petsuppliesplus.com/store/ca/turlock/4455-turlock/4455,"2840 Countryside Dr, Turlock, CA 95382, USA",(209) 656-7085
ChIJlT_WX1TRhIAReKhv0dlyUBs,Pet Supplies Plus Woodland,"2091 Bronze Star Dr, Woodland, CA 95776, United States",38.670444,-121.7228411,https://www.petsuppliesplus.com/Store/CA/Woodland/Woodland/4046,"2091 Bronze Star Dr, Woodland, CA 95776, USA",(530) 669-7382
ChIJ2dvYwpgNkIARufaH4c7t9ek,Pet Supplies Plus Stockton,"1416 Country Club Blvd, Stockton, CA 95204, United States",37.9692297,-121.3154354,https://www.petsuppliesplus.com/store/ca/stockton/4450-stockton/4450,"1416 Country Club Blvd, Stockton, CA 95204, USA",(209) 948-9491
ChIJSTljN1A9hYARwI1r7fCISI0,Pet Supplies Plus Vacaville,"2070 Harbison Dr, Vacaville, CA 95687, United States",38.3629882,-121.9624639,https://www.petsuppliesplus.com/Store/CA/Vacaville/4229,"2070 Harbison Dr, Vacaville, CA 95687, USA",(707) 514-7408
ChIJNUnKA6kKkIARiFeO9f4vYGo,Pet Supplies Plus Lodi,"1411 S Stockton St, Lodi, CA 95240, United States",38.1154161,-121.2703992,https://www.petsuppliesplus.com/store/ca/lodi/4451-lodi/4451,"1411 S Stockton St, Lodi, CA 95240, USA",(209) 333-7330
ChIJaSswVwXR3IARY0lAWX9f3EQ,PET SUPPLIES PLUS - YORBA LINDA,"20539 Yorba Linda Blvd, Yorba Linda, CA 92886, United States",33.8916975,-117.7742031,https://www.petsuppliesplus.com/store/ca/yorba-linda/4019-yorba-linda/4019,"20539 Yorba Linda Blvd, Yorba Linda, CA 92886, USA",(714) 485-3155
ChIJrYf4YNhJ6IARs3TZ2rVYQNc,Pet Supplies Plus Camarillo,"379 Carmen Dr, Camarillo, CA 93010, United States",34.2204003,-119.0530017,https://www.petsuppliesplus.com/store/ca/camarillo/4313-camarillo/4313,"379 Carmen Dr, Camarillo, CA 93010, USA",(805) 384-1004
ChIJUbxyUcSHwoARe4F6Iii0fjA,Pet Supplies Plus Stevenson Ranch,"25658 The Old Rd, Stevenson Ranch, CA 91381, United States",34.38822469999999,-118.571107,https://www.petsuppliesplus.com/store/ca/stevenson-ranch/4197-stevenson-ranch/4197,"25658 The Old Rd, Stevenson Ranch, CA 91381, USA",(661) 670-0071
ChIJvynOWa3RmoARNsIt3yga-no,Pet Supplies Plus Sacramento,"3680 Crocker Dr #110, Sacramento, CA 95818, United States",38.5409395,-121.4838584,https://www.petsuppliesplus.com/store/ca/sacramento/4536-sacramento/4536,"3680 Crocker Dr #110, Sacramento, CA 95818, USA",(916) 866-4358
ChIJ-WNniTEx3YARVx1Q7QWgTNY,Pet Supplies Plus Long Beach-Los Altos,"2086 N Bellflower Blvd, Long Beach, CA 90815, United States",33.794213,-118.1237759,https://www.petsuppliesplus.com/store/ca/long-beach/4240-long-beach/4240,"2086 N Bellflower Blvd, Long Beach, CA 90815, USA",(562) 800-6975
ChIJcWNYBIlblIARfOGtpsS9RGU,Pet Supplies Plus Clovis,"1235 Shaw Ave, Clovis, CA 93612, United States",36.81,-119.6933333,https://www.petsuppliesplus.com/store/ca/clovis/4452-clovis/4452,"1235 Shaw Ave, Clovis, CA 93612, USA",(559) 298-9738
ChIJUc25uOc5mYARsmAbqAx_VUc,Pet Supplies Plus Reno,"2845 Northtowne Ln, Reno, NV 89512, United States",39.5537944,-119.7827596,https://www.petsuppliesplus.com/store/nv/reno/4252-reno/4252,"2845 Northtowne Ln, Reno, NV 89512, USA",(775) 622-1371
ChIJcZ99t0lPE4cR-DZLc6IvRUI,Pet Supplies Plus Colorado Springs,"3630 Austin Bluffs Pkwy #130, Colorado Springs, CO 80918, United States",38.8930574,-104.7601626,https://www.petsuppliesplus.com/store/co/colorado-springs/4093-colorado-springs/4093,"3630 Austin Bluffs Pkwy #130, Colorado Springs, CO 80918, USA",(719) 598-2304
ChIJWbzwWWR5bIcRvy3td1vPl8o,Pet Supplies Plus Denver,"1480 Arapahoe St, Denver, CO 80202, United States",39.7466802,-104.9969498,https://www.petsuppliesplus.com/store/co/denver/4328-denver/4328,"1480 Arapahoe St, Denver, CO 80202, USA",(303) 534-0565
ChIJ_1FyDDaIa4cREfyVLuyccrk,Pet Supplies Plus Arvada,"8175 Sheridan Boulevard A, Arvada, CO 80003, United States",39.8448442,-105.0545085,https://www.petsuppliesplus.com/store/co/arvada/4068-arvada/4068,"8175 Sheridan Boulevard A, Arvada, CO 80003, USA",(303) 429-9317
ChIJEzuUVSSAbIcRQmX62JSdYxI,Pet Supplies Plus Englewood,"5050 S Federal Blvd #25a, Englewood, CO 80110, United States",39.6259298,-105.0236889,https://www.petsuppliesplus.com/store/co/englewood/4001-englewood/4001,"5050 S Federal Blvd #25a, Englewood, CO 80110, USA",(303) 862-8017
ChIJV_sMapJ2bIcRBdvqL5IwufM,Pet Supplies Plus Thornton,"1010 E 104th Ave, Thornton, CO 80233, United States",39.8846138,-104.9725023,https://www.petsuppliesplus.com/store/co/thornton/4314-thornton/4314,"1010 E 104th Ave, Thornton, CO 80233, USA",(303) 452-4572
ChIJZaeRXOiEa4cRpKcS7zsj-DI,Pet Supplies Plus Golden,"17205 S Golden Rd, Golden, CO 80401, United States",39.7395623,-105.1937298,https://www.petsuppliesplus.com/store/co/golden/4017-golden/4017,"17205 S Golden Rd, Golden, CO 80401, USA",(303) 216-3294
ChIJW6eoAXKDbIcRJw3vb2BvWfU,Pet Supplies Plus Littleton,"151 W Mineral Ave #107, Littleton, CO 80120, United States",39.5755275,-104.9904559,https://www.petsuppliesplus.com/store/co/littleton/4209-littleton/4209,"151 W Mineral Ave #107, Littleton, CO 80120, USA",(303) 736-2965
ChIJizKc2C-Ha4cRfqMJukfpm0g,Pet Supplies Plus Wheat Ridge,"3830 Wadsworth Blvd, Wheat Ridge, CO 80033, United States",39.7705381,-105.0795817,https://www.petsuppliesplus.com/store/co/wheat-ridge/4344-wheat-ridge/4344,"3830 Wadsworth Blvd, Wheat Ridge, CO 80033, USA",(303) 997-6569
ChIJl-rox-mPa4cR22E6tYwR-cA,Pet Supplies Plus Arvada (Westwoods),"15530 W 64th Ave Unit Q, Arvada, CO 80007, United States",39.8105464,-105.1733213,https://www.petsuppliesplus.com/store/co/arvada/4281-arvada/4281,"15530 W 64th Ave Unit Q, Arvada, CO 80007, USA",(303) 558-0065
ChIJHacFBlGzbocRyIshF-wLsFs,Pet Supplies Plus Ft. Collins,"2912 Council Tree Ave SUITE 100, Fort Collins, CO 80525, United States",40.5273236,-105.0243495,https://www.petsuppliesplus.com/store/co/fort-collins/4063-fort-collins/4063,"2912 Council Tree Ave SUITE 100, Fort Collins, CO 80525, USA",(970) 282-4326
ChIJX43bzXyr54kRoWF44o8inLo,Pet Supplies Plus West Hartford,"2480 Albany Ave, West Hartford, CT 06117, United States",41.7863171,-72.7454587,https://www.petsuppliesplus.com/store/ct/west-hartford/9020-west-hartford/9020,"2480 Albany Ave, West Hartford, CT 06117, USA",(860) 570-2461
ChIJJdRFZodN5okR_e8GU-QvFmE,Pet Supplies Plus Wethersfield,"1142 Silas Deane Hwy, Wethersfield, CT 06109, United States",41.6909121,-72.6546691,https://www.petsuppliesplus.com/store/ct/wethersfield/4117-wethersfield/4117,"1142 Silas Deane Hwy, Wethersfield, CT 06109, USA",(860) 563-3510
ChIJxb_0s5IK6IkR55ocqg6M0M8,Pet Supplies Plus Shelton,"675 Bridgeport Ave, Shelton, CT 06484, United States",41.2778104,-73.1219599,https://www.petsuppliesplus.com/store/ct/shelton/4214-shelton/4214,"675 Bridgeport Ave, Shelton, CT 06484, USA",(203) 926-8422
ChIJeX9k7XFX5okRU_DSq5VlEnY,Pet Supplies Plus Manchester,"283 Middle Turnpike W, Manchester, CT 06040, United States",41.7817258,-72.5373512,https://www.petsuppliesplus.com/store/ct/manchester/4111-manchester/4111,"283 Middle Turnpike W, Manchester, CT 06040, USA",(860) 533-9780
ChIJn_jWJ8F16IkR-MRHiMAd77E,Pet Supplies Plus Orange,"471 Boston Post Rd, Orange, CT 06477, United States",41.2570593,-73.0141206,https://www.petsuppliesplus.com/store/ct/orange/4213-orange/4213,"471 Boston Post Rd, Orange, CT 06477, USA",(203) 799-7387
ChIJj7zLvLAO5okRaxtTYS-jfQw,Pet Supplies Plus Groton,"708 Long Hill Rd, Groton, CT 06340, United States",41.3500723,-72.0542601,https://www.petsuppliesplus.com/store/ct/groton/4114-groton/4114,"708 Long Hill Rd, Groton, CT 06340, USA",(860) 446-0022
ChIJ24v78IO654kRTsRVy9qqUns,Pet Supplies Plus Bristol,"1168 Farmington Ave, Bristol, CT 06010, United States",41.6968137,-72.904744,https://www.petsuppliesplus.com/store/ct/bristol/4113-bristol/4113,"1168 Farmington Ave, Bristol, CT 06010, USA",(860) 585-5544
ChIJo4EKIbz8xokRZpcDAGDqI1E,Pet Supplies Plus Wilmington,"2223 Concord Pike, Wilmington, DE 19803, United States",39.7913881,-75.5456952,https://www.petsuppliesplus.com/Store/DE/Wilmington/Wilmington/9073,"2223 Concord Pike, Wilmington, DE 19803, USA",(302) 654-8901
ChIJd5dSTvj6OIgR5CiRW_o_Ozo,Pet Supplies Plus Delaware,"860 Sunbury Rd, Delaware, OH 43015, United States",40.2928277,-83.0374343,https://www.petsuppliesplus.com/Store/OH/Delaware/Delaware/210,"860 Sunbury Rd, Delaware, OH 43015, USA",(740) 362-1389
ChIJzSLUdjNt04kRHvrYlV3_SUc,Pet Supplies Plus Buffalo,"2155 Delaware Ave, Buffalo, NY 14216, United States",42.9427517,-78.8673649,https://www.petsuppliesplus.com/Store/NY/Buffalo/Buffalo/116,"2155 Delaware Ave, Buffalo, NY 14216, USA",(716) 876-6663
ChIJfZXNjKL5xokRLoVfEfjVFbo,Pet Supplies Plus Kennett Square,"817 E Baltimore Pike Suite C, Kennett Square, PA 19348, United States",39.861766,-75.6854349,https://www.petsuppliesplus.com/store/pa/kennett-square/4376-kennett-square/4376,"817 E Baltimore Pike Suite C, Kennett Square, PA 19348, USA",(484) 732-7921
ChIJA71wRoNt04kRwrIJwzdUbKI,Pet Supplies Plus Buffalo Grooming,"2155 Delaware Ave, Buffalo, NY 14216, United States",42.9427241,-78.8673667,https://www.petsuppliesplus.com/dog-grooming,"2155 Delaware Ave, Buffalo, NY 14216, USA",(716) 876-6663
ChIJ52IBFRzoxokRrcazWvzAn2c,Pet Supplies Plus Woodlyn,"1300 MacDade Boulevard #1, Woodlyn, PA 19094, United States",39.876206,-75.3457405,https://www.petsuppliesplus.com/store/pa/woodlyn/4009-woodlyn/4009,"1300 MacDade Boulevard #1, Woodlyn, PA 19094, USA",(484) 480-5456
ChIJTZKpzmLxxokRGK1mDultq3w,Pet Supplies Plus West Chester,"959 Paoli Pike, West Chester, PA 19380, United States",39.9713029,-75.5867212,https://www.petsuppliesplus.com/Store/PA/West-Chester/West-Chester/9059,"959 Paoli Pike, West Chester, PA 19380, USA",(610) 696-8042
ChIJCcmNzhxUxokRl0CX8VkZoRk,Pet Supplies Plus Avondale,"771 Gap Newport Pike, Avondale, PA 19311, United States",39.835213,-75.796639,https://www.petsuppliesplus.com/Store/PA/Avondale/Avondale/9044,"771 Gap Newport Pike, Avondale, PA 19311, USA",(610) 268-2424
ChIJPRwgAkfuwogR9WAR6xt6nKQ,Pet Supplies Plus Clearwater,"1500 McMullen Booth Rd, Clearwater, FL 33759, United States",27.9801305,-82.7098698,https://www.petsuppliesplus.com/store/fl/clearwater/8046-clearwater/8046,"1500 McMullen Booth Rd, Clearwater, FL 33759, USA",(727) 726-5544
ChIJZzVqpX6p2YgRAnL627zqmos,Pet Supplies Plus Hollywood,"4923 Sheridan St, Hollywood, FL 33021, United States",26.0338889,-80.1941667,https://www.petsuppliesplus.com/store/fl/hollywood/8047-hollywood/8047,"4923 Sheridan St, Hollywood, FL 33021, USA",(954) 985-3400
ChIJacZ_omeRwogR2pUQXQf08Bw,Pet Supplies Plus New Port Richey,"9143 Little Rd, New Port Richey, FL 34654, United States",28.290659,-82.6770559,https://www.petsuppliesplus.com/store/fl/new-port-richey/8035-new-port-richey/8035,"9143 Little Rd, New Port Richey, FL 34654, USA",(727) 868-4900
ChIJ91WPlG8f6IgRkzbWU1teVUA,Pet Supplies Plus Spring Hill,"13120 Cortez Blvd, Spring Hill, FL 34613, United States",28.532355,-82.509626,https://www.petsuppliesplus.com/store/fl/spring-hill/4266-spring-hill/4266,"13120 Cortez Blvd, Spring Hill, FL 34613, USA",(352) 340-5325
ChIJ5ZOtAVL7wogRSBsPKgdP1Oo,Pet Supplies Plus Pinellas Park,"7331 Park Blvd, Pinellas Park, FL 33781, United States",27.8411237,-82.7395329,https://www.petsuppliesplus.com/store/fl/pinellas-park/8039-pinellas-park/8039,"7331 Park Blvd, Pinellas Park, FL 33781, USA",(727) 541-1199
ChIJheg2m0dl54gRTEXoTvIxvgc,Pet Supplies Plus Conway Plaza,"4404 Curry Ford Rd, Orlando, FL 32812, United States",28.5216722,-81.3298264,https://www.petsuppliesplus.com/store/fl/orlando/4156-orlando/4156,"4404 Curry Ford Rd, Orlando, FL 32812, USA",(407) 730-8077
ChIJOwmUJ2AD2YgR9fYRfS6OJYI,Pet Supplies Plus Coconut Creek,"4839 Coconut Creek Pkwy Ste. 14A, Coconut Creek, FL 33063, United States",26.24606,-80.18744,https://www.petsuppliesplus.com/store/fl/coconut-creek/4651-coconut-creek/4651,"4839 Coconut Creek Pkwy Ste. 14A, Coconut Creek, FL 33063, USA",(954) 972-2559
ChIJeYM7N-G7wogROLnXQ1YhkCs,Pet Supplies Plus Land O'Lakes,"21703 Village Lakes Shopping Center Dr, Land O' Lakes, FL 34639, United States",28.1908816,-82.4574202,https://www.petsuppliesplus.com/Store/FL/Land-O-Lakes/Land-O'Lakes/4011,"21703 Village Lakes Shopping Center Dr, Land O' Lakes, FL 34639, USA",(813) 575-9738
ChIJOwGWthBv54gRElh8BRxJXHI,Pet Supplies Plus Winter Park,"4270 Aloma Ave #136, Winter Park, FL 32792, United States",28.612493,-81.2797603,https://www.petsuppliesplus.com/store/fl/winter-park/4121-winter-park/4121,"4270 Aloma Ave #136, Winter Park, FL 32792, USA",(321) 295-7495
ChIJja2ckcDF5YgRP3SQuiePDMs,Pet Supplies Plus Orange Park,"510 Blanding Blvd Suite 50, Orange Park, FL 32073, United States",30.1555293,-81.7490375,https://www.petsuppliesplus.com/store/fl/orange-park/4125-orange-park/4125,"510 Blanding Blvd Suite 50, Orange Park, FL 32073, USA",(904) 375-1232
ChIJZRGq2YDJ5YgRdKtj6JOehkY,Pet Supplies Plus University,"1614 University Blvd W, Jacksonville, FL 32217, United States",30.2601804,-81.6431978,https://www.petsuppliesplus.com/store/fl/jacksonville/4316-jacksonville/4316,"1614 University Blvd W, Jacksonville, FL 32217, USA",(904) 551-1144
ChIJoabYPSpDkYgRABxhKylgh_Y,Pet Supplies Plus Destin,"4424 Commons Dr E Suite 1 - A, Destin, FL 32541, United States",30.3906246,-86.4274398,https://www.petsuppliesplus.com/store/fl/destin/4433-destin/4433,"4424 Commons Dr E Suite 1 - A, Destin, FL 32541, USA",(850) 837-0688
ChIJm-BjUrSt3IgRIWUOsfOPbbc,Pet Supplies Plus North Port,"1045 Front Pl, North Port, FL 34287, United States",27.070288,-82.2079243,https://www.petsuppliesplus.com/store/fl/north-port/4008-north-port/4008,"1045 Front Pl, North Port, FL 34287, USA",(941) 421-0853
ChIJAfTqcTfAwogRQ7ZB33TXOsU,Pet Supplies Plus Tampa,"12064 Anderson Rd, Tampa, FL 33625, United States",28.0608807,-82.543523,https://www.petsuppliesplus.com/store/fl/tampa/4024-tampa/4024,"12064 Anderson Rd, Tampa, FL 33625, USA",(813) 374-7558
ChIJ62hlakTr3ogRoUGqq6t0IjA,Pet Supplies Plus Port St. Lucie,"3215-A SW Port St Lucie Blvd, Port St. Lucie, FL 34953, United States",27.2486389,-80.3743033,https://www.petsuppliesplus.com/Store/FL/PORT-ST-LUCIE/Port-St-Lucie/4410,"3215-A SW Port St Lucie Blvd, Port St. Lucie, FL 34953, USA",(772) 873-8170
ChIJgSscJQHNwogRU0Cv0n7tPyY,Pet Supplies Plus Valrico,"1937 FL-60, Valrico, FL 33594, United States",27.9362499,-82.2550418,https://www.petsuppliesplus.com/Store/FL/Valrico/Valrico/8062,"1937 FL-60, Valrico, FL 33594, USA",(813) 540-0645
ChIJoRuaozNHw4gR-w_SncjvG9c,Pet Supplies Plus - Sarasota East,"5380 Fruitville Rd Store No. 4177, Sarasota, FL 34232, United States",27.3361579,-82.4616274,https://www.petsuppliesplus.com/Store/FL/Sarasota/Sarasota-East/4177,"5380 Fruitville Rd Store No. 4177, Sarasota, FL 34232, USA",(941) 893-1440
ChIJd0CRGgCNwogR6V2tkqHuPTU,Pet Supplies Plus Holiday,"2607 US-19 Suite B2, Holiday, FL 34691, United States",28.1967986,-82.7409573,https://www.petsuppliesplus.com/store/fl/holiday/4308-holiday/4308,"2607 US-19 Suite B2, Holiday, FL 34691, USA",(727) 626-4713
ChIJ4ZUm5c1s54gRJ_90OtmNvc8,Pet Supplies Plus Sanford,"3701 S Orlando Dr, Sanford, FL 32773, United States",28.7591257,-81.2840031,https://www.petsuppliesplus.com/store/fl/sanford/4285-sanford/4285,"3701 S Orlando Dr, Sanford, FL 32773, USA",(407) 323-8176
ChIJoWBucKZN3YgR3BJJjKKPIIQ,Pet Supplies Plus Zephyrhills,"5919 Gall Blvd Suite #3, Zephyrhills, FL 33542, United States",28.2430742,-82.1891645,https://www.petsuppliesplus.com/Store/FL/Zephyrhills/Zephyrhills/4216,"5919 Gall Blvd Suite #3, Zephyrhills, FL 33542, USA",(813) 395-6166
ChIJNz3qiUElw4gRwmUu3dQU_0w,Pet Supplies Plus Parrish,"8900 US-301 Suite 101, Parrish, FL 34219, United States",27.5463926,-82.4745674,https://www.petsuppliesplus.com/store/fl/parrish/4417-parrish/4417,"8900 US-301 Suite 101, Parrish, FL 34219, USA",(941) 933-7387
ChIJ9YaPqB4v2YgRObtTsJV0HfA,Pet Supplies Plus Royal Palm,"11051 Southern Blvd Suite 160, Royal Palm Beach, FL 33411, United States",26.6830361,-80.2252045,https://www.petsuppliesplus.com/store/fl/royal-palm-beach/4257-royal-palm-beach/4257,"11051 Southern Blvd Suite 160, Royal Palm Beach, FL 33411, USA",(561) 345-3151
ChIJrZGWfaiDk4gRtjK6pg_DwGg,Pet Supplies Plus Panama City,"664 W 23rd St, Panama City, FL 32405, United States",30.1914525,-85.6704164,http://www.petsuppliesplus.com/,"664 W 23rd St, Panama City, FL 32405, USA",(850) 738-1199
ChIJ5W6hxM8-24gRp-NZalsClJU,Pet Supplies Plus Fort Myers,"15880 San Carlos Blvd STE 190, Fort Myers, FL 33908, United States",26.5094734,-81.9442371,https://www.petsuppliesplus.com/store/fl/fort-myers/4004-fort-myers/4004,"15880 San Carlos Blvd STE 190, Fort Myers, FL 33908, USA",(239) 208-3151
ChIJf9TPAw7g2IgRND0KA8AZ8j4,Pet Supplies Plus Delray Beach,"800 Linton Blvd, Delray Beach, FL 33444, United States",26.4392104,-80.081878,https://www.petsuppliesplus.com/Store/FL/Delray-Beach/Delray-Beach/4448,"800 Linton Blvd, Delray Beach, FL 33444, USA",(561) 330-0663
ChIJlaEchjXlwogRU3P02SF41U8,Pet Supplies Plus St. Petersburg,"1123 62nd Ave N, St. Petersburg, FL 33702, United States",27.8296394,-82.6499404,https://www.petsuppliesplus.com/Store/FL/St-Petersburg/St-Petersburg/4191,"1123 62nd Ave N, St. Petersburg, FL 33702, USA",(727) 800-9622
ChIJQeR9SaXT5YgRB-pVxlP6ihs,Pet Supplies Plus St. Johns,"206 Ashourian Ave Ste 108, St. Augustine, FL 32092, United States",30.0583088,-81.5265184,https://www.petsuppliesplus.com/store/fl/saint-augustine/4256-saint-augustine/4256,"206 Ashourian Ave Ste 108, St. Augustine, FL 32092, USA",(904) 342-8769
ChIJ5_TWI0fV2IgRiuiHJCiP9AM,Pet Supplies Plus Lake Park,"1258 Northlake Blvd, Lake Park, FL 33403, United States",26.8068742,-80.081451,https://www.petsuppliesplus.com/Store/FL/Lake-Park/Lake-Park/4447,"1258 Northlake Blvd, Lake Park, FL 33403, USA",(561) 844-5898
ChIJo6nfV7Cp3IgRPmxizHewSag,Pet Supplies Plus Port Charlotte,"1960 Kings Hwy, Port Charlotte, FL 33980, United States",27.0036624,-82.0529367,https://www.petsuppliesplus.com/store/fl/port-charlotte/4241-port-charlotte/4241,"1960 Kings Hwy, Port Charlotte, FL 33980, USA",(941) 764-3493
ChIJSdjNA0ZJ5IgR1R5KqIDFgrQ,Pet Supplies Plus Atlantic Beach,"977 Atlantic Blvd, Atlantic Beach, FL 32233, United States",30.3259848,-81.4109848,https://www.petsuppliesplus.com/store/fl/atlantic-beach/4000-atlantic-beach/4000,"977 Atlantic Blvd, Atlantic Beach, FL 32233, USA",(904) 853-6406
ChIJEbZzEHQA5YgRVIod45s3v1Y,Pet Supplies Plus Yulee,"463913 E State Rd 200 Unit 1, Yulee, FL 32097, United States",30.6255386,-81.5428568,https://www.petsuppliesplus.com/Store/FL/Yulee//4304,"463913 E State Rd 200 Unit 1, Yulee, FL 32097, USA",(904) 468-5855
ChIJnQ544afB2YgRFy2Sj5Fpz2Q,Pet Supplies Plus Kendall,"7318 SW 117th Ave, Kendall, FL 33183, United States",25.699328,-80.3833169,https://www.petsuppliesplus.com/store/fl/kendall/4599-kendall/4599,"7318 SW 117th Ave, Kendall, FL 33183, USA",(305) 456-4503
ChIJ96oxF03i2ogRLEXi4UEP2Ds,Pet Supplies Plus Naples (Kings Lake Square),"4880 Davis Blvd, Naples, FL 34104, United States",26.1373023,-81.7478666,https://www.petsuppliesplus.com/store/fl/naples/4124-naples/4124,"4880 Davis Blvd, Naples, FL 34104, USA",(239) 300-4759
ChIJkRoK5xkD5YgR6FOEPKUQpkU,Pet Supplies Plus St. Mary's,"6500 GA-40, St Marys, GA 31558, United States",30.77645,-81.6207945,https://www.petsuppliesplus.com/store/ga/st-marys/8036-st-marys/8036,"6500 GA-40, St Marys, GA 31558, USA",(912) 882-2225
ChIJk7fCwPwf2YgRxIy0hTgIbVQ,Pet Supplies Plus Boca Raton,"3013 Yamato Rd B22, Boca Raton, FL 33434, United States",26.395429,-80.1484743,https://www.petsuppliesplus.com/store/fl/boca-raton/4528-boca-raton/4528,"3013 Yamato Rd B22, Boca Raton, FL 33434, USA",(561) 372-9007
ChIJWT1r5EnW5IgRMeLFTGqiFYw,Pet Supplies Plus Brunswick,"659 Scranton Rd, Brunswick, GA 31520, United States",31.2186298,-81.4944301,https://www.petsuppliesplus.com/store/ga/brunswick/8032-brunswick/8032,"659 Scranton Rd, Brunswick, GA 31520, USA",(912) 267-5770
ChIJ2_HYlUP19YgRE2SiQtdxdjs,Pet Supplies Plus Gainesville,"983 Dawsonville Hwy Ste B, Gainesville, GA 30501, United States",34.3001403,-83.8591537,http://www.petsuppliesplus.com/,"983 Dawsonville Hwy Ste B, Gainesville, GA 30501, USA",(678) 696-5522
ChIJRReyjW5t9ogRiri35oGIYEA,Pet Supplies Plus Athens,"191 Alps Rd Ste 13A, Athens, GA 30606, United States",33.9470167,-83.4069671,https://www.petsuppliesplus.com/store/ga/athens/8029-athens/8029,"191 Alps Rd Ste 13A, Athens, GA 30606, USA",(706) 353-0650
ChIJ4xtsg9t98ogR8vzd79_LSDY,Pet Supplies Plus Albany,"1224 N Westover Blvd, Albany, GA 31707, United States",31.6146382,-84.2064286,https://www.petsuppliesplus.com/,"1224 N Westover Blvd, Albany, GA 31707, USA",(229) 448-4886
ChIJPVL-EZmT9YgR0v9AzuHDduA,Pet Supplies Plus Buford,"3280 Hamilton Mill Rd Suite 306, Buford, GA 30519, United States",34.0940152,-83.9362793,https://www.petsuppliesplus.com/store/ga/buford/4608-buford/4608,"3280 Hamilton Mill Rd Suite 306, Buford, GA 30519, USA",(678) 926-3482
ChIJhxHzRFDg84gRyzuObYZ303E,Pet Supplies Plus Warner Robins,"115 Richard B, Russell Pkwy Suite 110, Warner Robins, GA 31088, United States",32.59241430000001,-83.6260575,https://www.petsuppliesplus.com/store/ga/warner-robins/4091-warner-robins/4091,"115 Richard B, Russell Pkwy Suite 110, Warner Robins, GA 31088, USA",(478) 922-9858
ChIJ2V9G8UcX9YgR7ThIC60uz5Y,Pet Supplies Plus Smyrna,"3240 S Cobb Dr SE STE 750, Smyrna, GA 30080, United States",33.8757611,-84.5335336,https://www.petsuppliesplus.com/store/ga/smyrna/4020-smyrna/4020,"3240 S Cobb Dr SE STE 750, Smyrna, GA 30080, USA",(770) 431-0029
ChIJIeBWWIC79YgRbHcKXruXlb8,Pet Supplies Plus Lilburn,"4045 Five Forks Trickum Rd SW Suite D-18, Lilburn, GA 30047, United States",33.8700068,-84.0935968,https://www.petsuppliesplus.com/store/ga/lilburn/4538-lilburn/4538,"4045 Five Forks Trickum Rd SW Suite D-18, Lilburn, GA 30047, USA",(678) 359-2145
ChIJgeqODmhq9YgRvzD_LQkp3lE,Pet Supplies Plus Acworth,"6199 GA-92 #160, Acworth, GA 30102, United States",34.0902536,-84.5859964,https://www.petsuppliesplus.com/store/ga/acworth/4083-acworth/4083,"6199 GA-92 #160, Acworth, GA 30102, USA",(770) 672-6802
ChIJN2DvezFt9YgRWVs9WoRO7kk,Pet Supplies Plus Marietta,"2960 Shallowford Rd STE 114-B, Marietta, GA 30066, United States",34.0347179,-84.4660212,https://www.petsuppliesplus.com/store/ga/marietta/8041-marietta/8041,"2960 Shallowford Rd STE 114-B, Marietta, GA 30066, USA",(770) 973-3551
ChIJ5-Q11QL584gRi4SFgabliSo,Pet Supplies Plus Macon,"4650 Forsyth Rd Suite 170, Macon, GA 31210, United States",32.8735372,-83.7097032,https://www.petsuppliesplus.com/store/ga/macon/4105-macon/4105,"4650 Forsyth Rd Suite 170, Macon, GA 31210, USA",(478) 292-8624
ChIJ8YRNomyb9YgRv4lM8XTG0H8,Pet Supplies Plus Cumming,"1595 Peachtree Pkwy Ste 116, Cumming, GA 30041, United States",34.1220767,-84.1694244,https://www.petsuppliesplus.com/store/ga/cumming/4573-cumming/4573,"1595 Peachtree Pkwy Ste 116, Cumming, GA 30041, USA",(470) 592-1206
ChIJJSFJxa8vi4gR9ElPabVAOiI,Pet Supplies Plus Carrollton,"1301 S Park St, Carrollton, GA 30117, United States",33.5563254,-85.0762287,https://www.petsuppliesplus.com/store/ga/carrollton/8034-carrollton/8034,"1301 S Park St, Carrollton, GA 30117, USA",(770) 214-8825
ChIJaW50DOL1WIgRdWrvUiULeUM,Pet Supplies Plus Seneca,"113 Rochester Hwy, Seneca, SC 29672, United States",34.7024421,-82.9393582,https://www.petsuppliesplus.com/,"113 Rochester Hwy, Seneca, SC 29672, USA",(864) 453-0440
ChIJvQwc-8JhYIgRrV2K08Ba9ZM,Pet Supplies Plus Chattanooga,"3901 Hixson Pike #137, Chattanooga, TN 37415, United States",35.1140912,-85.26315,https://www.petsuppliesplus.com/,"3901 Hixson Pike #137, Chattanooga, TN 37415, USA",(423) 226-1016
ChIJLZkpbMX_rlQRIDGina2e5Vg,Pet Supplies Plus Garden City,"5689 W Chinden Blvd, Garden City, ID 83714, United States",43.6476708,-116.2779944,http://www.petsuppliesplus.com/,"5689 W Chinden Blvd, Garden City, ID 83714, USA",(208) 927-4777
ChIJZ0xcvtDGYVMRvgWN1oMJBl8,Pet Supplies Plus Coeur d'Alene,"3115 N Government Wy, Coeur d'Alene, ID 83815, United States",47.7061224,-116.7869137,https://www.petsuppliesplus.com/store/id/coeur-dalene/4251-coeur-dalene/4251,"3115 N Government Wy, Coeur d'Alene, ID 83815, USA",(208) 664-4364
ChIJI6aShbmZD4gRUrwZu_TOMq8,Pet Supplies Plus Mundelein,"2982 IL-60, Mundelein, IL 60060, United States",42.2820225,-88.043129,https://www.petsuppliesplus.com/Store/IL/Mundelein/Mundelein/63,"2982 IL-60, Mundelein, IL 60060, USA",(847) 566-5409
ChIJHzYFQUk3dYgRAV8oG6t7w9I,Pet Supplies Plus Springfield,"1895 E Sangamon Ave, Springfield, IL 62702, United States",39.8327561,-89.6309445,https://www.petsuppliesplus.com/Store/IL/Springfield/Springfield/4090,"1895 E Sangamon Ave, Springfield, IL 62702, USA",(217) 528-7301
ChIJVdhyBaRBdYgR3KcwZe9V1_w,Pet Supplies Plus Chatham,"1065 Jason Pl, Chatham, IL 62629, United States",39.6847977,-89.7073542,https://www.petsuppliesplus.com/store/il/chatham/4408-chatham/4408,"1065 Jason Pl, Chatham, IL 62629, USA",(217) 483-9070
ChIJnSr03UpaDogRMOaZBNNChQI,Pet Supplies Plus Bolingbrook,"270 N Bolingbrook Dr, Bolingbrook, IL 60440, United States",41.7038956,-88.0677551,https://www.petsuppliesplus.com/Store/IL/Bolingbrook/Bolingbrook/180,"270 N Bolingbrook Dr, Bolingbrook, IL 60440, USA",(630) 739-7777
ChIJy3Mc1Qm3D4gRy8ABeGuX6Ec,Pet Supplies Plus Des Plaines,"1168 Lee St, Des Plaines, IL 60016, United States",42.031883,-87.894882,https://www.petsuppliesplus.com/Store/IL/Des-Plaines/Des-Plaines/42,"1168 Lee St, Des Plaines, IL 60016, USA",(847) 298-4450
ChIJ79UR1ECsCYgRRpnOotmpWpA,Pet Supplies Plus Dixon,"1368 N Galena Ave, Dixon, IL 61021, United States",41.8639115,-89.4979518,https://www.petsuppliesplus.com/store/il/dixon/0230-dixon/0230,"1368 N Galena Ave, Dixon, IL 61021, USA",(815) 288-1950
ChIJdUnW4dbLD4gRUYxojuYQgQA,Pet Supplies Plus Chicago,"7220 W Foster Ave, Chicago, IL 60656, United States",41.9757202,-87.8078606,https://www.petsuppliesplus.com/Store/IL/Chicago/Chicago/53,"7220 W Foster Ave, Chicago, IL 60656, USA",(773) 594-1717
ChIJgX8MjjxxC4gRsQz_vGEohvg,Pet Supplies Plus Normal,"1720 Bradford Ln #102, Normal, IL 61761, United States",40.5332009,-88.9912012,https://www.petsuppliesplus.com/store/il/normal/4147-normal/4147,"1720 Bradford Ln #102, Normal, IL 61761, USA",(309) 585-1035
ChIJD8F1U-uxD4gR2HTdU4DA_9o,Pet Supplies Plus Arlington Heights Grooming,"67 W Golf Rd, Arlington Heights, IL 60005, United States",42.0502587,-87.9842356,https://www.petsuppliesplus.com/dog-grooming,"67 W Golf Rd, Arlington Heights, IL 60005, USA",(847) 364-1177
ChIJo0KgvlHQDIgRC3BOp8swcZM,Pet Supplies Plus Champaign,"2821 W Kirby Ave, Champaign, IL 61821, United States",40.0966284,-88.2937419,https://www.petsuppliesplus.com/store/il/champaign/0185-champaign/0185,"2821 W Kirby Ave, Champaign, IL 61821, USA",(217) 366-9240
ChIJm8CeCHCwD4gRn4Du6yiUBLM,Pet Supplies Plus Arlington Heights,"67 W Golf Rd, Arlington Heights, IL 60005, United States",42.0502587,-87.9842356,https://www.petsuppliesplus.com/Store/IL/Arlington-Heights/Arlington-Heights/57,"67 W Golf Rd, Arlington Heights, IL 60005, USA",(847) 364-1177
ChIJtdUYfv_HdogRMtKM3JYGBRI,Pet Supplies Plus Mount Vernon,"417 S 42nd St, Mt Vernon, IL 62864, United States",38.311737,-88.9441735,https://www.petsuppliesplus.com/Store/IL/Mount-Vernon/Mount-Vernon/4153,"417 S 42nd St, Mt Vernon, IL 62864, USA",(618) 244-3718
ChIJ5y2Ui5DND4gRLREETnXbwbw,Pet Supplies Plus N. Elston,"3640 N Elston Ave, Chicago, IL 60618, United States",41.9472034,-87.7102132,https://www.petsuppliesplus.com/Store/IL/Chicago/N.-Elston/66,"3640 N Elston Ave, Chicago, IL 60618, USA",(773) 583-2288
ChIJY_AfoybwDogRbUPSZi3799s,Pet Supplies Plus Montgomery,"1791 Douglas Rd, Montgomery, IL 60538, United States",41.7222209,-88.3212736,https://www.petsuppliesplus.com/Store/IL/Montgomery/Montgomery/227,"1791 Douglas Rd, Montgomery, IL 60538, USA",(630) 506-8181
ChIJte5hvQL34IcRuTqY1SbsyGg,Pet Supplies Plus Macomb,"103B S Dudley St, Macomb, IL 61455, United States",40.4578984,-90.6668509,https://www.petsuppliesplus.com/store/il/macomb/4187-macomb/4187,"103B S Dudley St, Macomb, IL 61455, USA",(309) 833-1111
ChIJ0Q7xucM1DogRH7CXTbxU020,Pet Supplies Plus Berwyn,"7133 Cermak Rd, Berwyn, IL 60402, United States",41.848772,-87.80179,https://www.petsuppliesplus.com/Store/IL/Berwyn/Berwyn/4246,"7133 Cermak Rd, Berwyn, IL 60402, USA",(708) 318-4243
ChIJeSX7D2USD4gRIuDWY2C_f44,Pet Supplies Plus Lake in the Hills,"132 N Randall Rd, Lake in the Hills, IL 60156, United States",42.1767333,-88.3367952,https://www.petsuppliesplus.com/Store/IL/Lake-in-the-Hills/Lake-in-the-Hills/213,"132 N Randall Rd, Lake in the Hills, IL 60156, USA",(847) 496-3999
ChIJBRfqm89bDYgR4IDZx7x-48k,Pet Supplies Plus Danville,"2917 N Vermilion St B1, Danville, IL 61832, United States",40.1736234,-87.6287903,https://www.petsuppliesplus.com/store/il/danville/0194-danville/0194,"2917 N Vermilion St B1, Danville, IL 61832, USA",(217) 446-0870
ChIJ-Sima_k5DogRMnqdPj-TU6Y,Pet Supplies Plus Oak Lawn,"8717 Ridgeland Ave, Oak Lawn, IL 60453, United States",41.73322719999999,-87.7790301,https://www.petsuppliesplus.com/Store/IL/Oak-Lawn/Oak-Lawn/4101,"8717 Ridgeland Ave, Oak Lawn, IL 60453, USA",(708) 430-5881
ChIJz_SkBi2OD4gRxOsWXbHISic,Pet Supplies Plus Gurnee,"6675A Grand Ave, Gurnee, IL 60031, United States",42.3834756,-87.9709996,https://www.petsuppliesplus.com/Store/IL/Gurnee/Gurnee/243,"6675A Grand Ave, Gurnee, IL 60031, USA",(847) 855-1465
ChIJK2XJfCuND4gRyhRNl5OWiSk,Pet Supplies Plus Waukegan,"3060 N Lewis Ave, Waukegan, IL 60087, United States",42.408234,-87.856716,https://www.petsuppliesplus.com/Store/IL/Waukegan/Waukegan/208,"3060 N Lewis Ave, Waukegan, IL 60087, USA",(847) 782-5727
ChIJQ4fc7M_SD4gRqVIAO0Hy4sU,Pet Supplies Plus Wicker Park,"1289 N Milwaukee Ave, Chicago, IL 60622, United States",41.905299,-87.669152,https://www.petsuppliesplus.com/Store/IL/Chicago/Wicker-Park/224,"1289 N Milwaukee Ave, Chicago, IL 60622, USA",(773) 486-5093
ChIJRZyQFOpzD4gR6MxG-Ke3onA,Pet Supplies Plus Crystal Lake,"6107 Northwest Hwy Ste B, Crystal Lake, IL 60014, United States",42.2257065,-88.316566,https://www.petsuppliesplus.com/Store/IL/Crystal-Lake/Crystal-Lake/4160,"6107 Northwest Hwy Ste B, Crystal Lake, IL 60014, USA",(779) 220-7200
ChIJHUjELST1DogRAv3TQIXld1g,Pet Supplies Plus Plainfield,"13501 Illinois Rte 59 #101, Plainfield, IL 60544, United States",41.6368178,-88.2019069,https://www.petsuppliesplus.com/Store/IL/Plainfield/Plainfield/4037,"13501 Illinois Rte 59 #101, Plainfield, IL 60544, USA",(815) 782-0900
ChIJQQxgEa72CogRzUU5OFJONsU,Pet Supplies Plus Pekin,"2111 Court St, Pekin, IL 61554, United States",40.5598143,-89.6157945,https://www.petsuppliesplus.com/store/il/pekin/0198-pekin/0198,"2111 Court St, Pekin, IL 61554, USA",(309) 346-2684
ChIJxYbcG2fLD4gRC-LmB8OzZTU,Pet Supplies Plus Elmwood Park Grooming,"1748 N Harlem Ave, Elmwood Park, IL 60707, United States",41.9118559,-87.8063961,https://www.petsuppliesplus.com/dog-grooming,"1748 N Harlem Ave, Elmwood Park, IL 60707, USA",(708) 453-6262
ChIJ33brVCvqDogRJJhi1DcD_Nw,Pet Supplies Plus Yorkville,"1755 Marketview Dr, Yorkville, IL 60560, United States",41.6636641,-88.4410698,https://www.petsuppliesplus.com/Store/IL/Yorkville/Yorkville/238,"1755 Marketview Dr, Yorkville, IL 60560, USA",(630) 882-3610
ChIJE7TvK5PkDogRwdRhsrr10pg,Pet Supplies Plus North Aurora,"180 N Randall Rd, North Aurora, IL 60542, United States",41.8090073,-88.3502817,https://www.petsuppliesplus.com/Store/IL/North-Aurora/North-Aurora/188,"180 N Randall Rd, North Aurora, IL 60542, USA",(630) 907-9906
ChIJITUyDuHPD4gRRIH5dMcCgf8,Pet Supplies Plus Evanston,"1916 Dempster St Unit A, Evanston, IL 60202, United States",42.0386135,-87.7008569,https://www.petsuppliesplus.com/store/il/evanston/4120-evanston/4120,"1916 Dempster St Unit A, Evanston, IL 60202, USA",(847) 868-8331
ChIJQ_fJTVbOD4gRgvXaxgHFtGE,Pet Supplies Plus Lincolnwood,"7031 Lincoln Ave, Lincolnwood, IL 60712, United States",42.0090979,-87.7352891,https://www.petsuppliesplus.com/Store/IL/Lincolnwood/Lincolnwood/204,"7031 Lincoln Ave, Lincolnwood, IL 60712, USA",(847) 329-4075
ChIJx1HisTLq34cRbdWFcY3dlCI,Pet Supplies Plus Jacksonville,"1930 W Morton Ave, Jacksonville, IL 62650, United States",39.7237978,-90.2695602,https://www.petsuppliesplus.com/store/il/jacksonville/0189-jacksonville/0189,"1930 W Morton Ave, Jacksonville, IL 62650, USA",(217) 245-2694
ChIJ4alAziTLD4gRo9NREHjUmSU,Pet Supplies Plus Elmwood Park,"1748 N Harlem Ave, Elmwood Park, IL 60707, United States",41.9118084,-87.8062602,https://www.petsuppliesplus.com/Store/IL/Elmwood-Park/Elmwood-Park/64,"1748 N Harlem Ave, Elmwood Park, IL 60707, USA",(708) 453-6262
ChIJ6SaERW4HD4gRNq4qCJtdOZ4,Pet Supplies Plus Streamwood,"61 E Irving Park Rd, Streamwood, IL 60107, United States",42.0127525,-88.1808929,https://www.petsuppliesplus.com/Store/IL/Streamwood/Streamwood/222,"61 E Irving Park Rd, Streamwood, IL 60107, USA",(630) 504-7700
ChIJD-MbiTM7DogRApoDcWHqQgU,Pet Supplies Plus Merrionette Park,"3205 W 115th St, Merrionette Park, IL 60803, United States",41.6831375,-87.7007957,https://www.petsuppliesplus.com/Store/IL/MERRIONETTE-PARK/Merrionette-Park/4038,"3205 W 115th St, Merrionette Park, IL 60803, USA",(708) 385-8322
ChIJu7b4kY3ID4gRNqRxAA3F4T4,Pet Supplies Plus Morton Grove,"7204 Dempster St, Morton Grove, IL 60053, United States",42.0422046,-87.8071334,https://www.petsuppliesplus.com/Store/IL/Morton-Grove/Morton-Grove/38,"7204 Dempster St, Morton Grove, IL 60053, USA",(847) 581-1144
ChIJpd_HH-ibD4gRtTZ1b3JLU7k,Pet Supplies Plus Grayslake,"804 E Belvidere Rd Suite 300, Grayslake, IL 60030, United States",42.33738719999999,-88.0276068,https://www.petsuppliesplus.com/store/il/grayslake/4516-grayslake/4516,"804 E Belvidere Rd Suite 300, Grayslake, IL 60030, USA",(847) 709-3134
ChIJYZmYeJtTDogRBrPs8y84Y0Q,Pet Supplies Plus Glen Ellyn,"299 Roosevelt Rd, Glen Ellyn, IL 60137, United States",41.8589666,-88.0777331,https://www.petsuppliesplus.com/store/il/glen-ellyn/4670-glen-ellyn/4670,"299 Roosevelt Rd, Glen Ellyn, IL 60137, USA",(630) 510-1111
ChIJhxtY8528D4gRdNV8fjAOjVQ,Pet Supplies Plus Buffalo Grove,"870 W Dundee Rd, Arlington Heights, IL 60004, United States",42.1408192,-87.9931044,https://www.petsuppliesplus.com/Store/IL/Arlington-Heights/Buffalo-Grove/54,"870 W Dundee Rd, Arlington Heights, IL 60004, USA",(847) 253-7788
ChIJ8ajwHLYtDogRV4UYEtm-eqs,Pet Supplies Plus Archer-Ashland,"3145 S Ashland Ave #102, Chicago, IL 60608, United States",41.8365304,-87.6638398,https://www.petsuppliesplus.com/Store/IL/Chicago/Archer-Ashland/4139,"3145 S Ashland Ave #102, Chicago, IL 60608, USA",(773) 376-5956
ChIJI97PYL_AD4gRuMBKcrH-GwY,Pet Supplies Plus Deerfield,"9 Waukegan Rd, Deerfield, IL 60015, United States",42.153761,-87.834566,https://www.petsuppliesplus.com/Store/IL/Deerfield/Deerfield/237,"9 Waukegan Rd, Deerfield, IL 60015, USA",(847) 374-0478
ChIJfSI5tow_DogRZS3NLLOJ3k8,Pet Supplies Plus Orland Park,"9430 W 159th St, Orland Park, IL 60467, United States",41.6019458,-87.8489296,https://www.petsuppliesplus.com/Store/IL/Orland-Park/Orland-Park/229,"9430 W 159th St, Orland Park, IL 60467, USA",(708) 971-0700
ChIJOb5dh2NODogRt9FaI4MDke4,Pet Supplies Plus Westmont,"105 E Ogden Ave, Westmont, IL 60559, United States",41.8098534,-87.9723397,https://www.petsuppliesplus.com/store/il/westmont/4669-westmont/4669,"105 E Ogden Ave, Westmont, IL 60559, USA",(630) 719-9090
ChIJgTALExRZDogRyj52RPPee6E,Pet Supplies Plus Bolingbrook - Weber,"204 N Weber Rd, Bolingbrook, IL 60440, United States",41.7008561,-88.1240613,https://www.petsuppliesplus.com/store/il/bolingbrook/4515-bolingbrook/4515,"204 N Weber Rd, Bolingbrook, IL 60440, USA",(630) 848-9970
ChIJD76OJkLSD4gR78lBw3RlvPI,Pet Supplies Plus N. Lincoln,"3757 N Lincoln Ave, Chicago, IL 60613, United States",41.9501952,-87.6752983,https://www.petsuppliesplus.com/Store/IL/Chicago/N.-Lincoln/205,"3757 N Lincoln Ave, Chicago, IL 60613, USA",(773) 327-4314
ChIJx8GTUyyzD4gRUlrXHSCZ-XM,Pet Supplies Plus Villa Park,"198B W North Ave, Villa Park, IL 60181, United States",41.9059118,-87.9827978,https://www.petsuppliesplus.com/Store/IL/Villa-Park/Villa-Park/72,"198B W North Ave, Villa Park, IL 60181, USA",(630) 617-5600
ChIJf-XvalNWDogRKqBC_Pvp__4,Pet Supplies Plus North Naperville,"720 E Ogden Ave, Naperville, IL 60563, United States",41.7866779,-88.1351037,https://www.petsuppliesplus.com/Store/IL/Naperville/North-Naperville/184,"720 E Ogden Ave, Naperville, IL 60563, USA",(630) 904-2100
ChIJDQDxn8ufD4gRCzQvzRcoD44,Pet Supplies Plus Wauconda,"535 W Liberty St, Wauconda, IL 60084, United States",42.25874899999999,-88.1519,https://www.petsuppliesplus.com/store/il/wauconda/4319-wauconda/4319,"535 W Liberty St, Wauconda, IL 60084, USA",(847) 865-5695
ChIJBbISdU343YcRYqwptg1DJ-o,Pet Supplies Plus Quincy,"4824 Broadway St, Quincy, IL 62305, United States",39.933371,-91.338241,https://www.petsuppliesplus.com/store/il/quincy/0179-quincy/0179,"4824 Broadway St, Quincy, IL 62305, USA",(217) 224-3032
ChIJpyVD5GJfBYgRjlF2XoqqbWA,Pet Supplies Plus Kenosha,"3755 80th St SUITE A, Kenosha, WI 53142, United States",42.55813089999999,-87.8534984,https://www.petsuppliesplus.com/store/wi/kenosha/4565-kenosha/4565,"3755 80th St SUITE A, Kenosha, WI 53142, USA",(262) 260-9101
ChIJ6ySCVSEy4YcRa7nP5v3oR_Q,Pet Supplies Plus Burlington,"3200 E Agency St STE 200, Burlington, IA 52601, United States",40.81602729999999,-91.1391213,https://www.petsuppliesplus.com/Store/IA/Burlington/Burlington/244,"3200 E Agency St STE 200, Burlington, IA 52601, USA",(319) 752-4601
ChIJ2ceWjyniEYgRGL_d9Wkmi20,Pet Supplies Plus Dyer,"946 Joliet St, Dyer, IN 46311, United States",41.491846,-87.505001,https://www.petsuppliesplus.com/store/in/dyer/0169-dyer/0169,"946 Joliet St, Dyer, IN 46311, USA",(219) 864-8118
ChIJRyKBlX5JDogR1SRmy0SynVg,Pet Supplies Plus La Grange,"15 N La Grange Rd, La Grange, IL 60525, United States",41.8169467,-87.8695356,https://www.petsuppliesplus.com/store/il/la-grange/4457-la-grange/4457,"15 N La Grange Rd, La Grange, IL 60525, USA",(708) 603-2139
ChIJc07LUaj3DogRjfApVQ1psCM,Pet Supplies Plus South Naperville,"2747 Forgue Dr, Naperville, IL 60564, United States",41.7147009,-88.2051642,https://www.petsuppliesplus.com/Store/IL/Naperville/South-Naperville/183,"2747 Forgue Dr, Naperville, IL 60564, USA",(630) 904-0500
ChIJe-6_ko1BDogRvINgoxI7fwQ,Pet Supplies Plus Homer Glen,"12845 W 143rd St, Homer Glen, IL 60491, United States",41.6284868,-87.9327049,https://www.petsuppliesplus.com/store/il/homer-glen/4196-homer-glen/4196,"12845 W 143rd St, Homer Glen, IL 60491, USA",(815) 524-2111
ChIJAYYUiK9CBYgR574XB59-QUg,Pet Supplies Plus Racine,"5557 Durand Ave, Racine, WI 53406, United States",42.6968691,-87.8477805,https://www.petsuppliesplus.com/Store/WI/Racine/Racine/75,"5557 Durand Ave, Racine, WI 53406, USA",(262) 554-9898
ChIJQdXOcTBDa4gRJjgDfNpg-wM,Pet Supplies Plus Greenwood,"8810 S Emerson Ave #180, Indianapolis, IN 46237, United States",39.639094,-86.0839277,https://www.petsuppliesplus.com/Store/IN/Indianapolis/Greenwood/4099,"8810 S Emerson Ave #180, Indianapolis, IN 46237, USA",(317) 889-6311
ChIJFRQr7NkcE4gReoszd4aVytc,Pet Supplies Plus Lafayette,"311 Sagamore Pkwy N, Lafayette, IN 47904, United States",40.4204639,-86.8557644,https://www.petsuppliesplus.com/store/in/lafayette/0200-lafayette/0200,"311 Sagamore Pkwy N, Lafayette, IN 47904, USA",(765) 446-1600
ChIJIXeGuTXuEYgRQ3qjegdBHSI,Pet Supplies Plus Crown Point,"1676 E Summit St, Crown Point, IN 46307, United States",41.4288552,-87.3375001,https://www.petsuppliesplus.com/store/in/crown-point/0223-crown-point/0223,"1676 E Summit St, Crown Point, IN 46307, USA",(219) 488-1440
ChIJs0fDdlpSa4gRaaJX9-cdnmM,Pet Supplies Plus Broad Ripple,"2238 E 62nd St, Indianapolis, IN 46220, United States",39.869105,-86.124071,https://www.petsuppliesplus.com/Store/IN/Indianapolis/Broad-Ripple/4100,"2238 E 62nd St, Indianapolis, IN 46220, USA",(317) 475-9603
ChIJLxspOWRTE4gRdfnrPlhftBQ,Pet Supplies Plus Whitestown,"6177 Main St, Whitestown, IN 46075, United States",39.9505351,-86.3443851,https://www.petsuppliesplus.com/store/in/whitestown/4136-whitestown/4136,"6177 Main St, Whitestown, IN 46075, USA",(317) 769-7800
ChIJgXSptDCaEYgRLIo0Rk35afg,Pet Supplies Plus Valparaiso,"2410 Laporte Ave, Valparaiso, IN 46383, United States",41.467727,-87.0311641,https://www.petsuppliesplus.com/store/in/valparaiso/0129-valparaiso/0129,"2410 Laporte Ave, Valparaiso, IN 46383, USA",(219) 531-0622
ChIJfb5JI8gZa4gRvUENGl3x_7E,Pet Supplies Plus Shelbyville,"1605 E Michigan Rd, Shelbyville, IN 46176, United States",39.5179864,-85.7539894,https://www.petsuppliesplus.com/,"1605 E Michigan Rd, Shelbyville, IN 46176, USA",(317) 825-2120
ChIJed0z-CO3FIgRHv1WzIJI6Is,Pet Supplies Plus Noblesville,"521 Noble Creek Dr, Noblesville, IN 46060, United States",40.0405556,-85.9975212,https://www.petsuppliesplus.com/Store/IN/Noblesville/Noblesville/4102,"521 Noble Creek Dr, Noblesville, IN 46060, USA",(317) 770-1707
ChIJt7wxefm_EYgR-qavYuqe5Bk,Pet Supplies Plus Portage,"6030 Central Ave Suite A, Portage, IN 46368, United States",41.5761954,-87.1819373,https://www.petsuppliesplus.com/Store/IN/Portage/Portage/217,"6030 Central Ave Suite A, Portage, IN 46368, USA",(219) 763-0697
ChIJ8ZWcYgiha4gRR0d3tw8VhBo,Pet Supplies Plus Columbus,"3059 Columbus Center, Columbus, IN 47203, United States",39.220886,-85.887008,https://www.petsuppliesplus.com/store/in/columbus/4143-columbus/4143,"3059 Columbus Center, Columbus, IN 47203, USA",(812) 657-3838
ChIJ1wZ7Ln2ibIgRyaamZ_zts54,Pet Supplies Plus Mooresville,"490 S Indiana St, Mooresville, IN 46158, United States",39.6054977,-86.3761231,https://www.petsuppliesplus.com/Store/IN/Mooresville/Mooresville/4089,"490 S Indiana St, Mooresville, IN 46158, USA",(317) 831-9162
ChIJDay4wK6tbIgRkNixZUZFg4s,Pet Supplies Plus Brownsburg,"931 N Green St, Brownsburg, IN 46112, United States",39.8555121,-86.3903359,https://www.petsuppliesplus.com/store/in/brownsburg/4411-brownsburg/4411,"931 N Green St, Brownsburg, IN 46112, USA",(317) 939-2128
ChIJRQXGPT-HFIgRbCQYp0vWkNU,Pet Supplies Plus Kokomo,"609 N Dixon Rd, Kokomo, IN 46901, United States",40.49194749999999,-86.1654194,https://www.petsuppliesplus.com/store/in/kokomo/4388-kokomo/4388,"609 N Dixon Rd, Kokomo, IN 46901, USA",(765) 450-6165
ChIJ424RSCUrbogRVRYnIH2YZTM,Pet Supplies Plus Evansville,"912 S Green River Rd STE A, Evansville, IN 47715, United States",37.9635986,-87.4909876,https://www.petsuppliesplus.com/store/in/evansville/4081-evansville/4081,"912 S Green River Rd STE A, Evansville, IN 47715, USA",(812) 909-1364
ChIJUVrvN7BLa4gRe8gWmCP2UqM,Pet Supplies Plus Lawrence,"10625 Pendleton Pike, Indianapolis, IN 46236, United States",39.8582299,-85.9785654,https://www.petsuppliesplus.com/Store/IN/Indianapolis/Lawrence/239,"10625 Pendleton Pike, Indianapolis, IN 46236, USA",(317) 823-2230
ChIJCQrACIDSFogRBWn3PLY2gnM,Pet Supplies Plus South Bend,"2202 South Bend Ave #1, South Bend, IN 46635, United States",41.6996039,-86.215463,https://www.petsuppliesplus.com/Store/IN/South-Bend/South-Bend/25,"2202 South Bend Ave #1, South Bend, IN 46635, USA",(574) 273-2292
ChIJFxdMz5rpFogR1KXiAOAsIjc,Pet Supplies Plus Goshen,"4024 Elkhart Rd #27, Goshen, IN 46526, United States",41.6217519,-85.9011656,https://www.petsuppliesplus.com/store/in/goshen/0166-goshen/0166,"4024 Elkhart Rd #27, Goshen, IN 46526, USA",(574) 875-9199
ChIJo5JKwP_VEogR5BjLJX-zMII,Pet Supplies Plus Crawfordsville,"1530 S Washington St, Crawfordsville, IN 47933, United States",40.0209927,-86.9033905,https://www.petsuppliesplus.com/Store/IN/Crawfordsville/Crawfordsville/209,"1530 S Washington St, Crawfordsville, IN 47933, USA",(765) 362-3022
ChIJZTBD1aezFIgRd4zv5sy1c7c,Pet Supplies Plus Fishers,"7236 Fishers Crossing Dr, Fishers, IN 46038, United States",39.9581715,-86.0431796,https://www.petsuppliesplus.com/Store/IN/Fishers/Fishers/216,"7236 Fishers Crossing Dr, Fishers, IN 46038, USA",(317) 845-0325
ChIJz3ewRy8XFYgR1CHVI7XSVVA,Pet Supplies Plus Muncie,"3500 N Barr St, Muncie, IN 47303, United States",40.2208268,-85.3789917,https://www.petsuppliesplus.com/store/in/muncie/4530-muncie/4530,"3500 N Barr St, Muncie, IN 47303, USA",(765) 215-2023
ChIJ590VEt2-a4gRMV3aWXwMGOk,Pet Supplies Plus,"1510 E 4th St, Seymour, IN 47274, United States",38.9651831,-85.865679,,"1510 E 4th St, Seymour, IN 47274, USA",(812) 271-1086
ChIJ82CcVsUTEYgR3pxm7kW32sc,Pet Supplies Plus La Porte,"1406 E Lincolnway Suite B, La Porte, IN 46350, United States",41.62324,-86.6911047,https://www.petsuppliesplus.com/Store/IN/La-Porte/La-Porte/4087,"1406 E Lincolnway Suite B, La Porte, IN 46350, USA",(219) 402-0100
ChIJ6SBQNhLjFYgRFFPwkUH5G_k,Pet Supplies Plus Fort Wayne - Coldwater,"4714 Coldwater Rd, Fort Wayne, IN 46825, United States",41.1211177,-85.134131,https://www.petsuppliesplus.com/Store/IN/Fort-Wayne/Fort-Wayne-Coldwater/52,"4714 Coldwater Rd, Fort Wayne, IN 46825, USA",(260) 483-2930
ChIJE55nVclxbYgROqH-FBulQPo,Pet Supplies Plus Terre Haute,"2187 IN-46, Terre Haute, IN 47803, United States",39.4403259,-87.3364564,https://www.petsuppliesplus.com/store/in/terre-haute/4085-terre-haute/4085,"2187 IN-46, Terre Haute, IN 47803, USA",(812) 814-3409
ChIJg48h79SzFIgReo49LE5Q7-w,Pet Supplies Plus Fishers Grooming,"7236 Fishers Crossing Dr, Fishers, IN 46038, United States",39.9581143,-86.0431311,https://www.petsuppliesplus.com/dog-grooming,"7236 Fishers Crossing Dr, Fishers, IN 46038, USA",(317) 845-0325
ChIJKUt8v03nFYgRUFBR3kPLkDE,Pet Supplies Plus Fort Wayne - West,"6326 W Jefferson Blvd, Fort Wayne, IN 46804, United States",41.058498,-85.224256,https://www.petsuppliesplus.com/store/in/fort-wayne/4182-fort-wayne/4182,"6326 W Jefferson Blvd, Fort Wayne, IN 46804, USA",(260) 999-4991
ChIJY0cMslj8FYgR6qcSKIODow8,Pet Supplies Plus Fort Wayne - Stelhorn,"6101 Stellhorn Rd, Fort Wayne, IN 46815, United States",41.1222402,-85.0651402,https://www.petsuppliesplus.com/Store/IN/Fort-Wayne/Fort-Wayne-Stelhorn/246,"6101 Stellhorn Rd, Fort Wayne, IN 46815, USA",(260) 485-2554
ChIJG_ZLsqGY7ocR4lK2jc3IC0w,Pet Supplies Plus Des Moines,"4211 Fleur Dr, Des Moines, IA 50321, United States",41.5463326,-93.6438064,https://www.petsuppliesplus.com/store/ia/des-moines/4096-des-moines/4096,"4211 Fleur Dr, Des Moines, IA 50321, USA",(515) 285-9285
ChIJV0PQvGWd7ocRUK3Km--b0k0,Pet Supplies Plus Des Moines,"4371 Merle Hay Rd, Des Moines, IA 50310, United States",41.6410939,-93.6966244,https://www.petsuppliesplus.com/store/ia/des-moines/4270-des-moines/4270,"4371 Merle Hay Rd, Des Moines, IA 50310, USA",(515) 218-9601
ChIJg9pSMZZ38ocRttIpq_THhcY,Pet Supplies Plus Fort Dodge,"2916 5th Ave S, Fort Dodge, IA 50501, United States",42.5020994,-94.1577211,https://www.petsuppliesplus.com/store/ia/fort-dodge/4303-fort-dodge/4303,"2916 5th Ave S, Fort Dodge, IA 50501, USA",(515) 302-8199
ChIJZxXHI5yT7ocReI1wGR0l5V0,Pet Supplies Plus Altoona,"120 8th St SE, Altoona, IA 50009, United States",41.6435738,-93.4635675,https://www.petsuppliesplus.com/store/ia/altoona/4146-altoona/4146,"120 8th St SE, Altoona, IA 50009, USA",(515) 967-0482
ChIJ2Tb-D7Zx7ocR--vL4zQUmiY,Pet Supplies Plus Ames,"2525 Grand Ave, Ames, IA 50010, United States",42.0474554,-93.6224998,https://www.petsuppliesplus.com/store/ia/ames/4420-ames/4420,"2525 Grand Ave, Ames, IA 50010, USA",(515) 620-5034
ChIJKb97lwbzk4cRv5mCd7p8Kxs,Pet Supplies Plus Omaha - W. Center Rd.,"13459 W Center Rd, Omaha, NE 68144, United States",41.233264,-96.1226936,https://www.petsuppliesplus.com/store/ne/omaha/4440-omaha/4440,"13459 W Center Rd, Omaha, NE 68144, USA",(531) 213-2738
ChIJiXAYTKqMk4cRDnpbbC8JsbI,Pet Supplies Plus Omaha,"9725 Q St, Omaha, NE 68127, United States",41.203854,-96.0644746,https://www.petsuppliesplus.com/Store/NE/Omaha/Omaha/4138,"9725 Q St, Omaha, NE 68127, USA",(402) 592-6762
ChIJ4Z_rwjfpwIcRgjPJnk-F34k,Pet Supplies Plus Leawood,"3703 W 95th St, Overland Park, KS 66206, United States",38.9562062,-94.6285314,https://www.petsuppliesplus.com/store/ks/overland-park/4168-overland-park/4168,"3703 W 95th St, Overland Park, KS 66206, USA",(913) 258-5537
ChIJeWP6u573wIcRyHzEuGxuhEU,Pet Supplies Plus Gladstone,"305 NE Englewood Rd, Kansas City, MO 64118, United States",39.1937845,-94.5788487,https://www.petsuppliesplus.com/store/mo/kansas-city/4167-kansas-city/4167,"305 NE Englewood Rd, Kansas City, MO 64118, USA",(816) 452-1933
ChIJ6by6T6aUwIcRsoYMC5F_Hy0,Pet Supplies Plus Lenexa,"13360 W 87th St Pkwy #110, Lenexa, KS 66215, United States",38.9725122,-94.7406079,https://www.petsuppliesplus.com/store/ks/lenexa/4075-lenexa/4075,"13360 W 87th St Pkwy #110, Lenexa, KS 66215, USA",(913) 438-6555
ChIJidAFL_4fwYcRbWI9ABLpAc4,Pet Supplies Plus Kansas City (Lee's Summit),"438 SW Ward Rd, Lee's Summit, MO 64081, United States",38.908426,-94.3972136,https://www.petsuppliesplus.com/store/mo/lees-summit/4158-lees-summit/4158,"438 SW Ward Rd, Lee's Summit, MO 64081, USA",(816) 272-5249
ChIJTcZOUgLhuocRKZI5jyGdwv4,Pet Supplies Plus Wichita - West,"7447 W 21st St #101, Wichita, KS 67205, United States",37.7225986,-97.4292224,https://www.petsuppliesplus.com/store/ks/wichita/4414-wichita/4414,"7447 W 21st St #101, Wichita, KS 67205, USA",(316) 337-5636
ChIJ_TeH-hf9uocRXhU8puQ3Kvc,Pet Supplies Plus Wichita - North Rock,"2250 N Rock Rd STE 110, Wichita, KS 67226, United States",37.7249171,-97.2432366,https://www.petsuppliesplus.com/store/ks/wichita/4084-wichita/4084,"2250 N Rock Rd STE 110, Wichita, KS 67226, USA",(316) 260-9106
ChIJc7EclRdbQogRUz1yXu-hAOM,Pet Supplies Plus Lexington,"4101 Tates Creek Centre Dr Suite 130, Lexington, KY 40517, United States",37.9714944,-84.4985541,https://www.petsuppliesplus.com/store/ky/lexington/4218-lexington/4218,"4101 Tates Creek Centre Dr Suite 130, Lexington, KY 40517, USA",(859) 687-0036
ChIJl84tbE67b4gRuwBPV_Vsw9I,Pet Supplies Plus Owensboro,"2500 Calumet Trce, Owensboro, KY 42303, United States",37.7635471,-87.0663064,https://www.petsuppliesplus.com/store/ky/owensboro/4261-owensboro/4261,"2500 Calumet Trce, Owensboro, KY 42303, USA",(270) 231-8122
ChIJ7xsKan7oaIgRtfeNurtdUmQ,Pet Supplies Plus Elizabethtown,"209 Towne Dr, Elizabethtown, KY 42701, United States",37.733458,-85.89121,https://www.petsuppliesplus.com/store/ky/elizabethtown/4012-elizabethtown/4012,"209 Towne Dr, Elizabethtown, KY 42701, USA",(270) 506-3570
ChIJT67cL_KlQYgR3k9U8uKlDhQ,Pet Supplies Plus Cold Spring,"325 Crossroads Blvd, Cold Spring, KY 41076, United States",39.0055843,-84.4224576,https://www.petsuppliesplus.com/store/ky/cold-spring/4366-cold-spring/4366,"325 Crossroads Blvd, Cold Spring, KY 41076, USA",(859) 908-0254
ChIJkXQyLMS-QYgRMJFh6DLjtA8,Pet Supplies Plus Independence,"1810 Declaration Dr, Independence, KY 41051, United States",38.929701,-84.548508,https://www.petsuppliesplus.com/Store/KY/Independence/Independence/228,"1810 Declaration Dr, Independence, KY 41051, USA",(859) 356-1059
ChIJ9ctIqOfJQYgRAIPdJ-3sIDY,Pet Supplies Plus Delhi,"5124 Delhi Rd, Cincinnati, OH 45238, United States",39.09624549999999,-84.6140442,https://www.petsuppliesplus.com/Store/OH/Cincinnati/Delhi/233,"5124 Delhi Rd, Cincinnati, OH 45238, USA",(513) 347-0580
ChIJd6GzoQW9JoYRyZTs4hvl2IY,Pet Supplies Plus Baton Rouge,"2011 Millerville Rd, Baton Rouge, LA 70816, United States",30.4414604,-91.0239111,https://www.petsuppliesplus.com/store/la/baton-rouge/4486-baton-rouge/4486,"2011 Millerville Rd, Baton Rouge, LA 70816, USA",(225) 408-3314
ChIJ2RiVofmbskwRCkNs_jEOLDA,Pet Supplies Plus Portland,"91 Auburn St Ste M, Portland, ME 04103, United States",43.7028994,-70.2881767,https://www.petsuppliesplus.com/store/me/portland/4579-portland/4579,"91 Auburn St Ste M, Portland, ME 04103, USA",(207) 331-3263
ChIJyccVstqZ4okRTTQqbSK69O8,Pet Supplies Plus Somersworth,"172 Tri City Rd #12, Somersworth, NH 03878, United States",43.2264607,-70.88159,https://www.petsuppliesplus.com/store/nh/somersworth/4260-somersworth/4260,"172 Tri City Rd #12, Somersworth, NH 03878, USA",(603) 838-7387
ChIJ9SHA1OmLskwRpTghMJSVXjI,Pet Supplies Plus Windham,"770 Roosevelt Trail Suite 2, Windham, ME 04062, United States",43.8354584,-70.4425418,https://www.petsuppliesplus.com/store/me/north-windham/4578-north-windham/4578,"770 Roosevelt Trail Suite 2, Windham, ME 04062, USA",(207) 292-4017
ChIJs_7wSMK1skwRBO7wxS52a-Q,Pet Supplies Plus Sanford,"1364 Main St Ste 3, Sanford, ME 04073, United States",43.41591,-70.7466,https://www.petsuppliesplus.com/store/me/sanford/4580-sanford/4580,"1364 Main St Ste 3, Sanford, ME 04073, USA",(207) 292-4171
ChIJW7SH5lWfskwRmlTsVwa5oYQ,Pet Supplies Plus South Portland,"50 Market St, South Portland, ME 04106, United States",43.6353645,-70.2548323,https://www.petsuppliesplus.com/store/me/south-portland/4581-south-portland/4581,"50 Market St, South Portland, ME 04106, USA",(207) 331-4062
ChIJ3cN95kbDt4kRMsxjMDWPw8w,Pet Supplies Plus Beltsville,"10468 Baltimore Ave, Beltsville, MD 20705, United States",39.0284421,-76.9179972,https://www.petsuppliesplus.com/store/md/beltsville/4503-beltsville/4503,"10468 Baltimore Ave, Beltsville, MD 20705, USA",(240) 391-6278
ChIJ8T1Ao6flt4kRIdyFNVdj9ko,Pet Supplies Plus Odenton,"1137 Annapolis Rd, Odenton, MD 21113, United States",39.0797789,-76.6887782,https://www.petsuppliesplus.com/Store/MD/Odenton/Odenton/4082,"1137 Annapolis Rd, Odenton, MD 21113, USA",(410) 674-5046
ChIJ4YXDfQAHyIkRcAprGNi_IIU,Pet Supplies Plus Dundalk,"1401 Merritt Blvd Suite A3, Dundalk, MD 21222, United States",39.2779051,-76.5031162,https://www.petsuppliesplus.com/store/md/dundalk/4631-dundalk/4631,"1401 Merritt Blvd Suite A3, Dundalk, MD 21222, USA",(443) 503-8558
ChIJITmzknL9t4kRXC48fHS0Jow,Pet Supplies Plus Pasadena,"8048 Ritchie Hwy Suite 6D, Pasadena, MD 21122, United States",39.1247914,-76.5916254,https://www.petsuppliesplus.com/Store/MD/Pasadena/Pasadena/4268,"8048 Ritchie Hwy Suite 6D, Pasadena, MD 21122, USA",(410) 934-3967
ChIJeQi9fwDBt4kRA4VnjtXIGAE,Pet Supplies Plus Glenarden,"2200 Petrie Ln Suite 538, Glenarden, MD 20706, United States",38.9205888,-76.8472787,https://www.petsuppliesplus.com/store/md/glenarden/4618-glenarden/4618,"2200 Petrie Ln Suite 538, Glenarden, MD 20706, USA",(301) 322-4292
ChIJc7bkZ5gJyIkRQqF8aGbP12U,Pet Supplies Plus Nottingham,"7927 A Belair Rd, Nottingham, MD 21236, United States",39.3733063,-76.5080491,https://www.petsuppliesplus.com/Store/MD/Nottingham/Nottingham/4211,"7927 A Belair Rd, Nottingham, MD 21236, USA",(240) 986-3579
ChIJqViXTXf9t4kRzqf8CMlzswg,Pet Supplies Plus Pasadena Grooming,"8048 Ritchie Hwy Suite 6D, Pasadena, MD 21122, United States",39.1253412,-76.5922159,https://www.petsuppliesplus.com/dog-grooming,"8048 Ritchie Hwy Suite 6D, Pasadena, MD 21122, USA",(410) 934-3967
ChIJ17BqSv3zt4kRI0AXxSZZNnA,Pet Supplies Plus Edgewater Central,"68 W Central Ave, Edgewater, MD 21037, United States",38.9280124,-76.574233,https://www.petsuppliesplus.com/Store/MD/Edgewater/Edgewater-Central/4415,"68 W Central Ave, Edgewater, MD 21037, USA",(443) 456-4170
ChIJvcNV8Z_3t4kRxX8sQDtFfyw,Pet Supplies Plus Annapolis,"940 Bay Ridge Rd, Annapolis, MD 21403, United States",38.9491581,-76.4869966,https://www.petsuppliesplus.com/Store/MD/Annapolis/Annapolis/4372,"940 Bay Ridge Rd, Annapolis, MD 21403, USA",(443) 456-4190
ChIJIyzj-9ndx4kRIsLXzoScfZM,Pet Supplies Plus Bel Air,"638 Marketplace Dr, Bel Air, MD 21014, United States",39.5230553,-76.3529686,https://www.petsuppliesplus.com/store/md/bel-air/4543-bel-air/4543,"638 Marketplace Dr, Bel Air, MD 21014, USA",(443) 218-2551
ChIJsTT0Ig8tyIkR5ySszAdXvhM,Pet Supplies Plus Mt Airy East,"317 E Ridgeville Blvd, Mt Airy, MD 21771, United States",39.3661065,-77.1615888,https://www.petsuppliesplus.com/Store/MD/Mount-Airy/Mt-Airy-East/4405,"317 E Ridgeville Blvd, Mt Airy, MD 21771, USA",(301) 517-6941
ChIJU78QnOclyIkRzezyD-BSDCQ,Pet Supplies Plus Eldersburg,"1320 Liberty Rd Suite E, Eldersburg, MD 21784, United States",39.40526029999999,-76.9491101,https://www.petsuppliesplus.com/Store/MD/Eldersburg/Eldersburg/4464,"1320 Liberty Rd Suite E, Eldersburg, MD 21784, USA",(443) 495-6695
ChIJycaTtsXDx4kRlbTUVpdwcL4,Pet Supplies Plus Aberdeen,"1016 Beards Hill Rd suite c, Aberdeen, MD 21001, United States",39.5212675,-76.1811182,https://www.petsuppliesplus.com/Store/MD/Aberdeen/Aberdeen/4398,"1016 Beards Hill Rd suite c, Aberdeen, MD 21001, USA",(410) 989-8138
ChIJQ_DCrDtx44kRs7z1YSAuYvo,Pet Supplies Plus Medford,"630 Fellsway, Medford, MA 02155, United States",42.4066863,-71.083635,https://www.petsuppliesplus.com/Store/MA/Medford/Medford/9028,"630 Fellsway, Medford, MA 02155, USA",(781) 395-0009
ChIJLTyypjqD44kRUZOpLCo9oBI,Pet Supplies Plus Waltham,"1030 Main St #10, Waltham, MA 02451, United States",42.3754426,-71.2526607,https://www.petsuppliesplus.com/Store/MA/Waltham/Waltham/9064,"1030 Main St #10, Waltham, MA 02451, USA",(781) 899-1563
ChIJfzHlvkl_44kRLAIZg7r3w7E,Pet Supplies Plus West Roxbury,"1665 VFW Pkwy, West Roxbury, MA 02132, United States",42.26432990000001,-71.168465,https://www.petsuppliesplus.com/Store/MA/West-Roxbury/West-Roxbury/9003,"1665 VFW Pkwy, West Roxbury, MA 02132, USA",(617) 323-4076
ChIJLauBBXfo44kRTZQn4NeFlFs,Pet Supplies Plus Lunenburg,"319 Massachusetts Ave, Lunenburg, MA 01462, United States",42.595492,-71.758572,https://www.petsuppliesplus.com/Store/MA/Lunenburg/Lunenburg/4078,"319 Massachusetts Ave, Lunenburg, MA 01462, USA",(978) 582-6435
ChIJRR7BjrQJ44kRoVAPTaLutrs,Pet Supplies Plus N. Reading,"271 Main St Suite G, North Reading, MA 01864, United States",42.591442,-71.1162088,https://www.petsuppliesplus.com/store/ma/north-reading/4230-north-reading/4230,"271 Main St Suite G, North Reading, MA 01864, USA",(978) 216-3800
ChIJjXXImrJz5IkRaH2So0AjGug,Pet Supplies Plus Milford,"124 Medway Rd SUITE 5, Milford, MA 01757, United States",42.14943470000001,-71.4887193,https://www.petsuppliesplus.com/Store/MA/Milford/Milford/4161,"124 Medway Rd SUITE 5, Milford, MA 01757, USA",(508) 478-0370
ChIJOTp_f9N35IkRzTBg6LpltAM,Pet Supplies Plus Ashland,"43 Pond St, Ashland, MA 01721, United States",42.25745089999999,-71.4270802,https://www.petsuppliesplus.com/store/ma/ashland/4088-ashland/4088,"43 Pond St, Ashland, MA 01721, USA",(508) 370-8260
ChIJDwD8gSm75IkR4i9dhRggxAo,Pet Supplies Plus Plymouth,"133 Samoset St, Plymouth, MA 02360, United States",41.9544028,-70.686496,https://www.petsuppliesplus.com/store/ma/plymouth/4207-plymouth/4207,"133 Samoset St, Plymouth, MA 02360, USA",(774) 556-7200
ChIJHxEMn0Vj44kRlUoCmxL5tEc,Pet Supplies Plus Quincy,"625 Southern Artery, Quincy, MA 02169, United States",42.2523472,-70.989426,https://www.petsuppliesplus.com/Store/MA/Quincy/Quincy/9013,"625 Southern Artery, Quincy, MA 02169, USA",(617) 472-0505
ChIJX2W5qiRv5IkRPQ3jPCfXJFA,Pet Supplies Plus Franklin,"309 E Central St, Franklin, MA 02038, United States",42.080986,-71.383357,https://www.petsuppliesplus.com/store/ma/franklin/4269-franklin/4269,"309 E Central St, Franklin, MA 02038, USA",(508) 603-2024
ChIJMZfRxHXp5okRf6MCe2ZYKMc,Pet Supplies Plus Springfield,"356 Cooley St, Springfield, MA 01128, United States",42.0948485,-72.5011695,https://www.petsuppliesplus.com/store/ma/springfield/4301-springfield/4301,"356 Cooley St, Springfield, MA 01128, USA",(413) 247-3900
ChIJX4khO1eE5IkRuQXXnAKcTZU,Pet Supplies Plus Brockton,"494 Westgate Dr, Brockton, MA 02301, United States",42.092925,-71.054377,https://www.petsuppliesplus.com/Store/MA/Brockton/Brockton/9072,"494 Westgate Dr, Brockton, MA 02301, USA",(508) 584-1032
ChIJSQSU6MuH44kRoeA-qxOxfIs,Pet Supplies Plus Natick,"219 N Main St A-101 A-101, Natick, MA 01760, United States",42.3021506,-71.3596134,https://www.petsuppliesplus.com/Store/MA/Natick/Natick/4186,"219 N Main St A-101 A-101, Natick, MA 01760, USA",(508) 647-6876
ChIJ4Yz9cdSh44kR7QW0HyFYPx4,Pet Supplies Plus Billerica,"700 Boston Rd Suite 12B, Billerica, MA 01821, United States",42.5390966,-71.2429363,https://www.petsuppliesplus.com/Store/MA/Billerica/Billerica/9069,"700 Boston Rd Suite 12B, Billerica, MA 01821, USA",(978) 667-3184
ChIJ-7io6MTm5okR-5GKLS5jAGQ,Pet Supplies Plus West Springfield,"175 Memorial Ave, West Springfield, MA 01089, United States",42.0965189,-72.5993974,https://www.petsuppliesplus.com/Store/MA/West-Springfield/West-Springfield/9015,"175 Memorial Ave, West Springfield, MA 01089, USA",(413) 747-0660
ChIJK_8bC6MJ44kRbaB71y20HFE,Pet Supplies Plus N. Reading Grooming,"271 Main St Suite G, North Reading, MA 01864, United States",42.59176859999999,-71.1163875,https://www.petsuppliesplus.com/dog-grooming,"271 Main St Suite G, North Reading, MA 01864, USA",(978) 216-3800
ChIJVz_tYAxF4YkRLnAeIUFkmUM,Pet Supplies Plus Athol,"111 Tower Rd, Athol, MA 01331, United States",42.5786667,-72.189385,https://www.petsuppliesplus.com/Store/MA/Athol/Athol/4198,"111 Tower Rd, Athol, MA 01331, USA",(978) 574-3981
ChIJVVokGnQB44kRDUl8UicxXnk,Pet Supplies Plus Haverhill,"400 Lowell Ave #14, Haverhill, MA 01832, United States",42.7750529,-71.1153203,https://www.petsuppliesplus.com/Store/MA/Haverhill/Haverhill/9068,"400 Lowell Ave #14, Haverhill, MA 01832, USA",(978) 373-0301
ChIJ87bmMfEb5IkRQs2DzWF5edY,Pet Supplies Plus Oxford,"101 Sutton Ave, Oxford, MA 01540, United States",42.1134707,-71.8480305,https://www.petsuppliesplus.com/Store/MA/Oxford/Oxford/4039,"101 Sutton Ave, Oxford, MA 01540, USA",(508) 987-2503
ChIJn3im1sK244kRor58CcdeXfs,Pet Supplies Plus Nashua,"270 Amherst St Suite B2, Nashua, NH 03063, United States",42.7775354,-71.4985142,https://www.petsuppliesplus.com/Store/NH/Nashua/Nashua/4137,"270 Amherst St Suite B2, Nashua, NH 03063, USA",(603) 281-5354
ChIJm1n_jGlx44kRbNMaiGJjaFs,Pet Supplies Plus Medford Grooming,"630 Fellsway, Medford, MA 02155, United States",42.4069834,-71.0836104,https://www.petsuppliesplus.com/dog-grooming,"630 Fellsway, Medford, MA 02155, USA",(781) 395-0009
ChIJzXfeGEBE5IkRXttpTMhp2D0,Pet Supplies Plus North Providence,"1663 Mineral Spring Ave, Providence, RI 02904, United States",41.8640912,-71.4523369,https://www.petsuppliesplus.com/Store/RI/Providence/North-Providence/9010,"1663 Mineral Spring Ave, Providence, RI 02904, USA",(401) 353-0762
ChIJSdJKDK2D44kRiWl1LKmX-EE,Pet Supplies Plus Waltham Grooming,"1030 Main St #10, Waltham, MA 02451, United States",42.37574,-71.2527542,https://www.petsuppliesplus.com/dog-grooming,"1030 Main St #10, Waltham, MA 02451, USA",(781) 899-1563
ChIJzc6INieN5IkRdLuWd0oHgyw,Pet Supplies Plus Raynham,"500 S St W, Raynham, MA 02767, United States",41.9070171,-71.0479456,https://www.petsuppliesplus.com/Store/MA/Raynham/Raynham/9014,"500 S St W, Raynham, MA 02767, USA",(508) 821-1609
ChIJqcuMN9NP54kR-twQ3L2rLk4,Pet Supplies Plus Pittsfield,"555 Hubbard Ave #170, Pittsfield, MA 01201, United States",42.4661611,-73.195943,https://www.petsuppliesplus.com/Store/MA/Pittsfield/Pittsfield/4152,"555 Hubbard Ave #170, Pittsfield, MA 01201, USA",(413) 347-4571
ChIJzTflR3p35IkRlyzIMBAAvg8,Pet Supplies Plus Ashland Grooming,"43 Pond St, Ashland, MA 01721, United States",42.25745089999999,-71.4270802,https://www.petsuppliesplus.com/dog-grooming,"43 Pond St, Ashland, MA 01721, USA",(508) 370-8260
ChIJcdCTz32p44kRmOHWTlUXwU4,Pet Supplies Plus Salem,"517 S Broadway #1, Salem, NH 03079, United States",42.7434102,-71.1986348,https://www.petsuppliesplus.com/store/nh/salem/4582-salem/4582,"517 S Broadway #1, Salem, NH 03079, USA",(603) 403-3368
ChIJ_6ic0bnm5IkRhTK6y-wVOcg,Pet Supplies Plus Fairhaven,"8 Fairhaven Commons Way, Fairhaven, MA 02719, United States",41.64369000000001,-70.88696,https://www.petsuppliesplus.com/Store/MA/Fairhaven/Fairhaven/4106,"8 Fairhaven Commons Way, Fairhaven, MA 02719, USA",(508) 990-0810
ChIJaYpDmbaF5IkRRW--jRiH6Ic,Pet Supplies Plus Brockton Grooming,"494 Westgate Dr, Brockton, MA 02301, United States",42.0929388,-71.0543732,https://www.petsuppliesplus.com/dog-grooming,"494 Westgate Dr, Brockton, MA 02301, USA",(508) 584-1032
ChIJ32OTqENd5IkRi4a6yVS7yGk,Pet Supplies Plus Attleboro,"1150 Newport Ave Suite E-2B, Attleboro, MA 02703, United States",41.8990306,-71.3514556,https://www.petsuppliesplus.com/store/ma/attleboro/4471-attleboro/4471,"1150 Newport Ave Suite E-2B, Attleboro, MA 02703, USA",(508) 834-8191
ChIJw3Qm97oB44kREhyBrTfyXBQ,Pet Supplies Plus Haverhill Grooming,"400 Lowell Ave #14, Haverhill, MA 01832, United States",42.7750587,-71.1147537,https://www.petsuppliesplus.com/dog-grooming,"400 Lowell Ave #14, Haverhill, MA 01832, USA",(978) 373-0301
ChIJMVgapIjn5IkRYHink-gpoGk,Pet Supplies Plus Fairhaven Grooming,"8 Fairhaven Commons Way, Fairhaven, MA 02719, United States",41.6436986,-70.8870127,https://www.petsuppliesplus.com/dog-grooming,"8 Fairhaven Commons Way, Fairhaven, MA 02719, USA",(508) 990-0810
ChIJP4ppsMNO5IkR9HwgH5TyYeo,Pet Supplies Plus Cranston,"171 Sockanosset Cross Rd, Cranston, RI 02920, United States",41.756747,-71.457269,https://www.petsuppliesplus.com/Store/RI/Cranston/Cranston/9005,"171 Sockanosset Cross Rd, Cranston, RI 02920, USA",(401) 944-5858
ChIJiYELTeuP44kRQzhskWCYvBE,Pet Supplies Plus Sudbury,"424 Boston Post Rd, Sudbury, MA 01776, United States",42.3613655,-71.4216338,https://www.petsuppliesplus.com/store/ma/sudbury/4577-sudbury/4577,"424 Boston Post Rd, Sudbury, MA 01776, USA",(617) 545-7121
ChIJZUaqsEbBIogR06518qYW1HE,Pet Supplies Plus Lansing,"6030 S Pennsylvania Ave, Lansing, MI 48911, United States",42.669515,-84.5386111,https://www.petsuppliesplus.com/store/mi/lansing/0009-lansing/0009,"6030 S Pennsylvania Ave, Lansing, MI 48911, USA",(517) 887-8130
ChIJ57bzyPkvPYgRK4JQaRqsCjE,Pet Supplies Plus Jackson,"1094 N Wisner St, Jackson, MI 49202, United States",42.2617445,-84.428878,https://www.petsuppliesplus.com/store/mi/jackson/0012-jackson/0012,"1094 N Wisner St, Jackson, MI 49202, USA",(517) 787-0090
ChIJMYrxlbCxGYgR6OYRS9py9eA,Pet Supplies Plus Wyoming,"740 28th St SW, Wyoming, MI 49509, United States",42.9126075,-85.6841769,https://www.petsuppliesplus.com/Store/MI/Wyoming/Wyoming/11,"740 28th St SW, Wyoming, MI 49509, USA",(616) 532-5171
ChIJ68e45FQzHogRt4YbDZfHT8U,Pet Supplies Plus Traverse City,"3180 W South Airport Rd, Traverse City, MI 49684, United States",44.7232935,-85.6373447,https://www.petsuppliesplus.com/store/mi/traverse-city/4333-traverse-city/4333,"3180 W South Airport Rd, Traverse City, MI 49684, USA",(231) 888-7387
ChIJgX7e35jOJIgRA_niLerAGgg,Pet Supplies Plus Detroit,"18956 Livernois, Detroit, MI 48221, United States",42.4302924,-83.141185,https://www.petsuppliesplus.com/store/mi/detroit/0007-detroit/0007,"18956 Livernois, Detroit, MI 48221, USA",(313) 863-5660
ChIJT4i9zXBvO4gRNMYDTAaWrX8,Pet Supplies Plus Monroe,"859 N Telegraph Rd, Monroe, MI 48162, United States",41.9341454,-83.409607,https://www.petsuppliesplus.com/Store/MI/Monroe/Monroe/108,"859 N Telegraph Rd, Monroe, MI 48162, USA",(734) 384-9888
ChIJUW8TQofDI4gRmgg8FLNIVxM,Pet Supplies Plus Saginaw,"5708 State St, Saginaw, MI 48603, United States",43.4375277,-84.028891,https://www.petsuppliesplus.com/store/mi/saginaw/0127-saginaw/0127,"5708 State St, Saginaw, MI 48603, USA",(989) 791-1132
ChIJsxBOl4pPI4gRqoK3rp998kY,Pet Supplies Plus Brighton,"8703 Grand River Ave, Brighton, MI 48116, United States",42.5379386,-83.7830805,https://www.petsuppliesplus.com/store/mi/brighton/4645-brighton/4645,"8703 Grand River Ave, Brighton, MI 48116, USA",(810) 212-2225
ChIJo4rGqu-dF4gRfS2zoLIBrnY,Pet Supplies Plus Portage,"5230 S Westnedge Ave, Portage, MI 49002, United States",42.2408732,-85.5899759,https://www.petsuppliesplus.com/store/mi/portage/0077-portage/0077,"5230 S Westnedge Ave, Portage, MI 49002, USA",(269) 341-9252
ChIJK-q9VH7yF4gRiyUcvjUU_9c,Pet Supplies Plus Battle Creek,"1791 W Columbia Ave, Battle Creek, MI 49015, United States",42.29657419999999,-85.2276633,https://www.petsuppliesplus.com/store/mi/battle-creek/0212-battle-creek/0212,"1791 W Columbia Ave, Battle Creek, MI 49015, USA",(269) 964-9252
ChIJMyhPoSQfJYgReKwGFN3J53A,Pet Supplies Plus Chesterfield Twp,"50633 Gratiot Ave, Chesterfield, MI 48051, United States",42.6721786,-82.8364344,https://www.petsuppliesplus.com/store/mi/chesterfield-twp/4287-chesterfield-twp/4287,"50633 Gratiot Ave, Chesterfield, MI 48051, USA",(586) 949-7490
ChIJy4d46ImtJIgRNyoDuNMA7zA,Pet Supplies Plus,"17410 College Pkwy, Livonia, MI 48152, United States",42.4154907,-83.4285928,http://www.petsuppliesplus.com/,"17410 College Pkwy, Livonia, MI 48152, USA",(800) 960-2275
ChIJXcE2pX7_GIgRb_Bje8WNgAA,Pet Supplies Plus Rockford,"189 Marcell Dr NE, Rockford, MI 49341, United States",43.1152852,-85.5465427,https://www.petsuppliesplus.com/store/mi/rockford/4572-rockford/4572,"189 Marcell Dr NE, Rockford, MI 49341, USA",(616) 274-3099
ChIJ7w-cEaZTO4gRylPNfNK6DTM,Pet Supplies Plus Canton,"43665 Ford Rd N/A, Canton Township, MI 48187, United States",42.3215457,-83.4714819,https://www.petsuppliesplus.com/store/mi/canton/0015-canton/0015,"43665 Ford Rd N/A, Canton Township, MI 48187, USA",(734) 981-9191
ChIJoXupDqXQJIgR5VrGhk7HZ_0,Pet Supplies Plus Warren,"26230 Hoover Rd, Warren, MI 48089, United States",42.4868196,-83.0056233,https://www.petsuppliesplus.com/Store/MI/Warren/Warren/43,"26230 Hoover Rd, Warren, MI 48089, USA",(586) 754-6000
ChIJZwzDwzlNGIgRWI5wEXRu-A0,Pet Supplies Plus Woodpointe,"2500 E Beltline Ave SE Suite P, Grand Rapids, MI 49546, United States",42.9184486,-85.5823538,https://www.petsuppliesplus.com/Store/MI/Grand-Rapids/Woodpointe/150,"2500 E Beltline Ave SE Suite P, Grand Rapids, MI 49546, USA",(616) 977-0150
ChIJc7lC83g3O4gRp6NYvSMoVEM,Pet Supplies Plus Southgate,"15060 Eureka Rd, Southgate, MI 48195, United States",42.1995963,-83.2062999,https://www.petsuppliesplus.com/store/mi/southgate/0231-southgate/0231,"15060 Eureka Rd, Southgate, MI 48195, USA",(734) 720-9797
ChIJo0hVJBg2O4gR8NgP47Nbjw4,Pet Supplies Plus Taylor,"22124 Ecorse Rd, Taylor, MI 48180, United States",42.2563301,-83.2521799,https://www.petsuppliesplus.com/store/mi/taylor/0018-taylor/0018,"22124 Ecorse Rd, Taylor, MI 48180, USA",(313) 295-6500
ChIJ7RnMlN2-JIgR9D2bebjRQj4,Pet Supplies Plus Bloomfield Hills,"2057 S Telegraph Rd, Bloomfield Hills, MI 48302, United States",42.6097912,-83.3002201,https://www.petsuppliesplus.com/store/mi/bloomfield-hills/0048-bloomfield-hills/0048,"2057 S Telegraph Rd, Bloomfield Hills, MI 48302, USA",(248) 333-7545
ChIJ0fC-nf_eJIgRkYWg1efC2YA,Pet Supplies Plus Clinton Twp,"42241 Garfield Rd, Clinton Township, MI 48038, United States",42.6071538,-82.9535437,https://www.petsuppliesplus.com/store/mi/clinton-twp/0008-clinton-twp/0008,"42241 Garfield Rd, Clinton Township, MI 48038, USA",(586) 228-0090
ChIJBaDU2aqvJIgRwbDZaOQh2CE,Pet Supplies Plus Novi Grooming,"41660 W 10 Mile Rd, Novi, MI 48375, United States",42.4688113,-83.4562272,https://www.petsuppliesplus.com/dog-grooming,"41660 W 10 Mile Rd, Novi, MI 48375, USA",(248) 380-0007
ChIJKYaMjs-vPIgR_Kqtegokq2A,Pet Supplies Plus Ann Arbor - S Main,"2224 S Main St, Ann Arbor, MI 48103, United States",42.2531839,-83.7508043,https://www.petsuppliesplus.com/store/mi/ann-arbor/0065-ann-arbor/0065,"2224 S Main St, Ann Arbor, MI 48103, USA",(734) 994-5432
ChIJtwwHE1uDF4gRXeAVw_ZfXRM,Pet Supplies Plus Kalamazoo,"5161 Gull Rd, Kalamazoo, MI 49048, United States",42.32143079999999,-85.5270202,https://www.petsuppliesplus.com/store/mi/kalamazoo/0170-kalamazoo/0170,"5161 Gull Rd, Kalamazoo, MI 49048, USA",(269) 342-5020
ChIJf3JnRSNUI4gRhCSsrTYPkQ0,Pet Supplies Plus South Lyon,"22381 Pontiac Trail, South Lyon, MI 48178, United States",42.44481990000001,-83.6520076,https://www.petsuppliesplus.com/store/mi/south-lyon/207-south-lyon/207,"22381 Pontiac Trail, South Lyon, MI 48178, USA",(248) 486-5782
ChIJi55uxUunPIgRIug4z_vY1TM,Pet Supplies Plus Ypsilanti,"2064 Whittaker Rd, Ypsilanti, MI 48197, United States",42.2110717,-83.6206683,https://www.petsuppliesplus.com/store/mi/ypsilanti/4227-ypsilanti/4227,"2064 Whittaker Rd, Ypsilanti, MI 48197, USA",(734) 396-6615
ChIJJ8gwdEqTGYgRAvrSN1EzEUk,Pet Supplies Plus Holland,"2308 N Park Dr, Holland, MI 49424, United States",42.8103421,-86.0885491,https://www.petsuppliesplus.com/store/mi/holland/4306-holland/4306,"2308 N Park Dr, Holland, MI 49424, USA",(616) 723-9555
ChIJkTvW2gLGJIgRNecRMyymggE,Pet Supplies Plus Royal Oak,"29402 Woodward Ave, Royal Oak, MI 48073, United States",42.50668049999999,-83.1746373,https://www.petsuppliesplus.com/store/mi/royal-oak/0005-royal-oak/0005,"29402 Woodward Ave, Royal Oak, MI 48073, USA",(248) 399-4440
ChIJzRg9JZ-0GYgRTd1Q0Ul8OJM,Pet Supplies Plus Grand Rapids,"1843 Marketplace Dr SE, Caledonia, MI 49316, United States",42.8460989,-85.6173874,https://www.petsuppliesplus.com/Store/MI/Grand-Rapids/Grand-Rapids/94,"1843 Marketplace Dr SE, Caledonia, MI 49316, USA",(616) 554-3600
ChIJ47eiGGLDJIgRhwHHnRoNYsI,Pet Supplies Plus Sterling Heights,"2297 18 Mile Rd, Sterling Heights, MI 48314, United States",42.594367,-83.086253,https://www.petsuppliesplus.com/store/mi/sterling-heights/4144-sterling-heights/4144,"2297 18 Mile Rd, Sterling Heights, MI 48314, USA",(586) 576-6845
ChIJORHBflmpGYgREoI46FA1iD0,Pet Supplies Plus Alpine Ave,"3593 Alpine Ave NW, Grand Rapids, MI 49544, United States",43.028582,-85.690095,https://www.petsuppliesplus.com/Store/MI/Grand-Rapids/Alpine-Ave/45,"3593 Alpine Ave NW, Grand Rapids, MI 49544, USA",(616) 785-1070
ChIJnxOO7whMUk0RDqYrF22Or74,Pet Supplies Plus Iron Mountain,"1816 S Stephenson Ave, Iron Mountain, MI 49801, United States",45.80670749999999,-88.0409354,https://www.petsuppliesplus.com/store/mi/iron-mountain/0155-iron-mountain/0155,"1816 S Stephenson Ave, Iron Mountain, MI 49801, USA",(906) 776-9420
ChIJb_GrR0Z_GYgRdKpDn4tPky8,Pet Supplies Plus Norton Shores,"5729 Harvey St, Norton Shores, MI 49444, United States",43.14834,-86.2094,https://www.petsuppliesplus.com/store/mi/norton-shores/4164-norton-shores/4164,"5729 Harvey St, Norton Shores, MI 49444, USA",(231) 799-0045
ChIJt7d4ryIoJYgRqAcWLE1jkT4,Pet Supplies Plus St. Clair Shores - Greater Mack,"23700 Greater Mack Ave, St Clair Shores, MI 48080, United States",42.467619,-82.8966547,https://www.petsuppliesplus.com/Store/MI/St.-Clair-Shores/St.-Clair-Shores/32,"23700 Greater Mack Ave, St Clair Shores, MI 48080, USA",(586) 771-1710
ChIJv57vbRVKO4gRebfJcFyMJ6k,Pet Supplies Plus Dearborn,"2621 S Telegraph Rd, Dearborn, MI 48124, United States",42.2932555,-83.2705868,https://www.petsuppliesplus.com/store/mi/dearborn/0090-dearborn/0090,"2621 S Telegraph Rd, Dearborn, MI 48124, USA",(313) 278-4799
ChIJJS3clpPpJIgRfe9vvV2-dZw,Pet Supplies Plus Rochester Hills,"1170 Walton Blvd., Rochester Hills, MI 48307, United States",42.6826083,-83.1498213,https://www.petsuppliesplus.com/store/mi/rochester-hills/0175-rochester-hills/0175,"1170 Walton Blvd., Rochester Hills, MI 48307, USA",(248) 650-5385
ChIJtzAjb6awGYgRNjxaSoOYfV0,Pet Supplies Plus Grandville,"4920 Wilson Ave SW Suite 100, Grandville, MI 49418, United States",42.8758214,-85.7611055,https://www.petsuppliesplus.com/Store/MI/Grandville/Grandville/121,"4920 Wilson Ave SW Suite 100, Grandville, MI 49418, USA",(616) 724-2121
ChIJFx8fCqZlI4gRkmAWtF2emiw,Pet Supplies Plus Fenton,"3110 W Silver Lake Rd, Fenton, MI 48430, United States",42.8048379,-83.731608,https://www.petsuppliesplus.com/store/mi/fenton/0118-fenton/0118,"3110 W Silver Lake Rd, Fenton, MI 48430, USA",(810) 714-4973
ChIJjeRJ1oXhI4gR7Ad2SGktwfI,Pet Supplies Plus Bay City,"2624 Center Ave, Bay City, MI 48708, United States",43.5938289,-83.8523576,https://www.petsuppliesplus.com/store/mi/bay-city/0105-bay-city/0105,"2624 Center Ave, Bay City, MI 48708, USA",(989) 891-9597
ChIJy2W6y3xPNU0RDOJrw2zMjbI,Pet Supplies Plus Gaylord,"652 Edelweiss Village Pkwy, Gaylord, MI 49735, United States",45.0229603,-84.6932196,https://www.petsuppliesplus.com/store/mi/gaylord/0236-gaylord/0236,"652 Edelweiss Village Pkwy, Gaylord, MI 49735, USA",(989) 731-0001
ChIJkckqrc6FI4gRPooXYNGLtMI,Pet Supplies Plus Mount Morris,"11972 Saginaw St, Mt Morris, MI 48458, United States",43.1226025,-83.6929262,https://www.petsuppliesplus.com/store/mi/mount-morris/0024-mount-morris/0024,"11972 Saginaw St, Mt Morris, MI 48458, USA",(810) 686-2400
ChIJOcwffSisPIgRSjarAOFqi1w,Pet Supplies Plus Ann Arbor - Plymouth,"2607 Plymouth Rd, Ann Arbor, MI 48105, United States",42.303196,-83.709204,https://www.petsuppliesplus.com/Store/MI/Ann-Arbor/Ann-Arbor/16,"2607 Plymouth Rd, Ann Arbor, MI 48105, USA",(734) 741-5100
ChIJ1YK2ao3VJIgRPJ1CxDhuzqE,Pet Supplies Plus Grosse Pointe,"17010 Kercheval Ave, Grosse Pointe, MI 48230, United States",42.3898589,-82.9165953,https://www.petsuppliesplus.com/store/mi/grosse-pointe/242-grosse-pointe/242,"17010 Kercheval Ave, Grosse Pointe, MI 48230, USA",(313) 884-2962
ChIJVfGmoVDdIogRjCBXme_No-g,Pet Supplies Plus Okemos,"2100 W Grand River Ave, Okemos, MI 48864, United States",42.7226208,-84.4281398,https://www.petsuppliesplus.com/store/mi/okemos/4292-okemos/4292,"2100 W Grand River Ave, Okemos, MI 48864, USA",(517) 347-1508
ChIJqVwmC1yuJIgR5ijsqjTXvk0,Pet Supplies Plus Novi,"41660 W 10 Mile Rd, Novi, MI 48375, United States",42.4687642,-83.4562376,https://www.petsuppliesplus.com/store/mi/novi/4557-novi/4557,"41660 W 10 Mile Rd, Novi, MI 48375, USA",(248) 380-0007
ChIJwcZlvxY5Nk0RW2AhIeloH5o,Pet Supplies Plus Sault Ste Marie,"2510 Ashmun St, Sault Ste. Marie, MI 49783, United States",46.47749659999999,-84.3557439,https://www.petsuppliesplus.com/store/mi/sault-ste-marie/0201-sault-ste-marie/0201,"2510 Ashmun St, Sault Ste. Marie, MI 49783, USA",(906) 253-9560
ChIJXYAOyM6ESk0R4z-SYqUNkK0,Pet Supplies Plus Petoskey,"2160 Anderson Rd, Petoskey, MI 49770, United States",45.3450475,-84.9723108,https://www.petsuppliesplus.com/store/mi/petoskey/0177-petoskey/0177,"2160 Anderson Rd, Petoskey, MI 49770, USA",(231) 347-1250
ChIJo86EXxBHI4gRpAlEQYDQ-Os,Pet Supplies Plus Howell,"2649 E Grand River Ave, Howell, MI 48843, United States",42.59755579999999,-83.9020472,https://www.petsuppliesplus.com/store/mi/howell/0135-howell/0135,"2649 E Grand River Ave, Howell, MI 48843, USA",(517) 552-2493
ChIJ0byxPLmXJIgRJ1hLWrNPcG4,Pet Supplies Plus Waterford,"5348 Dixie Hwy, Waterford Township, MI 48329, United States",42.69674870000001,-83.3943607,https://www.petsuppliesplus.com/store/mi/waterford/0004-waterford/0004,"5348 Dixie Hwy, Waterford Township, MI 48329, USA",(248) 623-9522
ChIJLYV8N0JhJIgRNIUG9ilDaRI,Pet Supplies Plus Lapeer,"873 S Main St, Lapeer, MI 48446, United States",43.0389821,-83.319859,https://www.petsuppliesplus.com/store/mi/lapeer/0103-lapeer/0103,"873 S Main St, Lapeer, MI 48446, USA",(810) 245-2200
ChIJK6vnfXx-I4gRiafW0E3UqKc,Pet Supplies Plus Grand Blanc,"11525 S Saginaw St, Grand Blanc, MI 48439, United States",42.9276415,-83.628379,https://www.petsuppliesplus.com/store/mi/grand-blanc/0021-grand-blanc/0021,"11525 S Saginaw St, Grand Blanc, MI 48439, USA",(810) 694-1771
ChIJmdjhdIMnJYgRVe7DIwWxSoU,Pet Supplies Plus St. Clair Shores - Harper,"31029 Harper Ave, St Clair Shores, MI 48082, United States",42.52308,-82.9008934,https://www.petsuppliesplus.com/Store/MI/St.-Clair-Shores/St.-Clair-Shores/3,"31029 Harper Ave, St Clair Shores, MI 48082, USA",(586) 771-3277
ChIJN8nzMKG1JIgR128HwS7lsu0,Pet Supplies Plus Redford Township,"14835 Telegraph Rd, Redford Township, MI 48239, United States",42.395244,-83.277709,https://www.petsuppliesplus.com/store/mi/redford/0001-redford/0001,"14835 Telegraph Rd, Redford Township, MI 48239, USA",(313) 255-1633
ChIJ41Rghw3xPIgRA1l6AN4Azq8,Pet Supplies Plus Adrian,"1099 US-223, Adrian, MI 49221, United States",41.8745977,-84.0409124,https://www.petsuppliesplus.com/store/mi/adrian/0152-adrian/0152,"1099 US-223, Adrian, MI 49221, USA",(517) 266-7775
ChIJdT4SWwgHI4gRtEW_xfEXqxI,Pet Supplies Plus Owosso,"1433 E Main St, Owosso, MI 48867, United States",42.9995718,-84.1449446,https://www.petsuppliesplus.com/store/mi/owosso/0019-owosso/0019,"1433 E Main St, Owosso, MI 48867, USA",(989) 725-7686
ChIJm113fK2SJIgRsxGkfzv-1-I,Pet Supplies Plus Oxford,"971 S Lapeer Rd, Oxford, MI 48371, United States",42.8118698,-83.2518971,https://www.petsuppliesplus.com/store/mi/oxford/0023-oxford/0023,"971 S Lapeer Rd, Oxford, MI 48371, USA",(248) 969-7587
ChIJ3-5O7ziAO4gRD1-SyUcuiCM,Pet Supplies Plus W. Alexis,"849 W Alexis Rd #5, Toledo, OH 43612, United States",41.7195486,-83.5643479,https://www.petsuppliesplus.com/Store/OH/Toledo/W.-Alexis/29,"849 W Alexis Rd #5, Toledo, OH 43612, USA",(419) 269-1622
ChIJVb3pQfTkJIgRt804-FMulrc,Pet Supplies Plus Washington Twp.,"64920 Van Dyke Ave, Washington, MI 48095, United States",42.7718443,-83.0162894,https://www.petsuppliesplus.com/store/mi/washington/0130-washington/0130,"64920 Van Dyke Ave, Washington, MI 48095, USA",(586) 752-2800
ChIJpYeTdwAp9ocRFd1soH9KcVA,Pet Supplies Plus Minneapolis,"4751 Hiawatha Ave, Minneapolis, MN 55406, United States",44.9172361,-93.2154224,https://www.petsuppliesplus.com/store/mn/minneapolis/0199-minneapolis/0199,"4751 Hiawatha Ave, Minneapolis, MN 55406, USA",(612) 729-1121
ChIJxYW9arAk9ocRGnGAgoWNSwg,Pet Supplies Plus Bloomington,"3701 W Old Shakopee Rd #300, Bloomington, MN 55431, United States",44.8102867,-93.3275199,https://www.petsuppliesplus.com/store/mn/bloomington/0138-bloomington/0138,"3701 W Old Shakopee Rd #300, Bloomington, MN 55431, USA",(952) 885-9725
ChIJa6JFjK4vs1IRY-2-c-uHxG0,Pet Supplies Plus Fridley,"256 57th Ave NE, Fridley, MN 55432, United States",45.0702656,-93.2654228,https://www.petsuppliesplus.com/store/mn/fridley/4412-fridley/4412,"256 57th Ave NE, Fridley, MN 55432, USA",(763) 205-4298
ChIJc9KoWYvWslIRmOGYDFYkDCg,Pet Supplies Plus Vadnais Heights,"955 Co Rd E East #100, Vadnais Heights, MN 55127, United States",45.0525971,-93.0622225,https://www.petsuppliesplus.com/store/mn/vadnais-heights/4021-vadnais-heights/4021,"955 Co Rd E East #100, Vadnais Heights, MN 55127, USA",(651) 484-9616
ChIJCap2cbU79ocRGyZYSrQsAls,Pet Supplies Plus Burnsville,"1353 W 141st St, Burnsville, MN 55337, United States",44.7488118,-93.2968727,https://www.petsuppliesplus.com/store/mn/burnsville/0136-burnsville/0136,"1353 W 141st St, Burnsville, MN 55337, USA",(952) 892-1090
ChIJyVXYI902s1IR0G143U2sp2E,Pet Supplies Plus Crystal,"345 Willow Bend, Crystal, MN 55428, United States",45.05416719999999,-93.3689485,https://www.petsuppliesplus.com/store/mn/crystal/4002-crystal/4002,"345 Willow Bend, Crystal, MN 55428, USA",(763) 432-7669
ChIJ94ygEpcls1IReADWkiaxSys,Pet Supplies Plus Blaine,"10809 University Ave NE Suite 120, Blaine, MN 55434, United States",45.1665717,-93.2641161,https://www.petsuppliesplus.com/store/mn/blaine/4438-blaine/4438,"10809 University Ave NE Suite 120, Blaine, MN 55434, USA",(763) 432-6291
ChIJV9m3JBwx9ocRDhDMSBqcuU8,Pet Supplies Plus Apple Valley,"14969 Florence Trail Suite 100, Apple Valley, MN 55124, United States",44.73258329999999,-93.1988375,https://www.petsuppliesplus.com/store/mn/apple-valley/4488-apple-valley/4488,"14969 Florence Trail Suite 100, Apple Valley, MN 55124, USA",(952) 236-0962
ChIJle9EZekrs1IRNiWDnX431PY,Pet Supplies Plus Roseville,"1155 Larpenteur Ave W Suite 18, Roseville, MN 55113, United States",44.9927302,-93.1489332,https://www.petsuppliesplus.com/Store/MN/Roseville/Roseville/4265,"1155 Larpenteur Ave W Suite 18, Roseville, MN 55113, USA",(651) 400-8511
ChIJ2aZQC41ftFIRy5nZxT_bl8w,Pet Supplies Plus Waite Park,"110 2nd St S Suite 103, Waite Park, MN 56387, United States",45.5491185,-94.2174006,https://www.petsuppliesplus.com/store/mn/waite-park/4563-waite-park/4563,"110 2nd St S Suite 103, Waite Park, MN 56387, USA",(320) 640-4810
ChIJE-Tjo27T8IcRweIJlWX1E6I,Pet Supplies Plus Austin,"1001 18th Ave NW SUITE 100, Austin, MN 55912, United States",43.6829681,-92.9865798,https://www.petsuppliesplus.com/store/mn/austin/4108-austin/4108,"1001 18th Ave NW SUITE 100, Austin, MN 55912, USA",(507) 460-7700
ChIJFbLKTsxps1IRiLNuJ8aqrzQ,Pet Supplies Plus Otsego,"15788 88th St NE B, Otsego, MN 55330, United States",45.2797724,-93.5660692,https://www.petsuppliesplus.com/store/mn/otsego/4630-otsego/4630,"15788 88th St NE B, Otsego, MN 55330, USA",(763) 328-1706
ChIJ3UmnNnvM2IcRgVGzmae56cA,Pet Supplies Plus Warson Woods,"9995 Manchester Rd, St. Louis, MO 63122, United States",38.6040542,-90.3838754,https://www.petsuppliesplus.com/store/mo/st-louis/0241-st-louis/0241,"9995 Manchester Rd, St. Louis, MO 63122, USA",(314) 822-5173
ChIJf_k-7qtkz4cR7nD23pvFtXM,Pet Supplies Plus Springfield (S. Glenstone),"2838 S Glenstone Ave, Springfield, MO 65804, United States",37.1617573,-93.2620337,https://www.petsuppliesplus.com/,"2838 S Glenstone Ave, Springfield, MO 65804, USA",(417) 720-4656
ChIJizYQC5d8z4cRmszqCjDn5M8,Pet Supplies Plus Springfield (E. Sunshine),"2920 E Sunshine St, Springfield, MO 65804, United States",37.1794333,-93.2366444,https://www.petsuppliesplus.com/,"2920 E Sunshine St, Springfield, MO 65804, USA",(417) 881-8738
ChIJGyChUPDH2IcRgIc1SOnuH14,Pet Supplies Plus Oakville,"5531 Oakville Shopping Center, St. Louis, MO 63129, United States",38.4720818,-90.3070315,https://www.petsuppliesplus.com/store/mo/oakville/4051-oakville/4051,"5531 Oakville Shopping Center, St. Louis, MO 63129, USA",(314) 939-1560
ChIJ4zoa6UvU2IcREALm8p07Q4I,Pet Supplies Plus Ballwin,"15311 Manchester Rd, Ballwin, MO 63011, United States",38.59383529999999,-90.5584722,https://www.petsuppliesplus.com/store/mo/ballwin/0187-ballwin/0187,"15311 Manchester Rd, Ballwin, MO 63011, USA",(636) 686-7181
ChIJVc5473Fiz4cRettZ-fr_u_4,Pet Supplies Plus Springfield (W. Kearney),"1717 W Kearney St, Springfield, MO 65803, United States",37.2418584,-93.3130321,https://www.petsuppliesplus.com/,"1717 W Kearney St, Springfield, MO 65803, USA",(417) 831-7386
ChIJyW3FdJXX3ocRR_qNpTenGMU,Pet Supplies Plus St. Peter's,"555 Mid Rivers Mall Dr, St Peters, MO 63376, United States",38.7881004,-90.6278428,https://www.petsuppliesplus.com/store/mo/st-peters/4351-st-peters/4351,"555 Mid Rivers Mall Dr, St Peters, MO 63376, USA",(636) 387-0319
ChIJdUhAZYfJ2IcRS6hC4J8d-Yw,Pet Supplies Plus Concord,"5422 Southfield Center, St. Louis, MO 63123, United States",38.5263204,-90.3596513,https://www.petsuppliesplus.com/store/mo/st-louis/4188-st-louis/4188,"5422 Southfield Center, St. Louis, MO 63123, USA",(314) 696-2636
ChIJzXqgBXOJd4gR22dh8b6JM2o,Pet Supplies Plus,"209 S Kingshighway, Cape Girardeau, MO 63703, United States",37.3021354,-89.5545537,https://www.petsuppliesplus.com/store/mo/cape-girardeau/4585-cape-girardeau/4585,"209 S Kingshighway, Cape Girardeau, MO 63703, USA",(573) 803-0145
ChIJsw2THbc334cRVPryFAK2UwE,Pet Supplies Plus Florissant,"8230 N Lindbergh Blvd, Florissant, MO 63031, United States",38.7905695,-90.3437899,https://www.petsuppliesplus.com/store/mo/florissant/4183-florissant/4183,"8230 N Lindbergh Blvd, Florissant, MO 63031, USA",(314) 395-8574
ChIJR_6S284p34cRhydHhPmlFgs,Pet Supplies Plus St. Charles,"1920 Zumbehl Rd, St Charles, MO 63303, United States",38.7799387,-90.5295727,,"1920 Zumbehl Rd, St Charles, MO 63303, USA",(636) 896-4012
ChIJuetxl3Rvz4cRkvYTeGq36Tg,Pet Supplies Plus Nixa,"469 Aldersgate Dr, Nixa, MO 65714, United States",37.0615441,-93.3021641,https://www.petsuppliesplus.com/,"469 Aldersgate Dr, Nixa, MO 65714, USA",(417) 886-2743
ChIJv5MYF9HvQIYRKL3DCIJh3es,Pet Supplies Plus Sienna,"9018 Sienna Crossing Dr Suite 200, Missouri City, TX 77459, United States",29.5358943,-95.5332565,http://www.petsuppliesplus.com/,"9018 Sienna Crossing Dr Suite 200, Missouri City, TX 77459, USA",(346) 396-7387
ChIJxRtoUPyNk4cRyNWWXKcssDc,Pet Supplies Plus Omaha Grooming,"9725 Q St, Omaha, NE 68127, United States",41.2052376,-96.0642707,https://www.petsuppliesplus.com/dog-grooming,"9725 Q St, Omaha, NE 68127, USA",(402) 592-6762
ChIJV9gKkcs3xoAR6gi7A3c3xY0,Pet Supplies Plus Pahrump,"70 NV-160 Suite 105, Pahrump, NV 89048, United States",36.2186353,-115.995357,https://www.petsuppliesplus.com/store/nv/pahrump/4640-pahrump/4640,"70 NV-160 Suite 105, Pahrump, NV 89048, USA",(775) 990-1777
ChIJLTprDqLJyIARk5S_Ldqeacs,Pet Supplies Plus Las Vegas - Mountains Edge,"8045 Blue Diamond Rd Ste. 105, Las Vegas, NV 89178, United States",36.0196257,-115.2668357,https://www.petsuppliesplus.com/store/nv/las-vegas/4297-las-vegas/4297,"8045 Blue Diamond Rd Ste. 105, Las Vegas, NV 89178, USA",(725) 242-8800
ChIJvXCQQl7ByIARmWwvmHs_8hw,Pet Supplies Plus Las Vegas - Rainbow Blvd.,"771 S Rainbow Blvd Suite 160, Las Vegas, NV 89145, United States",36.1643166,-115.2460657,https://www.petsuppliesplus.com/store/nv/las-vegas/4587-las-vegas/4587,"771 S Rainbow Blvd Suite 160, Las Vegas, NV 89145, USA",(725) 867-8610
ChIJe2z2X1NJ4okRlIx88xQQ5rY,Pet Supplies Plus Bedford,"87 S River Rd, Bedford, NH 03110, United States",42.958786,-71.4786468,https://www.petsuppliesplus.com/Store/NH/Bedford/Bedford/9052,"87 S River Rd, Bedford, NH 03110, USA",(603) 625-9237
ChIJkzfxshDv4okRiK_uAyNm8Ak,Pet Supplies Plus Stratham,"20 Portsmouth Ave Suite 4, Stratham, NH 03885, United States",42.9965103,-70.9226593,https://www.petsuppliesplus.com/store/nh/stratham/4583-stratham/4583,"20 Portsmouth Ave Suite 4, Stratham, NH 03885, USA",(603) 403-3371
ChIJw7qIiMBZwYkROcmQAc4qLoU,Pet Supplies Plus Hamilton Twp,"1005 White Horse Ave, Hamilton Township, NJ 08610, United States",40.2050274,-74.6951821,https://www.petsuppliesplus.com/store/nj/hamilton/4632-hamilton/4632,"1005 White Horse Ave, Hamilton Township, NJ 08610, USA",(609) 459-3777
ChIJg0Amc4axw4kRT7IbhVcsxag,Pet Supplies Plus Garwood,"119 South Ave, Garwood, NJ 07027, United States",40.6523367,-74.317087,https://www.petsuppliesplus.com/store/nj/garwood/4095-garwood/4095,"119 South Ave, Garwood, NJ 07027, USA",(908) 789-8509
ChIJacgf1mCuw4kRT-nlWnju7Z0,Pet Supplies Plus Short Hills,"800 Morris Tpke SUITE 101, Short Hills, NJ 07078, United States",40.72131820000001,-74.3322132,https://www.petsuppliesplus.com/Store/NJ/Short-Hills/Short-Hills/9058,"800 Morris Tpke SUITE 101, Short Hills, NJ 07078, USA",(973) 379-2404
ChIJP4OS-fSHwYkR3p6OUUOekD8,Pet Supplies Plus Wall Township,"1825 NJ-35 Unit 1&2 Unit 1 & 2, Wall Township, NJ 07719, United States",40.1658939,-74.0507588,https://www.petsuppliesplus.com/store/nj/wall-township/9065-wall-township/9065,"1825 NJ-35 Unit 1&2 Unit 1 & 2, Wall Township, NJ 07719, USA",(848) 469-8700
ChIJeXPchdv4wokRNCKHf9oV7Ro,Pet Supplies Plus Wallington,"375 Paterson Ave Suite 105, Wallington, NJ 07057, United States",40.8446355,-74.1068236,https://www.petsuppliesplus.com/Store/NJ/Wallington/Wallington/4028,"375 Paterson Ave Suite 105, Wallington, NJ 07057, USA",(201) 372-0170
ChIJodMw42QzwokR2nxlguRBk4o,Pet Supplies Plus Hazlet,"3150 NJ-35, Hazlet, NJ 07730, United States",40.4195563,-74.1848772,https://www.petsuppliesplus.com/store/nj/hazlet/9046-hazlet/9046,"3150 NJ-35, Hazlet, NJ 07730, USA",(732) 264-5777
ChIJFcFptn9_wYkRJXxImOtRymI,Pet Supplies Plus Jackson,"2275 W County Line Rd Suite 2, Jackson Township, NJ 08527, United States",40.1269231,-74.2737357,https://www.petsuppliesplus.com/Store/NJ/Jackson/Jackson/4439,"2275 W County Line Rd Suite 2, Jackson Township, NJ 08527, USA",(732) 852-5999
ChIJR_Jkqiavw4kR7ZfowFEqtd0,Pet Supplies Plus Short Hills Grooming,"800 Morris Tpke, Short Hills, NJ 07078, United States",40.7218876,-74.3331609,https://www.petsuppliesplus.com/dog-grooming,"800 Morris Tpke, Short Hills, NJ 07078, USA",(973) 379-2404
ChIJtx6zh3PLxokRPQXZgmQFtU0,Pet Supplies Plus Cherry Hill,"1610 Kings Hwy N, Cherry Hill Township, NJ 08034, United States",39.9164152,-75.0108881,https://www.petsuppliesplus.com/store/nj/cherry-hill/4286-cherry-hill/4286,"1610 Kings Hwy N, Cherry Hill Township, NJ 08034, USA",(856) 429-2945
ChIJjTP6vIf8wokRkjkbHdThC_o,Pet Supplies Plus Fair Lawn,"24-02 Fair Lawn Ave, Fair Lawn, NJ 07410, United States",40.9393233,-74.1187657,https://www.petsuppliesplus.com/Store/NJ/Fair-Lawn/Fair-Lawn/9056,"24-02 Fair Lawn Ave, Fair Lawn, NJ 07410, USA",(201) 797-0350
ChIJ_cyc2pHlwokRQg7CnZZRfvk,Pet Supplies Plus Hillsdale,"391 Broadway, Hillsdale, NJ 07642, United States",41.0129384,-74.0423253,https://www.petsuppliesplus.com/Store/NJ/Hillsdale/Hillsdale/4003,"391 Broadway, Hillsdale, NJ 07642, USA",(201) 664-0030
ChIJ7ygKquiewYkR5QoQ1rv99ug,Pet Supplies Plus Bayville,"445 Atlantic City Blvd, Bayville, NJ 08721, United States",39.9128619,-74.1532368,https://www.petsuppliesplus.com/Store/NJ/Bayville/Bayville/4040,"445 Atlantic City Blvd, Bayville, NJ 08721, USA",(732) 269-1896
ChIJW_2D3FSpw4kR8P2doyr0CmE,Pet Supplies Plus Florham Park,"176 Columbia Turnpike, Florham Park, NJ 07932, United States",40.789424,-74.3912617,https://www.petsuppliesplus.com/store/nj/columbia/4293-florham-park/4293,"176 Columbia Turnpike, Florham Park, NJ 07932, USA",(973) 330-5900
ChIJwY7g1asvwokRwB3t3fyKJLM,Pet Supplies Plus Tinton Falls,"980 Shrewsbury Ave #4, Tinton Falls, NJ 07724, United States",40.312593,-74.0678933,https://www.petsuppliesplus.com/store/nj/tinton-falls/4588-tinton-falls/4588,"980 Shrewsbury Ave #4, Tinton Falls, NJ 07724, USA",(732) 982-9069
ChIJq55Bmqr5wokRLADfSiab3yg,Pet Supplies Plus Wallington Grooming,"375 Paterson Ave, Wallington, NJ 07057, United States",40.8451947,-74.1076454,https://www.petsuppliesplus.com/dog-grooming,"375 Paterson Ave, Wallington, NJ 07057, USA",(201) 372-0170
ChIJo23Ss3Qdw4kR9lkPpNFJiVs,Pet Supplies Plus Oakland,"350 Ramapo Valley Rd Suite 28, Oakland, NJ 07436, United States",41.02393319999999,-74.2405039,https://www.petsuppliesplus.com/store/nj/oakland/4006-oakland/4006,"350 Ramapo Valley Rd Suite 28, Oakland, NJ 07436, USA",(201) 644-7511
ChIJQYBCi2Onw4kR4aNk-fLZ1F0,Pet Supplies Plus Cedar Knolls,"170 E Hanover Ave, Cedar Knolls, NJ 07927, United States",40.8112545,-74.4683908,https://www.petsuppliesplus.com/store/nj/cedar-knolls/4184-cedar-knolls/4184,"170 E Hanover Ave, Cedar Knolls, NJ 07927, USA",(973) 867-4999
ChIJwzHie4Prw4kRuEwFiY9ZQQw,Pet Supplies Plus Hillsborough,"601 US-206, Hillsborough Township, NJ 08844, United States",40.5015067,-74.6430284,https://www.petsuppliesplus.com/store/nj/hillsborough/4374-hillsborough/4374,"601 US-206, Hillsborough Township, NJ 08844, USA",(908) 262-2921
ChIJj8tJXcO6w4kR_z-En1fpbRk,Pet Supplies Plus Berkeley Heights,"410 Springfield Ave, Berkeley Heights, NJ 07922, United States",40.6850188,-74.4370889,https://www.petsuppliesplus.com/store/nj/berkeley-heights/9050-berkeley-heights/9050,"410 Springfield Ave, Berkeley Heights, NJ 07922, USA",(908) 286-1400
ChIJ00GYfMlTwYkRCbpB_q74WOE,Pet Supplies Plus Levittown,"1407 Lincoln Hwy, Levittown, PA 19056, United States",40.16905999999999,-74.892299,https://www.petsuppliesplus.com/Store/PA/Levittown/Levittown/9070,"1407 Lincoln Hwy, Levittown, PA 19056, USA",(215) 946-3851
ChIJezy6IS1rxIkR65sp0yfte-M,Pet Supplies Plus Easton,"4403 Southmont Way SUITE 4, Easton, PA 18045, United States",40.6557736,-75.285593,https://www.petsuppliesplus.com/Store/PA/Easton/Easton/9041,"4403 Southmont Way SUITE 4, Easton, PA 18045, USA",(610) 258-5945
ChIJRatdPoaJxIkRMTrPwCbygZE,Pet Supplies Plus Stroudsburg,"101 Mountaineer Dr #113, Stroudsburg, PA 18360, United States",40.9943217,-75.2454105,https://www.petsuppliesplus.com/Store/PA/Stroudsburg/Stroudsburg/9032,"101 Mountaineer Dr #113, Stroudsburg, PA 18360, USA",(570) 426-3196
ChIJ9R9cHi9NwYkRnBDdcjwtgNc,Pet Supplies Plus Bensalem,"2731 Street Rd, Bensalem, PA 19020, United States",40.11135,-74.9520278,https://www.petsuppliesplus.com/store/pa/bensalem/4529-bensalem/4529,"2731 Street Rd, Bensalem, PA 19020, USA",(267) 386-7912
ChIJ76x8OxvJxokRQK-QbiN8Yi4,Pet Supplies Plus Fishtown,"2475 Aramingo Ave, Philadelphia, PA 19125, United States",39.9741977,-75.1205343,https://www.petsuppliesplus.com/store/pa/philadelphia/4223-philadelphia/4223,"2475 Aramingo Ave, Philadelphia, PA 19125, USA",(267) 639-2869
ChIJtzAzG4itxokRJKLSy6uecpc,Pet Supplies Plus Southampton,"488 Second Street Pike, Southampton, PA 18966, United States",40.1696763,-75.0464607,https://www.petsuppliesplus.com/Store/PA/Southampton/Southampton/4245,"488 Second Street Pike, Southampton, PA 18966, USA",(267) 762-1033
ChIJTRTxYmagxokRmIDHlIOjQUk,Pet Supplies Plus Telford,"4024 Bethlehem Pike, Souderton, PA 18964, United States",40.3227775,-75.3051619,https://www.petsuppliesplus.com/Store/PA/Telford/Telford/9040,"4024 Bethlehem Pike, Souderton, PA 18964, USA",(215) 721-3164
ChIJgdH5AitjwokR_vCOIA45aIA,Pet Supplies Plus West Hempstead,"458 Hempstead Turnpike, West Hempstead, NY 11552, United States",40.705707,-73.6560357,https://www.petsuppliesplus.com/Store/NY/West-Hempstead/West-Hempstead/9016,"458 Hempstead Turnpike, West Hempstead, NY 11552, USA",(516) 292-8664
ChIJuXvYTQnFwokRgsBQZxp87g8,Pet Supplies Plus Stony Point,"22 Holt Dr SUITE 107, Stony Point, NY 10980, United States",41.2176657,-73.982452,https://www.petsuppliesplus.com/Store/NY/Stony-Point/Stony-Point/4175,"22 Holt Dr SUITE 107, Stony Point, NY 10980, USA",(845) 458-8325
ChIJ828iY4LRQIYR7dIFQKbFSJk,Pet Supplies Plus Jersey Village,"9431 Jones Rd, Houston, TX 77065, United States",29.9089082,-95.5858772,https://www.petsuppliesplus.com/store/tx/houston/4072-houston/4072,"9431 Jones Rd, Houston, TX 77065, USA",(281) 899-8260
ChIJwSmDGF8DxIkRRGNScPg43fA,Pet Supplies Plus Doylestown North,"464 N Main St, Doylestown, PA 18901, United States",40.3217219,-75.1329259,https://www.petsuppliesplus.com/Store/PA/Doylestown/Doylestown-North/4431,"464 N Main St, Doylestown, PA 18901, USA",(267) 703-3070
ChIJyf05oBBkxIkR9-ei5SsUpxo,Pet Supplies Plus Pen Argyl,"1310 Blue Valley Dr, Pen Argyl, PA 18072, United States",40.8722772,-75.2356185,https://www.petsuppliesplus.com/store/pa/pen-argyl/4157-pen-argyl/4157,"1310 Blue Valley Dr, Pen Argyl, PA 18072, USA",(610) 863-0465
ChIJ_zXNT2RTwYkRVLfNDZX-SjE,Pet Supplies Plus Levittown Grooming,"1407 Lincoln Hwy, Levittown, PA 19056, United States",40.1680261,-74.8959413,https://www.petsuppliesplus.com/dog-grooming,"1407 Lincoln Hwy, Levittown, PA 19056, USA",(215) 946-3851
ChIJi--XbNp6wokR8q0jEg-s64g,Pet Supplies Plus Oceanside,"3644 Long Beach Rd, Oceanside, NY 11572, United States",40.621431,-73.6411574,https://www.petsuppliesplus.com/Store/NY/Oceanside/Oceanside/9031,"3644 Long Beach Rd, Oceanside, NY 11572, USA",(516) 855-0286
ChIJPxWQFdxzIocRx6EYGP9aCwI,Pet Supplies Plus Albuquerque - Montano,"6200 Coors Blvd NW, Albuquerque, NM 87120, United States",35.1525492,-106.6821108,https://www.petsuppliesplus.com/store/nm/albuquerque/4600-albuquerque/4600,"6200 Coors Blvd NW, Albuquerque, NM 87120, USA",(505) 420-6474
ChIJxWwidohkwokRsy6dB3rbcy0,Pet Supplies Plus Valley Stream,"227 W Merrick Rd, Valley Stream, NY 11580, United States",40.6680997,-73.7051602,https://www.petsuppliesplus.com/Store/NY/Valley-Stream/Valley-Stream/9038,"227 W Merrick Rd, Valley Stream, NY 11580, USA",(516) 593-4886
ChIJDaGDWexB2YkR_2nG8M8xrgA,Pet Supplies Plus New Hartford,"4488 Commercial Dr, New Hartford, NY 13413, United States",43.0834003,-75.321429,https://www.petsuppliesplus.com/Store/NY/New-Hartford/New-Hartford/9027,"4488 Commercial Dr, New Hartford, NY 13413, USA",(315) 768-4488
ChIJA4mUIauJwokRB-qA0WUi2HU,Pet Supplies Plus Manhasset,"1170 Northern Blvd, Manhasset, NY 11030, United States",40.79084719999999,-73.7020742,https://www.petsuppliesplus.com/Store/NY/Manhasset/Manhasset/9036,"1170 Northern Blvd, Manhasset, NY 11030, USA",(516) 627-0763
ChIJxQTCPQB9wokRfuvm4Bw9oyw,Pet Supplies Plus East Meadow,"1976 Hempstead Tpke, East Meadow, NY 11554, United States",40.7231053,-73.5638683,https://www.petsuppliesplus.com/store/ny/east-meadow/4610-east-meadow/4610,"1976 Hempstead Tpke, East Meadow, NY 11554, USA",(516) 699-3338
ChIJv6evf69t2okRAJbKORxjzoc,Pet Supplies Plus Cortland,"3928 NY-281, Cortland, NY 13045, United States",42.5956167,-76.2030687,http://www.petsuppliesplus.com/,"3928 NY-281, Cortland, NY 13045, USA",(607) 204-9111
ChIJIUlVtDdF6IkRGIQ8MvCnTNE,Pet Supplies Plus Medford,"700-8 Patchogue-Yaphank Rd Suite 8, Medford, NY 11763, United States",40.80747969999999,-72.9538922,https://www.petsuppliesplus.com/Store/NY/Medford/Medford/4249,"700-8 Patchogue-Yaphank Rd Suite 8, Medford, NY 11763, USA",(631) 731-4388
ChIJdaZNGBljwokRqudMdIGyf4k,Pet Supplies Plus West Hempstead Grooming,"458 Hempstead Turnpike, West Hempstead, NY 11552, United States",40.7056689,-73.6559664,https://www.petsuppliesplus.com/dog-grooming,"458 Hempstead Turnpike, West Hempstead, NY 11552, USA",(516) 292-8664
ChIJb1y4II3s2YkRXO0EGcpLyRc,Pet Supplies Plus Cicero,"COUNTRY SQUIRE PLAZA, 7954 Brewerton Rd Unit 400, Cicero, NY 13039, United States",43.156713,-76.1194679,https://www.petsuppliesplus.com/Store/NY/Cicero/Cicero/9061,"COUNTRY SQUIRE PLAZA, 7954 Brewerton Rd Unit 400, Cicero, NY 13039, USA",(315) 699-1647
ChIJy_eTJHRv2IkR7pcv1BTPTmc,Pet Supplies Plus Watertown,"1283 Arsenal St Suite #10, Watertown, NY 13601, United States",43.9745734,-75.9449667,https://www.petsuppliesplus.com/Store/NY/Watertown/Watertown/4193,"1283 Arsenal St Suite #10, Watertown, NY 13601, USA",(315) 818-5076
ChIJ-yiKyBg66IkRDFaIowPemLE,Pet Supplies Plus Smithtown,"126 E Main St, Smithtown, NY 11787, United States",40.8548664,-73.1893713,https://www.petsuppliesplus.com/Store/NY/Smithtown/Smithtown/9043,"126 E Main St, Smithtown, NY 11787, USA",(631) 863-6324
ChIJb6gNVw611okR1OBnDIIp2UU,Pet Supplies Plus Monroe Ave,"531 Monroe Ave, Rochester, NY 14607, United States",43.1458516,-77.592732,https://www.petsuppliesplus.com/Store/NY/Rochester/Monroe-Ave/4054,"531 Monroe Ave, Rochester, NY 14607, USA",(585) 242-2072
ChIJlbvwVMN7wokRLWL_7xBp29U,Pet Supplies Plus Oceanside Grooming,"3644 Long Beach Rd, Oceanside, NY 11572, United States",40.621431,-73.6411574,https://www.petsuppliesplus.com/dog-grooming,"3644 Long Beach Rd, Oceanside, NY 11572, USA",(516) 855-0286
ChIJ73HmTeZlwokRfekO1OT4kGY,Pet Supplies Plus Valley Stream Grooming,"227 W Merrick Rd, Valley Stream, NY 11580, United States",40.6679606,-73.705009,https://www.petsuppliesplus.com/dog-grooming,"227 W Merrick Rd, Valley Stream, NY 11580, USA",(516) 593-4886
ChIJa_gs6KIT2YkRhAB2tByzPA4,Pet Supplies Plus Rome,"107 Erie Blvd W, Rome, NY 13440, United States",43.2103122,-75.4606307,https://www.petsuppliesplus.com/Store/NY/Rome/Rome/4065,"107 Erie Blvd W, Rome, NY 13440, USA",(315) 334-7086
ChIJodaR9EMx6IkRksXB1YNYCmA,Pet Supplies Plus Central Islip,"80 N Research Pl, Central Islip, NY 11722, United States",40.77316,-73.20017,https://www.petsuppliesplus.com/Store/NY/Central-Islip/Central-Islip/4098,"80 N Research Pl, Central Islip, NY 11722, USA",(631) 582-7380
ChIJeU5IaF0F3okRuK0Pk_a8g1s,Pet Supplies Plus Troy,"720 Hoosick Rd, Troy, NY 12180, United States",42.7432845,-73.643503,https://www.petsuppliesplus.com/Store/NY/Troy/Troy/4032,"720 Hoosick Rd, Troy, NY 12180, USA",(518) 272-3149
ChIJgUWMYOeJwokR1UoSh8j9J4g,Pet Supplies Plus Manhasset Grooming,"1170 Northern Blvd, Manhasset, NY 11030, United States",40.790726,-73.7020292,https://www.petsuppliesplus.com/dog-grooming,"1170 Northern Blvd, Manhasset, NY 11030, USA",(516) 627-0763
ChIJoYGWopFdwokRlkJwqEuAI7g,Pet Supplies Plus Howard Beach,"135-25 79th St, Howard Beach, NY 11414, United States",40.6712718,-73.8559655,,"135-25 79th St, Howard Beach, NY 11414, USA",(718) 322-1724
ChIJJZD1PVhewokRaJ_mt_4haHc,Pet Supplies Plus Maspeth,"74-17 Grand Ave, Maspeth, NY 11378, United States",40.7307342,-73.8872395,https://www.petsuppliesplus.com/Store/NY/Maspeth/Maspeth/9060,"74-17 Grand Ave, Maspeth, NY 11378, USA",(718) 424-3582
ChIJMYKYSuJYrIkRmiEPjhqzZLc,Pet Supplies Plus Raleigh,"3074 Wake Forest Rd, Raleigh, NC 27609, United States",35.823789,-78.620812,https://www.petsuppliesplus.com/store/nc/raleigh/8030-raleigh/8030,"3074 Wake Forest Rd, Raleigh, NC 27609, USA",(919) 878-0080
ChIJKQwuEhswUYgRxJat3_w8SCA,Pet Supplies Plus Hickory,"2441 N Center St, Hickory, NC 28601, United States",35.7638055,-81.3342183,https://www.petsuppliesplus.com/store/nc/hickory/4058-hickory/4058,"2441 N Center St, Hickory, NC 28601, USA",(828) 548-3300
ChIJQ7_8f5zwUIgRdxYj5iVf17E,Pet Supplies Plus Boone,"2575 NC-105 Suite 100, Boone, NC 28607, United States",36.2051571,-81.6964595,https://www.petsuppliesplus.com/Store/NC/Boone/Boone/8048,"2575 NC-105 Suite 100, Boone, NC 28607, USA",(828) 266-2100
ChIJNRT6scEBrIkRUwyvEVMOcGM,Pet Supplies Plus Goldsboro,"319 N Berkeley Blvd, Goldsboro, NC 27534, United States",35.374726,-77.948654,https://www.petsuppliesplus.com/store/nc/goldsboro/8018-goldsboro/8018,"319 N Berkeley Blvd, Goldsboro, NC 27534, USA",(919) 751-2595
ChIJ1Q-ORYXDrokRWPJjkA4ywyk,Pet Supplies Plus Greenville,"950 Criswell Dr #113, Greenville, NC 27834, United States",35.5666009,-77.4061832,https://www.petsuppliesplus.com/store/nc/greenville/4007-greenville/4007,"950 Criswell Dr #113, Greenville, NC 27834, USA",(252) 756-7410
ChIJhzsdlVCNqYkRBhTRBxsiUf0,Pet Supplies Plus North Wilmington,"134 Hays Ln, Wilmington, NC 28411, United States",34.296658,-77.7967422,https://www.petsuppliesplus.com/store/nc/wilmington/4210-wilmington/4210,"134 Hays Ln, Wilmington, NC 28411, USA",(910) 686-4663
ChIJm5oOafmfVogRoKdClpTHCFM,Pet Supplies Plus Charlotte - Elizabeth,"2001 E 7th St, Charlotte, NC 28204, United States",35.2123024,-80.8172755,https://www.petsuppliesplus.com/store/nc/charlotte/4109-charlotte/4109,"2001 E 7th St, Charlotte, NC 28204, USA",(704) 817-8360
ChIJLzh-8PPhrIkRIkCS88I6tuk,Pet Supplies Plus Durham,"3443 Hillsborough Rd #110, Durham, NC 27705, United States",36.0185943,-78.9482252,https://www.petsuppliesplus.com/store/nc/durham/4145-durham/4145,"3443 Hillsborough Rd #110, Durham, NC 27705, USA",(919) 797-2014
ChIJ9_pN6Cn3qYkRL14Ptxs-xlQ,Pet Supplies Plus Wilmington,"5954 Carolina Beach Rd #160, Wilmington, NC 28412, United States",34.1241027,-77.9014799,https://www.petsuppliesplus.com/Store/Store-Locator,"5954 Carolina Beach Rd #160, Wilmington, NC 28412, USA",(910) 790-1918
ChIJewifbLAcVIgRWWOrZJhmF8k,Pet Supplies Plus Concord Mills,"8895 Christenbury Pkwy, Concord, NC 28027, United States",35.3748104,-80.7341217,https://www.petsuppliesplus.com/store/nc/concord/4128-concord/4128,"8895 Christenbury Pkwy, Concord, NC 28027, USA",(704) 549-1901
ChIJVQgizRMPVIgR0dCTVOCi4pw,Pet Supplies Plus Concord,"1237 Concord Pkwy N, Concord, NC 28025, United States",35.4320852,-80.6061084,https://www.petsuppliesplus.com/store/nc/concord/8057-concord/8057,"1237 Concord Pkwy N, Concord, NC 28025, USA",(980) 255-3500
ChIJr80j6cTtrIkReAE0tvtgWMo,Pet Supplies Plus Cary NW,"651 Mills Park Dr, Cary, NC 27519, United States",35.8078791,-78.8974614,https://www.petsuppliesplus.com/store/nc/cary/4282-cary/4282,"651 Mills Park Dr, Cary, NC 27519, USA",(919) 323-4400
ChIJCZxlQ2ueVogR3pkDrLvxIDc,Pet Supplies Plus Charlotte - Sharon,"4732 Sharon Rd Ste S/T Ste S/T, Charlotte, NC 28210, United States",35.14783000000001,-80.83332,https://www.petsuppliesplus.com/store/nc/charlotte/4018-charlotte/4018,"4732 Sharon Rd Ste S/T Ste S/T, Charlotte, NC 28210, USA",(980) 207-0166
ChIJ4-hzP1UVq4kRUwSpu2v38gg,Pet Supplies Plus Hope Mills,"3001 N Main St, Hope Mills, NC 28348, United States",34.9850879,-78.9640879,https://www.petsuppliesplus.com/store/nc/hope-mills/4215-hope-mills/4215,"3001 N Main St, Hope Mills, NC 28348, USA",(910) 758-9593
ChIJESLRsOvrVogR942uPaXSYNk,Pet Supplies Plus Gastonia,"1731 Neal Hawkins Rd, Gastonia, NC 28056, United States",35.21564,-81.1692,https://www.petsuppliesplus.com/store/nc/gastonia/4272-gastonia/4272,"1731 Neal Hawkins Rd, Gastonia, NC 28056, USA",(980) 289-4440
ChIJ32hEDXntWYgRUAnp_tLxCRk,Pet Supplies Plus Asheville,"1856 Hendersonville Rd A, Asheville, NC 28803, United States",35.5013304,-82.5217048,https://www.petsuppliesplus.com/store/nc/asheville/8024-asheville/8024,"1856 Hendersonville Rd A, Asheville, NC 28803, USA",(828) 277-8020
ChIJBwqdKhayU4gRYX3agRHUQaM,Pet Supplies Plus Winston-Salem,"2812 Reynolda Rd, Winston-Salem, NC 27106, United States",36.1416509,-80.3004612,https://www.petsuppliesplus.com/Store/NC/Winston-Salem/Winston-Salem/8014,"2812 Reynolda Rd, Winston-Salem, NC 27106, USA",(336) 750-0677
ChIJMTseKv9bpYkREH0ttOnkrAg,Pet Supplies Plus Elizabeth City,"3850 Conlon Way Q, Elizabeth City, NC 27909, United States",36.2961021,-76.2939809,https://www.petsuppliesplus.com/Store/NC/Elizabeth-City/Elizabeth-City/4195,"3850 Conlon Way Q, Elizabeth City, NC 27909, USA",(252) 562-0727
ChIJJTFGMcG9VogRMNAA9sXkE-8,Pet Supplies Plus,"604 Park St, Belmont, NC 28012, United States",35.2526082,-81.0263382,http://www.petsuppliesplus.com/,"604 Park St, Belmont, NC 28012, USA",(980) 999-3440
ChIJf5TnYIsdU4gRHV68S-7OoaI,Pet Supplies Plus Greensboro,"3725 Battleground Ave, Greensboro, NC 27410, United States",36.1316803,-79.8576427,https://www.petsuppliesplus.com/store/nc/greensboro/4461-greensboro/4461,"3725 Battleground Ave, Greensboro, NC 27410, USA",(336) 907-3571
ChIJVV0HPgedVogRxveICrPpYrY,Pet Supplies Plus Charlotte - Pineville Mathews,"7601 Pineville-Matthews Rd, Charlotte, NC 28226, United States",35.0866412,-80.8476277,https://www.petsuppliesplus.com/store/nc/charlotte/8052-charlotte/8052,"7601 Pineville-Matthews Rd, Charlotte, NC 28226, USA",(980) 819-6163
ChIJlQ_G8OSxU4gRfPBNuWTfeOI,Pet Supplies Plus Winston-Salem - Hanes Mall Blvd,"1082 Hanes Mall Blvd, Winston-Salem, NC 27103, United States",36.0685907,-80.3226598,https://www.petsuppliesplus.com/store/nc/winston-salem/4532-winston-salem/4532,"1082 Hanes Mall Blvd, Winston-Salem, NC 27103, USA",(336) 999-7399
ChIJeerOwJH1qYkR6EquAKSpmpw,Pet Supplies Plus Wilmington - Independence,"3500 Oleander Dr Suite F50, Wilmington, NC 28403, United States",34.2148048,-77.906227,https://www.petsuppliesplus.com/store/nc/wilmington/4273-wilmington/4273,"3500 Oleander Dr Suite F50, Wilmington, NC 28403, USA",(910) 660-4657
ChIJ_Qn8PbPdrIkREFVPu4YWTdQ,Pet Supplies Plus Chapel Hill,"1848 M.L.K. Jr Blvd, Chapel Hill, NC 27514, United States",35.9673342,-79.0589884,https://www.petsuppliesplus.com/store/nc/chapel-hill/4307-chapel-hill/4307,"1848 M.L.K. Jr Blvd, Chapel Hill, NC 27514, USA",(984) 283-0007
ChIJIbz59Z6jqYkRn3xtL7tRMTA,Pet Supplies Plus Surf City,"13500 NC-50 Ste 106, Surf City, NC 28445, United States",34.4489741,-77.5614046,https://www.petsuppliesplus.com/store/nc/surf-city/4332-surf-city/4332,"13500 NC-50 Ste 106, Surf City, NC 28445, USA",(910) 803-2440
ChIJQ531SId9WogR9vIrj_okr5c,Pet Supplies Plus Johnson City,"2219 N Roan St Suite A, Johnson City, TN 37604, United States",36.3434462,-82.3771337,https://www.petsuppliesplus.com/Store/TN/Johnson-City/Johnson-City/4430,"2219 N Roan St Suite A, Johnson City, TN 37604, USA",(423) 430-6020
ChIJadYi4CM_AIkRujZqTyI5xqU,Pet Supplies Plus Murrells Inlet,"12150 Hwy 17 Bypass N Ste B, Murrells Inlet, SC 29576, United States",33.578498,-79.0294778,https://www.petsuppliesplus.com/store/sc/murrells-inlet/4329-murrells-inlet/4329,"12150 Hwy 17 Bypass N Ste B, Murrells Inlet, SC 29576, USA",(843) 299-1963
ChIJj9y9diizU4gREOlD38YGwFc,Pet Supplies Plus Winston-Salem Grooming,"2812 Reynolda Rd, Winston-Salem, NC 27106, United States",36.1416509,-80.3004612,https://www.petsuppliesplus.com/dog-grooming,"2812 Reynolda Rd, Winston-Salem, NC 27106, USA",(336) 750-0677
ChIJTSoPuNeFVogRa-z7I1fdsCk,Pet Supplies Plus Fort Mill,"2351 Len Patterson Rd #101, Fort Mill, SC 29708, United States",35.0402727,-80.9842881,https://www.petsuppliesplus.com/store/sc/fort-mill/4189-fort-mill/4189,"2351 Len Patterson Rd #101, Fort Mill, SC 29708, USA",(803) 548-2827
ChIJxbqazuGJVogRAWXfhUWbe4k,Pet Supplies Plus Rock Hill,"2730 Celanese Rd, Rock Hill, SC 29732, United States",34.9774555,-81.0268005,https://www.petsuppliesplus.com/store/sc/rock-hill/4107-rock-hill/4107,"2730 Celanese Rd, Rock Hill, SC 29732, USA",(803) 323-3200
ChIJc27YLc0p31IRQaLQUtIwGec,Pet Supplies Plus Minot,"2215 16th St NW, Minot, ND 58703, United States",48.2606292,-101.322013,https://www.petsuppliesplus.com/store/nd/minot/4348-minot/4348,"2215 16th St NW, Minot, ND 58703, USA",(701) 857-4070
ChIJtUZSl-nLyFIRii8o1gZ-zUQ,Pet Supplies Plus West Fargo,"1500 13th Ave E Suite B, West Fargo, ND 58078, United States",46.8640172,-96.8758984,https://www.petsuppliesplus.com/store/nd/west-fargo/4609-west-fargo/4609,"1500 13th Ave E Suite B, West Fargo, ND 58078, USA",(701) 581-8780
ChIJYanrCwaKR4gRiKu7LUZ-p_k,Pet Supplies Plus Lancaster,"1354 Ety Pointe Dr NW, Lancaster, OH 43130, United States",39.7382445,-82.6386005,https://www.petsuppliesplus.com/Store/OH/Lancaster/Lancaster/190,"1354 Ety Pointe Dr NW, Lancaster, OH 43130, USA",(740) 654-5154
ChIJL-aRlgs9OIgR9GVDcdn3B0Y,Pet Supplies Plus Newark,"1377 N 21st St, Newark, OH 43055, United States",40.0851996,-82.4280471,https://www.petsuppliesplus.com/Store/OH/Newark/Newark/151,"1377 N 21st St, Newark, OH 43055, USA",(740) 364-1593
ChIJ6bxMJuyUOYgRJCWd1nX9mKM,Pet Supplies Plus Mansfield,"887 N Lexington-Springmill Rd, Ontario, OH 44906, United States",40.7767021,-82.5907607,https://www.petsuppliesplus.com/Store/OH/Mansfield/Mansfield/106,"887 N Lexington-Springmill Rd, Ontario, OH 44906, USA",(419) 747-1930
ChIJD1y2HPlgOIgR0z3gkrZTVYI,Pet Supplies Plus New Albany,"4886 Morse Rd, Columbus, OH 43230, United States",40.0567208,-82.8611234,https://www.petsuppliesplus.com/Store/OH/Columbus/New-Albany/140,"4886 Morse Rd, Columbus, OH 43230, USA",(614) 775-9944
ChIJGxhgOqbWNogR8BgGangkrp0,Pet Supplies Plus North Canton,"4944 Portage St NW, North Canton, OH 44720, United States",40.8781901,-81.4404059,https://www.petsuppliesplus.com/Store/OH/North-Canton/North-Canton/117,"4944 Portage St NW, North Canton, OH 44720, USA",(330) 244-1554
ChIJ7R30UOv5QIgRZow3tC--8V8,Pet Supplies Plus Maineville,"6400 OH-48 Ste E, Maineville, OH 45039, United States",39.3419911,-84.2184204,https://www.petsuppliesplus.com/store/oh/maineville/4629-maineville/4629,"6400 OH-48 Ste E, Maineville, OH 45039, USA",(513) 583-0364
ChIJLbtCj16cQIgRJNBNZSyORQY,Pet Supplies Plus Beavercreek,"3320 Pentagon Blvd, Beavercreek, OH 45431, United States",39.7722401,-84.0537861,https://www.petsuppliesplus.com/store/oh/beavercreek/221-beavercreek/221,"3320 Pentagon Blvd, Beavercreek, OH 45431, USA",(937) 429-2830
ChIJNTT8EjRkOIgRKS8GOlG5RZo,Pet Supplies Plus Reynoldsburg,"8170 E Broad St, Reynoldsburg, OH 43068, United States",39.988233,-82.782661,https://www.petsuppliesplus.com/Store/OH/Reynoldsburg/Reynoldsburg/168,"8170 E Broad St, Reynoldsburg, OH 43068, USA",(614) 892-2300
ChIJK-Kkkm-OOIgRsoKxIRtmHt8,Pet Supplies Plus Upper Arlington,"1380 W Lane Ave, Upper Arlington, OH 43221, United States",40.0071979,-83.0472777,https://www.petsuppliesplus.com/Store/OH/Upper-Arlington/Upper-Arlington/158,"1380 W Lane Ave, Upper Arlington, OH 43221, USA",(614) 487-1274
ChIJ9T8vcJf1OIgRwu-y1W77xiA,Pet Supplies Plus Westerville,"690 N State St, Westerville, OH 43082, United States",40.1441671,-82.923053,https://www.petsuppliesplus.com/Store/OH/Westerville/Westerville/159,"690 N State St, Westerville, OH 43082, USA",(614) 794-9677
ChIJQwJ4X9YzMYgRTQee-01n2Yo,Pet Supplies Plus Springfield Township,"2855 E Waterloo Rd, Akron, OH 44312, United States",41.0322777,-81.425511,https://www.petsuppliesplus.com/Store/OH/Akron/Springfield-Township/115,"2855 E Waterloo Rd, Akron, OH 44312, USA",(330) 628-3304
ChIJHcJdl__6M4gRlJHCCMLrxvo,Pet Supplies Plus Youngstown,"411 Boardman-Canfield Rd, Youngstown, OH 44512, United States",41.0236501,-80.6753734,https://www.petsuppliesplus.com/Store/OH/Youngstown/Youngstown/51,"411 Boardman-Canfield Rd, Youngstown, OH 44512, USA",(330) 629-2266
ChIJsWcCmeXZNogRtLViZiXsNpo,Pet Supplies Plus Canton - Tuscarawas,"4965 Tuscarawas St W, Canton, OH 44708, United States",40.793878,-81.442285,https://www.petsuppliesplus.com/Store/OH/Canton/Canton/86,"4965 Tuscarawas St W, Canton, OH 44708, USA",(330) 477-6880
ChIJCRCfWFLHQIgR1lwMwQm6X2A,Pet Supplies Plus Wilmington,"1316 Rombach Ave, Wilmington, OH 45177, United States",39.4474152,-83.8055454,https://www.petsuppliesplus.com/store/oh/wilmington/4593-wilmington/4593,"1316 Rombach Ave, Wilmington, OH 45177, USA",(937) 404-2447
ChIJk6VL0E3XMIgRZ9Yloqgkhew,Pet Supplies Plus Fairlawn,"2789 W Market St, Fairlawn, OH 44333, United States",41.127831,-81.604497,https://www.petsuppliesplus.com/Store/OH/Fairlawn/Fairlawn/124,"2789 W Market St, Fairlawn, OH 44333, USA",(330) 867-8454
ChIJf66w27FIN4gRvYvxD7iWIV0,Pet Supplies Plus Wooster,"4067 Burbank Rd, Wooster, OH 44691, United States",40.8497722,-81.9442284,https://www.petsuppliesplus.com/Store/OH/Wooster/Wooster/102,"4067 Burbank Rd, Wooster, OH 44691, USA",(330) 345-9763
ChIJ24_mQ-GoMYgR0TGgW-iNOiE,Pet Supplies Plus Mentor,"7315 Mentor Ave, Mentor, OH 44060, United States",41.6524826,-81.3807277,https://www.petsuppliesplus.com/Store/OH/Mentor/Mentor/59,"7315 Mentor Ave, Mentor, OH 44060, USA",(440) 918-9480
ChIJf1k4HpQjMYgRAUW4nNevJuE,Pet Supplies Plus Streetsboro Grooming,"1262 OH-303, Streetsboro, OH 44241, United States",41.2374355,-81.3484925,https://www.petsuppliesplus.com/dog-grooming,"1262 OH-303, Streetsboro, OH 44241, USA",(330) 626-3511
ChIJt2i7Rr8qMYgR9eiThdhHw2c,Pet Supplies Plus Akron - Akron,"790 Arlington Ridge #303, Akron, OH 44312, United States",40.9830317,-81.4956695,https://www.petsuppliesplus.com/Store/OH/Akron/Akron/182,"790 Arlington Ridge #303, Akron, OH 44312, USA",(330) 644-4036
ChIJv9JpRKnVMIgRdifdyLRhDFU,Pet Supplies Plus Akron - Manchester,"3100 Manchester Rd, Akron, OH 44319, United States",41.015376,-81.5531862,https://www.petsuppliesplus.com/Store/OH/Akron/Akron/141,"3100 Manchester Rd, Akron, OH 44319, USA",(330) 644-9850
ChIJ3U2NIdn_QIgRY9ZlAJiQp18,Pet Supplies Plus Milford,"1079 State Rte 28, Milford, OH 45150, United States",39.1916872,-84.2352557,https://www.petsuppliesplus.com/store/oh/milford/4592-milford/4592,"1079 State Rte 28, Milford, OH 45150, USA",(513) 831-3333
ChIJrzOBMo0nMYgR19S1lRKorJA,Pet Supplies Plus Cuyahoga Falls,"1970 Portage Trail, Cuyahoga Falls, OH 44223, United States",41.1481831,-81.5067925,https://www.petsuppliesplus.com/Store/OH/Cuyahoga-Falls/Cuyahoga-Falls/206,"1970 Portage Trail, Cuyahoga Falls, OH 44223, USA",(330) 923-8172
ChIJpQDs6mGkMYgR8j4H57FKois,Pet Supplies Plus Painesville,"1213 Mentor Ave, Painesville, OH 44077, United States",41.7052993,-81.2676375,https://www.petsuppliesplus.com/Store/OH/Painesville/Painesville/240,"1213 Mentor Ave, Painesville, OH 44077, USA",(440) 350-3778
ChIJU2wbD-aOQIgRUWFci147yW8,Pet Supplies Plus Centerville,"987 S Main St, Centerville, OH 45458, United States",39.6107253,-84.1625386,https://www.petsuppliesplus.com/store/oh/centerville/143-centerville/143,"987 S Main St, Centerville, OH 45458, USA",(937) 438-8825
ChIJe9VW_r_FOIgRHgBDACbnwW4,Pet Supplies Plus Marysville,"449 Colemans Crossing Blvd, Marysville, OH 43040, United States",40.2329032,-83.3484863,https://www.petsuppliesplus.com/store/oh/marysville/4443-marysville/4443,"449 Colemans Crossing Blvd, Marysville, OH 43040, USA",(937) 317-4078
ChIJk7yxPlbQNogRI1ERkHT4Ceg,Pet Supplies Plus Canton - Cromer,"3040 Cromer Ave NW, Canton, OH 44709, United States",40.8326484,-81.3816045,https://www.petsuppliesplus.com/Store/OH/Canton/Canton/49,"3040 Cromer Ave NW, Canton, OH 44709, USA",(330) 493-8818
ChIJm8bNCu4bOYgRMlQZlR42pNA,Pet Supplies Plus Marion,"1609 Marion-Mt Gilead Rd, Marion, OH 43302, United States",40.5795906,-83.0873056,https://www.petsuppliesplus.com/store/oh/marion/4562-marion/4562,"1609 Marion-Mt Gilead Rd, Marion, OH 43302, USA",(740) 672-3370
ChIJP4bj8R2SMIgRTQ49lu3mENk,Pet Supplies Plus Westlake,"30008 Detroit Rd, Westlake, OH 44145, United States",41.465638,-81.9517856,https://www.petsuppliesplus.com/Store/OH/Westlake/Westlake/114,"30008 Detroit Rd, Westlake, OH 44145, USA",(440) 899-7552
ChIJ7ReiP5PgM4gRHKRigAxH_jE,Pet Supplies Plus Niles,"5555 Youngstown Warren Rd Unit 7, Niles, OH 44446, United States",41.2176744,-80.7463883,https://www.petsuppliesplus.com/Store/OH/Niles/Niles/56,"5555 Youngstown Warren Rd Unit 7, Niles, OH 44446, USA",(330) 544-5400
ChIJ__D--EirMYgRaOj5JygmFjA,Pet Supplies Plus Willoughby,"34821 Euclid Ave, Willoughby, OH 44094, United States",41.6260168,-81.4390525,https://www.petsuppliesplus.com/Store/OH/Willoughby//4460,"34821 Euclid Ave, Willoughby, OH 44094, USA",(440) 569-6060
ChIJd08fi-5GOogRH41WCEmG58U,Pet Supplies Plus Sandusky,"3820 Milan Rd, Sandusky, OH 44870, United States",41.4220756,-82.6771269,https://www.petsuppliesplus.com/Store/OH/Sandusky/Sandusky/144,"3820 Milan Rd, Sandusky, OH 44870, USA",(419) 627-5570
ChIJsREC8YgmMYgRKVkPDtIzFlU,Pet Supplies Plus Stow,"4332 Kent Rd, Stow, OH 44224, United States",41.1550312,-81.4063612,https://www.petsuppliesplus.com/Store/OH/Stow/Stow/68,"4332 Kent Rd, Stow, OH 44224, USA",(330) 686-0055
ChIJcWenb9ciMYgRCFuR5GMVS-0,Pet Supplies Plus Streetsboro,"1262 OH-303, Streetsboro, OH 44241, United States",41.237411,-81.3484828,https://www.petsuppliesplus.com/store/oh/streetsboro/131-streetsboro/131,"1262 OH-303, Streetsboro, OH 44241, USA",(330) 626-3511
ChIJ2Q8la8ZRP4gRl2yPEzIn4v4,Pet Supplies Plus Springfield-Tuttle,"130 S Tuttle Rd, Springfield, OH 45505, United States",39.9214054,-83.7486675,https://www.petsuppliesplus.com/store/oh/springfield/4387-springfield-tuttle/4387,"130 S Tuttle Rd, Springfield, OH 45505, USA",(937) 504-5440
ChIJJciYtxTyMIgRbhPaltOcc2E,Pet Supplies Plus Lakewood,"14839 Detroit Ave, Lakewood, OH 44107, United States",41.4838985,-81.8003589,https://www.petsuppliesplus.com/Store/OH/Lakewood/Lakewood/128,"14839 Detroit Ave, Lakewood, OH 44107, USA",(216) 226-6827
ChIJV2x7z5DtOIgRMfiNtnSG6nA,Pet Supplies Plus Powell,"9848 Brewster Ln, Powell, OH 43065, United States",40.1558862,-83.0947866,https://www.petsuppliesplus.com/Store/OH/Powell/Powell/225,"9848 Brewster Ln, Powell, OH 43065, USA",(614) 336-3258
ChIJUwbn-MWEOIgRHuAZW4-o-oU,Pet Supplies Plus Grove City,"2430 Stringtown Rd, Grove City, OH 43123, United States",39.8826172,-83.0674462,https://www.petsuppliesplus.com/Store/OH/Grove-City/Grove-City/211,"2430 Stringtown Rd, Grove City, OH 43123, USA",(614) 801-9426
ChIJARBVKnPBMIgRTpLzC_UzrHg,Pet Supplies Plus Brunswick,"1418 Town Center Blvd Ste. A-30, Brunswick, OH 44212, United States",41.2371667,-81.8084089,https://www.petsuppliesplus.com/store/oh/brunswick/4362-brunswick/4362,"1418 Town Center Blvd Ste. A-30, Brunswick, OH 44212, USA",(216) 770-9900
ChIJ320PiLiVMIgRKvHkDtDbM3k,Pet Supplies Plus Berea,"449 W Bagley Rd Unit 23, Berea, OH 44017, United States",41.3719161,-81.8692924,https://www.petsuppliesplus.com/store/oh/berea/4409-berea/4409,"449 W Bagley Rd Unit 23, Berea, OH 44017, USA",(440) 403-9010
ChIJ6bELpigCMYgR66-9Mn7Ya2I,Pet Supplies Plus Lyndhurst,"5092 Mayfield Rd, Lyndhurst, OH 44124, United States",41.5194386,-81.4964281,https://www.petsuppliesplus.com/Store/OH/Lyndhurst/Lyndhurst/83,"5092 Mayfield Rd, Lyndhurst, OH 44124, USA",(440) 473-9998
ChIJVQz-XiWrPogRvxZ1i3GHfZ0,Pet Supplies Plus Findlay,"2033 Tiffin Ave, Findlay, OH 45840, United States",41.053997,-83.603227,https://www.petsuppliesplus.com/Store/OH/Findlay/Findlay/89,"2033 Tiffin Ave, Findlay, OH 45840, USA",(419) 420-0120
ChIJ905-Xq_rMIgRc1VYd6433do,Pet Supplies Plus Middleburg Heights,"7570 Pearl Rd, Middleburg Heights, OH 44130, United States",41.359767,-81.815902,https://www.petsuppliesplus.com/Store/OH/MIDDLEBURG-HEIGHTS/Middleburg-Heights/28,"7570 Pearl Rd, Middleburg Heights, OH 44130, USA",(440) 891-9779
ChIJGdd3vXB8PIgROxbeTjhZMWQ,Pet Supplies Plus Sylvania,"3140 Percentum Rd Suite 2, Toledo, OH 43617, United States",41.6755107,-83.7082939,https://www.petsuppliesplus.com/Store/OH/Sylvania-Twp/Sylvania/148,"3140 Percentum Rd Suite 2, Toledo, OH 43617, USA",(419) 843-1000
ChIJVT1bzu-dMIgRXKWfb5DYRVs,Pet Supplies Plus Lorain,"4326 N Leavitt Rd G, Lorain, OH 44053, United States",41.428135,-82.2053048,https://www.petsuppliesplus.com/Store/OH/Lorain/Lorain/219,"4326 N Leavitt Rd G, Lorain, OH 44053, USA",(440) 960-0340
ChIJRdRkiqmTOIgRGXJi2V77F_c,Pet Supplies Plus Hilliard,"3718 Fishinger Blvd, Hilliard, OH 43026, United States",40.0300841,-83.1144189,https://www.petsuppliesplus.com/store/oh/hilliard/4383-hilliard/4383,"3718 Fishinger Blvd, Hilliard, OH 43026, USA",(614) 951-9620
ChIJpUZ9bJapQYgRZGOfO3NCCH0,Pet Supplies Plus Cincinnati-Beechmont,"8544 Beechmont Ave, Cincinnati, OH 45255, United States",39.0724205,-84.3177204,https://www.petsuppliesplus.com/,"8544 Beechmont Ave, Cincinnati, OH 45255, USA",(513) 834-5891
ChIJsWoOUlXuMIgRKpufNMe1oA4,Pet Supplies Plus Brooklyn,"4808 Ridge Rd, Brooklyn, OH 44144, United States",41.42437,-81.735256,https://www.petsuppliesplus.com/Store/OH/Brooklyn/Brooklyn/195,"4808 Ridge Rd, Brooklyn, OH 44144, USA",(216) 482-3721
ChIJ86MV_BgfMYgRT9Fxr_LyR2c,Pet Supplies Plus Twinsburg,"8928 Darrow Rd Ste D101, Twinsburg, OH 44087, United States",41.3087408,-81.442088,https://www.petsuppliesplus.com/store/oh/twinsburg/4375-twinsburg/4375,"8928 Darrow Rd Ste D101, Twinsburg, OH 44087, USA",(234) 212-3900
ChIJG2Tx-Y7jMIgRN8ZKyMXtTEI,Pet Supplies Plus Garfield Heights,"12662 Rockside Rd, Garfield Heights, OH 44125, United States",41.398002,-81.5956137,https://www.petsuppliesplus.com/Store/OH/Garfield-Heights/Garfield-Heights/112,"12662 Rockside Rd, Garfield Heights, OH 44125, USA",(216) 587-5003
ChIJg6qkRf7HMIgRkpshMdVzpvs,Pet Supplies Plus Medina,"1150 N Court St Unit 2A, Medina, OH 44256, United States",41.1572775,-81.862005,https://www.petsuppliesplus.com/Store/OH/Medina/Medina/92,"1150 N Court St Unit 2A, Medina, OH 44256, USA",(330) 723-7666
ChIJQRto0T-ZMIgRUMYakTACKZA,Pet Supplies Plus Elyria,"220 Market Dr, Elyria, OH 44035, United States",41.3881352,-82.1085934,https://www.petsuppliesplus.com/Store/OH/Elyria/Elyria/123,"220 Market Dr, Elyria, OH 44035, USA",(440) 324-7221
ChIJywPnAh93NogRHzsHEo83xBA,Pet Supplies Plus St. Clairsville,"50623 Valley Plaza Dr, St Clairsville, OH 43950, United States",40.0751868,-80.8765007,https://www.petsuppliesplus.com/Store/OH/St.-Clairsville/St.-Clairsville/99,"50623 Valley Plaza Dr, St Clairsville, OH 43950, USA",(740) 699-0766
ChIJU5wBC5WFQIgR7PFb4wqPKZk,Pet Supplies Plus Kettering,"508 E Stroop Rd, Kettering, OH 45429, United States",39.6882091,-84.1630915,https://www.petsuppliesplus.com/Store/OH/Kettering/Kettering/88,"508 E Stroop Rd, Kettering, OH 45429, USA",(937) 294-7655
ChIJo0NMebbzPogR1CmKzI2BP60,Pet Supplies Plus Lima,"911 N Cable Rd A, Lima, OH 45805, United States",40.7518506,-84.1494248,https://www.petsuppliesplus.com/Store/OH/Lima/Lima/101,"911 N Cable Rd A, Lima, OH 45805, USA",(419) 229-6700
ChIJIz5kgWAfMogREzTXaC9feWc,Pet Supplies Plus Ashtabula,"2102 Metcalf Dr, Ashtabula, OH 44004, United States",41.8830965,-80.7469379,https://www.petsuppliesplus.com/,"2102 Metcalf Dr, Ashtabula, OH 44004, USA",(440) 536-5595
ChIJH01KKTPHO4gRtbALbVkSnRQ,Pet Supplies Plus Fremont,"2180 Sean Dr Unit 6A, Fremont, OH 43420, United States",41.3766053,-83.1192943,https://www.petsuppliesplus.com/store/oh/fremont/4267-fremont/4267,"2180 Sean Dr Unit 6A, Fremont, OH 43420, USA",(419) 216-3551
ChIJwzbggn4KMYgRAW8crRBM5zA,Pet Supplies Plus Chardon,"425 Water St, Chardon, OH 44024, United States",41.5795707,-81.2112707,https://www.petsuppliesplus.com/Store/OH/Chardon/Chardon/119,"425 Water St, Chardon, OH 44024, USA",(440) 286-5442
ChIJZ0hM0FsuNIgRkPnc0JFF9BE,Pet Supplies Plus Steubenville,"100 Mall Dr, Steubenville, OH 43952, United States",40.3667769,-80.670482,https://www.petsuppliesplus.com/Store/OH/Steubenville/Steubenville/145,"100 Mall Dr, Steubenville, OH 43952, USA",(740) 264-7760
ChIJX5SYOPzRPYgR0b-dluiwe3o,Pet Supplies Plus Defiance,"1524 N Clinton St, Defiance, OH 43512, United States",41.3041139,-84.3632071,https://www.petsuppliesplus.com/Store/OH/Defiance/Defiance/186,"1524 N Clinton St, Defiance, OH 43512, USA",(419) 782-0046
ChIJ3b7PKssbsocR7qbAyescIsk,Pet Supplies Plus North Oklahoma City,"2950 W Britton Rd suite f, Oklahoma City, OK 73120, United States",35.5653699,-97.5686379,https://www.petsuppliesplus.com/store/ok/oklahoma-city/4233-oklahoma-city/4233,"2950 W Britton Rd suite f, Oklahoma City, OK 73120, USA",(405) 463-3280
ChIJ30-TMsSTtocR3B8QMqdSqV4,Pet Supplies Plus Tulsa - Brookside,"1339 E 41st St, Tulsa, OK 74105, United States",36.1047973,-95.9738769,https://www.petsuppliesplus.com/store/ok/tulsa/4355-tulsa/4355,"1339 E 41st St, Tulsa, OK 74105, USA",(918) 615-9727
ChIJ__MUL8IfsocR-87WoQOoc-Q,Pet Supplies Plus Edmond (Kickingbird,"1327 E Danforth Rd, Edmond, OK 73034, United States",35.6681539,-97.4618858,https://www.petsuppliesplus.com/store/ok/edmond/4094-edmond/4094,"1327 E Danforth Rd, Edmond, OK 73034, USA",(405) 562-4288
ChIJ-Q-CzneNtocRmb_QuuZ07Y0,Pet Supplies Plus Tulsa (Eton Square),"8221 E 61st St Suite A, Tulsa, OK 74133, United States",36.0762378,-95.8858666,https://www.petsuppliesplus.com/Store/OK/Tulsa/Tulsa-Eton-Square-/4092,"8221 E 61st St Suite A, Tulsa, OK 74133, USA",(918) 806-2316
ChIJe9RI52XxtocRV2YzKBq2lmo,Pet Supplies Plus Owasso,"11422 N 134th E Ave Suite G, Owasso, OK 74055, United States",36.3187838,-95.8242194,https://www.petsuppliesplus.com/store/ok/owasso/4221-owasso/4221,"11422 N 134th E Ave Suite G, Owasso, OK 74055, USA",(539) 208-5321
ChIJY8zACOrHuFQRUbrLpd9-19Q,Pet Supplies Plus Bend,"2620 NE Hwy 20 #200, Bend, OR 97701, United States",44.0556731,-121.2658595,https://www.petsuppliesplus.com/Store/OR/Bend//4418,"2620 NE Hwy 20 #200, Bend, OR 97701, USA",(541) 382-8344
ChIJy0ojgaGZlVQR4uchPDSFzoA,Pet Supplies Plus Gresham,"1152 NW Civic Dr, Gresham, OR 97030, United States",45.5054918,-122.4407967,https://www.petsuppliesplus.com/store/or/gresham/4104-gresham/4104,"1152 NW Civic Dr, Gresham, OR 97030, USA",(503) 666-1518
ChIJAS77S3DAM4gRvUFzf_UEsBk,Pet Supplies Plus Hermitage,"2471 E State St, Hermitage, PA 16148, United States",41.2349036,-80.4644834,https://www.petsuppliesplus.com/Store/PA/Hermitage/Hermitage/111,"2471 E State St, Hermitage, PA 16148, USA",(724) 347-2292
ChIJ3a_opOzZxIkR6tZ3zB36l54,Pet Supplies Plus Scranton,"1132 Commerce Blvd, Dickson City, PA 18519, United States",41.4669025,-75.6395881,https://www.petsuppliesplus.com/Store/PA/Scranton/Scranton/9022,"1132 Commerce Blvd, Dickson City, PA 18519, USA",(570) 383-7180
ChIJqz4OQN1wxokR9qazw_nPn4o,Pet Supplies Plus Shillington,"538 E Lancaster Ave, Shillington, PA 19607, United States",40.3075072,-75.9562719,https://www.petsuppliesplus.com/Store/PA/SHILLINGTON/Shillington/9025,"538 E Lancaster Ave, Shillington, PA 19607, USA",(610) 796-2292
ChIJGUr1GlMaxYkRCEfXqlGaXE4,Pet Supplies Plus Wilkes Barre,"Market Pl, 2176 Wilkes Barre Township Blvd, Wilkes-Barre Township, PA 18702, United States",41.23762989999999,-75.8591789,https://www.petsuppliesplus.com/Store/PA/Wilkes-Barre/Wilkes-Barre/9012,"Market Pl, 2176 Wilkes Barre Township Blvd, Wilkes-Barre Township, PA 18702, USA",(570) 829-3446
ChIJZYC8wHwjxokRW-b8xvBl1Ho,Pet Supplies Plus Lancaster,"1519 Lititz Pike, Lancaster, PA 17601, United States",40.06595280000001,-76.3062321,https://www.petsuppliesplus.com/Store/PA/Lancaster/Lancaster/9037,"1519 Lititz Pike, Lancaster, PA 17601, USA",(717) 392-1699
ChIJzSyRyYbcxYkRZIo396CUNH0,Pet Supplies Plus Hamburg,"1764 Tilden Ridge Dr, Hamburg, PA 19526, United States",40.5621568,-76.0107201,https://www.petsuppliesplus.com/Store/PA/Hamburg/Hamburg/9048,"1764 Tilden Ridge Dr, Hamburg, PA 19526, USA",(610) 562-7075
ChIJ3_IKs80fxYkR1Qf-6BNBpKY,Pet Supplies Plus Pittston,"320 PA-315 #155, Pittston, PA 18640, United States",41.31587690000001,-75.7563664,https://www.petsuppliesplus.com/Store/PA/Pittston/Pittston/4165,"320 PA-315 #155, Pittston, PA 18640, USA",(570) 655-1527
ChIJ21wVUg4bxYkRCrYVFs-9T3g,Pet Supplies Plus Wilkes Barre Grooming,"Market Pl, 2176 Wilkes Barre Township Blvd, Wilkes-Barre, PA 18702, United States",41.23762989999999,-75.8591789,https://www.petsuppliesplus.com/dog-grooming,"Market Pl, 2176 Wilkes Barre Township Blvd, Wilkes-Barre, PA 18702, USA",(570) 829-3446
ChIJ2w0U71I4xIkRRQIXQmw__9Q,Pet Supplies Plus Whitehall,"2433 MacArthur Rd, Whitehall Township, PA 18052, United States",40.6428775,-75.4906968,https://www.petsuppliesplus.com/Store/PA/Whitehall/Whitehall/9026,"2433 MacArthur Rd, Whitehall Township, PA 18052, USA",(610) 432-2199
ChIJ4y-eCCPZxIkRGTF-auYlp50,Pet Supplies Plus Scranton Grooming,"1132 Commerce Blvd, Dickson City, PA 18519, United States",41.466854,-75.6396713,https://www.petsuppliesplus.com/dog-grooming,"1132 Commerce Blvd, Dickson City, PA 18519, USA",(570) 383-7180
ChIJJSFWm0AlxokRDliYeNpHJIE,Pet Supplies Plus Willow Street,"2600 Willow Street Pike N Suite 312, Willow Street, PA 17584, United States",39.9833613,-76.2817507,https://www.petsuppliesplus.com/store/pa/willow-street/4394-willow-street/4394,"2600 Willow Street Pike N Suite 312, Willow Street, PA 17584, USA",(717) 301-8010
ChIJ-whknaJ_MogR8MR580cP0G0,Pet Supplies Plus Erie,"1010 W Erie Plaza Dr, Erie, PA 16505, United States",42.1062556,-80.13383,https://www.petsuppliesplus.com/Store/PA/Erie/Erie/4103,"1010 W Erie Plaza Dr, Erie, PA 16505, USA",(814) 651-0738
ChIJz7kCgi2HxYkRLGam0Tn40p4,Pet Supplies Plus Bloomsburg,"1009 Scott Town Ctr, Bloomsburg, PA 17815, United States",41.0058967,-76.4368503,https://www.petsuppliesplus.com/store/pa/bloomsburg/4396-bloomsburg/4396,"1009 Scott Town Ctr, Bloomsburg, PA 17815, USA",(570) 260-3070
ChIJOQsUTs_SNIgR4t4RRwXgRBQ,Pet Supplies Plus Latrobe,"1052 Mountain Laurel Plaza #301, Latrobe, PA 15650, United States",40.28314719999999,-79.3907693,https://www.petsuppliesplus.com/Store/PA/Latrobe/Latrobe/4097,"1052 Mountain Laurel Plaza #301, Latrobe, PA 15650, USA",(724) 539-1909
ChIJV8a95xn2NIgRUQorKbCT-Wk,Pet Supplies Plus Robinson Township,"1100 Settlers Ridge Center Dr, Pittsburgh, PA 15205, United States",40.4405476,-80.1472574,https://www.petsuppliesplus.com/store/pa/robinson-township/4647-robinson-township/4647,"1100 Settlers Ridge Center Dr, Pittsburgh, PA 15205, USA",(412) 788-4213
ChIJ-9sH2G_uNIgRUbLOZnEkSR8,Pet Supplies Plus Edgewood Towne Center,"1743 S Braddock Ave, Swissvale, PA 15218, United States",40.4267367,-79.8862712,https://www.petsuppliesplus.com/Store/PA/Swissvale/Edgewood-Towne-Center/4053,"1743 S Braddock Ave, Swissvale, PA 15218, USA",(412) 242-0538
ChIJX0SGEocTz4kRTwctel1wO7w,Pet Supplies Plus Lewisburg,"7431 Westbranch Hwy Suite 4, Lewisburg, PA 17837, United States",40.9812675,-76.8843514,https://www.petsuppliesplus.com/store/pa/lewisburg/4401-lewisburg/4401,"7431 Westbranch Hwy Suite 4, Lewisburg, PA 17837, USA",(570) 551-6418
ChIJnw3nr-0pNYgRVl7fTC4HLww,Pet Supplies Plus Mount Pleasant,"2172 Summit Ridge Plaza, Mt Pleasant, PA 15666, United States",40.1269754,-79.5458571,https://www.petsuppliesplus.com/store/pa/mount-pleasant/4381-mount-pleasant/4381,"2172 Summit Ridge Plaza, Mt Pleasant, PA 15666, USA",(724) 765-5710
ChIJlfQgSP2PNIgROGyIWtQVnDs,Pet Supplies Plus Allison Park,"4960 William Flinn Hwy STE 10, Allison Park, PA 15101, United States",40.6018704,-79.945458,https://www.petsuppliesplus.com/store/pa/allison-park/4370-allison-park/4370,"4960 William Flinn Hwy STE 10, Allison Park, PA 15101, USA",(724) 939-7006
ChIJvXOFEWllyIkR9FJNKyujYZI,Pet Supplies Plus Shrewsbury,"624 Shrewsbury Commons Ave, Shrewsbury, PA 17361, United States",39.7692459,-76.6692065,https://www.petsuppliesplus.com/Store/PA/Shrewsbury/Shrewsbury/4400,"624 Shrewsbury Commons Ave, Shrewsbury, PA 17361, USA",(717) 739-0160
ChIJJzAQ8jRVNIgRVTZRxeNPjW0,Pet Supplies Plus McMurray,"3563 Washington Rd, McMurray, PA 15317, United States",40.2823067,-80.1217778,https://www.petsuppliesplus.com/store/pa/mcmurray/4379-columbus/4379,"3563 Washington Rd, McMurray, PA 15317, USA",(724) 916-5260
ChIJQRigKmSVyIkRzgIP330xqaY,Pet Supplies Plus Etters,"172 Newberry Pkwy, Etters, PA 17319, United States",40.147786,-76.811989,https://www.petsuppliesplus.com/store/pa/etters/4395-etters/4395,"172 Newberry Pkwy, Etters, PA 17319, USA",(717) 466-2078
ChIJZ9FJPflXNIgRa4VFvktD9gw,Pet Supplies Plus Bridgeville,"1155 Washington Pike, Bridgeville, PA 15017, United States",40.3693685,-80.1049349,https://www.petsuppliesplus.com/Store/PA/Bridgeville/Bridgeville/226,"1155 Washington Pike, Bridgeville, PA 15017, USA",(412) 221-5325
ChIJwf5XQYAjxokRPajUA-QA36I,Pet Supplies Plus Lititz,"1024 Lititz Pike, Lititz, PA 17543, United States",40.1304378,-76.3077149,https://www.petsuppliesplus.com/store/pa/lititz/4403-lititz/4403,"1024 Lititz Pike, Lititz, PA 17543, USA",(717) 568-2080
ChIJvTmD9ekXxokRmd7fgID8NXM,Pet Supplies Plus Ephrata,"120 N Reading Rd, Ephrata, PA 17522, United States",40.1875043,-76.1857295,https://www.petsuppliesplus.com/store/pa/ephrata/4389-ephrata/4389,"120 N Reading Rd, Ephrata, PA 17522, USA",(717) 447-5230
ChIJ-zyfQzccNYgR8eMP8QDWfAU,Pet Supplies Plus Belle Vernon,"120 Sara Way, Belle Vernon, PA 15012, United States",40.1384228,-79.8476182,https://www.petsuppliesplus.com/Store/PA/Belle-Vernon/Belle-Vernon/220,"120 Sara Way, Belle Vernon, PA 15012, USA",(724) 929-3604
ChIJD3H-t9l9LYgRqOHpmNavBsE,Pet Supplies Plus Harborcreek,"4121 Buffalo Rd, Erie, PA 16510, United States",42.1429443,-80.0051364,https://www.petsuppliesplus.com/Store/PA/Erie/Harborcreek/4074,"4121 Buffalo Rd, Erie, PA 16510, USA",(814) 962-0123
ChIJZWTmgurdNIgRD_BHKP4hyI4,Pet Supplies Plus North Huntingdon,"8937 US-30, North Huntingdon, PA 15642, United States",40.3215491,-79.6897917,https://www.petsuppliesplus.com/store/pa/north-huntingdon/4468-north-huntingdon/4468,"8937 US-30, North Huntingdon, PA 15642, USA",(724) 765-8182
ChIJlcN1NKinzokRgbgO7twbYPY,Pet Supplies Plus State College,"277 Northland Center, State College, PA 16803, United States",40.8031891,-77.8877729,https://www.petsuppliesplus.com/store/pa/state-college/4263-state-college/4263,"277 Northland Center, State College, PA 16803, USA",(814) 996-4912
ChIJG2Qoc15zNIgRAqP2pctvAkE,Pet Supplies Plus Chippewa Center,"236 Chippewa Town Center, Beaver Falls, PA 15010, United States",40.7811299,-80.3820507,https://www.petsuppliesplus.com/store/pa/beaver-falls/4123-beaver-falls/4123,"236 Chippewa Town Center, Beaver Falls, PA 15010, USA",(724) 624-7592
ChIJOVo1R5r5NIgRmdV_5YQoonw,Pet Supplies Plus Bethel Park,"5229 Library Rd, Bethel Park, PA 15102, United States",40.33299969999999,-80.0229481,https://www.petsuppliesplus.com/Store/PA/Bethel-Park/Bethel-Park/87,"5229 Library Rd, Bethel Park, PA 15102, USA",(412) 831-8986
ChIJ_bKUcASOxokRGn-e0VSYOX0,Pet Supplies Plus Phoenixville,"700 Nutt Rd, Phoenixville, PA 19460, United States",40.13367909999999,-75.5331445,https://www.petsuppliesplus.com/Store/PA/Phoenixville/Phoenixville/9035,"700 Nutt Rd, Phoenixville, PA 19460, USA",(610) 933-8166
ChIJc4ALdsJfxokRez76kkj3Wfk,Pet Supplies Plus Thorndale,"3469 Lincoln Hwy, Thorndale, PA 19372, United States",39.9963047,-75.7555116,https://www.petsuppliesplus.com/store/pa/thorndale/4377-thorndale/4377,"3469 Lincoln Hwy, Thorndale, PA 19372, USA",(484) 378-7180
ChIJ_wVs-RXByIkRTuUy19KTxtI,Pet Supplies Plus Lemoyne,"1200 Market St Unit 4, Lemoyne, PA 17043, United States",40.2410174,-76.9085678,https://www.petsuppliesplus.com/Store/PA/Lemoyne/Lemoyne/4393,"1200 Market St Unit 4, Lemoyne, PA 17043, USA",(717) 447-5227
ChIJ35pTwyLmNIgR0j2NMgkO-6Q,Pet Supplies Plus White Oak,"2001 Lincoln Way Suite 110, White Oak, PA 15131, United States",40.3368447,-79.8054851,https://www.petsuppliesplus.com/Store/PA/White-Oak/White-Oak/248,"2001 Lincoln Way Suite 110, White Oak, PA 15131, USA",(412) 678-1394
ChIJ2-GEO39xxokRbGgyP4Y4hvI,Pet Supplies Plus Shillington Grooming,"538 E Lancaster Ave, Shillington, PA 19607, United States",40.307346,-75.9561402,https://www.petsuppliesplus.com/dog-grooming,"538 E Lancaster Ave, Shillington, PA 19607, USA",(610) 796-2292
ChIJgamH823ByIkR1CU8KgyTNGc,Pet Supplies Plus Lemoyne Grooming,"1200 Market St Unit 4, Lemoyne, PA 17043, United States",40.2410174,-76.9085678,https://www.petsuppliesplus.com/dog-grooming,"1200 Market St Unit 4, Lemoyne, PA 17043, USA",(717) 447-5227
ChIJfWXWsVJXNIgRDdw19Xg3Jqk,Pet Supplies Plus Bridgeville Grooming,"1155 Washington Pike, Bridgeville, PA 15017, United States",40.3693609,-80.1049685,https://www.petsuppliesplus.com/dog-grooming,"1155 Washington Pike, Bridgeville, PA 15017, USA",(412) 221-5325
ChIJ1QxrDONVNIgRy2xmUuDxyGQ,Pet Supplies Plus McMurray Grooming,"3563 Washington Rd, McMurray, PA 15317, United States",40.2822511,-80.121645,https://www.petsuppliesplus.com/dog-grooming,"3563 Washington Rd, McMurray, PA 15317, USA",(724) 916-5260
ChIJKciIelO55YkRssTC1LQfHtg,Pet Supplies Plus Narragansett,"91 Point Judith Rd Suite 2, Narragansett, RI 02882, United States",41.4285124,-71.4840574,https://www.petsuppliesplus.com/Store/RI/Narragansett/Narragansett/4159,"91 Point Judith Rd Suite 2, Narragansett, RI 02882, USA",(401) 783-0174
ChIJYdyR3t5P5IkRFXaEyv6czok,Pet Supplies Plus Cranston Grooming,"171 Sockanosset Cross Rd, Cranston, RI 02920, United States",41.7567202,-71.457162,https://www.petsuppliesplus.com/dog-grooming,"171 Sockanosset Cross Rd, Cranston, RI 02920, USA",(401) 944-5858
ChIJ0Uh4ugxF5IkRyLHCHSORJ9g,Pet Supplies Plus North Providence Grooming,"1663 Mineral Spring Ave, Providence, RI 02904, United States",41.864255,-71.4526285,https://www.petsuppliesplus.com/dog-grooming,"1663 Mineral Spring Ave, Providence, RI 02904, USA",(401) 353-0762
ChIJUUFL0nOJ_ogRMBR4xlAOYRU,Pet Supplies Plus Summerville,"9500 Dorchester Rd Suite 350, Summerville, SC 29485, United States",32.9355812,-80.1395033,https://www.petsuppliesplus.com/store/sc/summerville/8051-summerville/8051,"9500 Dorchester Rd Suite 350, Summerville, SC 29485, USA",(843) 873-7611
ChIJN46OyDKl-IgRgGeia6R88yg,Pet Supplies Plus Columbia - Five Points,"1001 Harden St, Columbia, SC 29205, United States",34.002914,-81.0184336,https://www.petsuppliesplus.com/store/sc/columbia/8031-columbia/8031,"1001 Harden St, Columbia, SC 29205, USA",(803) 252-7021
ChIJGe_XC-u8-IgRvzoi6xXhyPQ,Pet Supplies Plus West Columbia,"2410 Augusta Rd, West Columbia, SC 29169, United States",33.9837972,-81.0998171,https://www.petsuppliesplus.com/store/sc/west-columbia/8001-west-columbia/8001,"2410 Augusta Rd, West Columbia, SC 29169, USA",(803) 794-9559
ChIJx4x2CDOp-IgRtbtrdaV_wBA,Pet Supplies Plus Columbia - Clemson Rd.,"2108 Clemson Rd, Columbia, SC 29229, United States",34.140807,-80.9150274,https://www.petsuppliesplus.com/store/sc/columbia/4327-columbia/4327,"2108 Clemson Rd, Columbia, SC 29229, USA",(803) 851-0798
ChIJgRj1s7iY-IgRgzLYNjrYuBI,Pet Supplies Plus Irmo,"7467 St Andrews Rd, Irmo, SC 29063, United States",34.0869569,-81.1863517,https://www.petsuppliesplus.com/store/sc/irmo/8058-irmo/8058,"7467 St Andrews Rd, Irmo, SC 29063, USA",(803) 749-5190
ChIJj5puBJ4rWIgR0-vooOTU7os,Pet Supplies Plus Greer,"805 W Wade Hampton Blvd Suite F, Greer, SC 29650, United States",34.9441975,-82.2472445,https://www.petsuppliesplus.com/store/sc/greer/4502-greer/4502,"805 W Wade Hampton Blvd Suite F, Greer, SC 29650, USA",(864) 447-3880
ChIJe1rXFvBg_ogRpjZJV9Y-vJ8,Pet Supplies Plus Goose Creek,"208 St James Ave, Goose Creek, SC 29445, United States",33.00746170000001,-80.0434476,https://www.petsuppliesplus.com/store/sc/goose-creek/4262-goose-creek/4262,"208 St James Ave, Goose Creek, SC 29445, USA",(843) 277-2844
ChIJZV_8MDEsWIgRuI0qqRO3bCc,Pet Supplies Plus Taylors,"2801 Wade Hampton Blvd Suite 100, Taylors, SC 29687, United States",34.9015051,-82.3381103,https://www.petsuppliesplus.com/store/sc/taylors/4059-taylors/4059,"2801 Wade Hampton Blvd Suite 100, Taylors, SC 29687, USA",(864) 292-5550
ChIJW5GzLl0NAIkRi4bhUI_Q8ec,Pet Supplies Plus,"2300 Church St Suite #20, Conway, SC 29526, United States",33.8551985,-79.077404,https://www.petsuppliesplus.com/store/sc/conway/4524-conway/4524,"2300 Church St Suite #20, Conway, SC 29526, USA",(843) 772-0015
ChIJfQS8w_d5_ogRU05x7A20yBM,Pet Supplies Plus James Island,"1739 Maybank Hwy Suite N, Charleston, SC 29412, United States",32.7616156,-79.9766663,https://www.petsuppliesplus.com/store/sc/charleston/4296-charleston/4296,"1739 Maybank Hwy Suite N, Charleston, SC 29412, USA",(843) 297-4656
ChIJEyx1ngAzWIgRdRJNNQiumbw,Pet Supplies Plus University Square,"5000 Old Buncombe Rd Ste 19, Greenville, SC 29617, United States",34.9107883,-82.4275959,https://www.petsuppliesplus.com/store/sc/greenville/4636-greenville/4636,"5000 Old Buncombe Rd Ste 19, Greenville, SC 29617, USA",(864) 203-2400
ChIJ7Wxy-MZJWIgRcRh7ryNLrYc,Pet Supplies Plus Easley,"6101 Calhoun Memorial Hwy Suite II, Easley, SC 29640, United States",34.8224509,-82.5788604,https://www.petsuppliesplus.com/store/sc/easley/4616-easley/4616,"6101 Calhoun Memorial Hwy Suite II, Easley, SC 29640, USA",(864) 999-4445
ChIJeZrdS6XLjocRFmc1ExP6Tyg,Pet Supplies Plus Sioux Falls,"1740 S St Michaels Cir, Sioux Falls, SD 57106, United States",43.5296939,-96.7874155,https://www.petsuppliesplus.com/store/sd/sioux-falls/4300-sioux-falls/4300,"1740 S St Michaels Cir, Sioux Falls, SD 57106, USA",(605) 777-1922
ChIJGbtfCj9HZIgRhS2yOSFE5MU,Pet Supplies Plus Hendersonville,"217 Indian Lake Blvd #200, Hendersonville, TN 37075, United States",36.3206854,-86.6020827,https://www.petsuppliesplus.com/store/tn/hendersonville/4022-hendersonville/4022,"217 Indian Lake Blvd #200, Hendersonville, TN 37075, USA",(615) 826-1424
ChIJP0t-d0giZ4gR1G2-XRNhoAg,Pet Supplies Plus Cookeville,"768 S Jefferson Ave c, Cookeville, TN 38501, United States",36.1460737,-85.4973978,https://www.petsuppliesplus.com/Store/TN/Cookeville/Cookeville/8061,"768 S Jefferson Ave c, Cookeville, TN 38501, USA",(931) 525-6532
ChIJ7QCYQiPfZIgR_CMdtiN0uqA,Pet Supplies Plus Clarksville,"920 TN-76 Suite 30, Clarksville, TN 37043, United States",36.5232122,-87.233937,https://www.petsuppliesplus.com/store/tn/clarksville/4248-clarksville/4248,"920 TN-76 Suite 30, Clarksville, TN 37043, USA",(931) 820-1020
ChIJ1WPZrzozXIgRu8qEHm0zs7k,Pet Supplies Plus Oak Ridge,"254 S Illinois Ave, Oak Ridge, TN 37830, United States",36.0056694,-84.2584476,https://www.petsuppliesplus.com/Store/TN/Oak-Ridge/Oak-Ridge/8033,"254 S Illinois Ave, Oak Ridge, TN 37830, USA",(865) 481-0605
ChIJf5KfAvwVXIgRBhLLmbQL4bQ,Pet Supplies Plus Knoxville - Harvest,"4856 Harvest Mill Way, Knoxville, TN 37918, United States",36.0276486,-83.9267722,https://www.petsuppliesplus.com/Store/TN/Knoxville/Knoxville-Harvest/8006,"4856 Harvest Mill Way, Knoxville, TN 37918, USA",(865) 689-9331
ChIJ-wvbTtM_ZIgR4K7jaG81DR4,Pet Supplies Plus Mt. Juliet,"11223 Lebanon Rd, Mt. Juliet, TN 37122, United States",36.2325144,-86.5153989,https://www.petsuppliesplus.com/store/tn/mount-juliet/4354-mount-juliet/4354,"11223 Lebanon Rd, Mt. Juliet, TN 37122, USA",(615) 288-2384
ChIJEWVBOwBrZIgRijQ83DmweiI,Pet Supplies Plus Hermitage,"5530 Old Hickory Blvd Suite 18, Hermitage, TN 37076, United States",36.1824477,-86.6057637,https://www.petsuppliesplus.com/store/tn/hermitage/4598-hermitage/4598,"5530 Old Hickory Blvd Suite 18, Hermitage, TN 37076, USA",(615) 755-6940
ChIJ07I272wlXIgRefBDE-O0GUg,Pet Supplies Plus Knoxville - Peters,"138 N Peters Rd, Knoxville, TN 37923, United States",35.915456,-84.081014,https://www.petsuppliesplus.com/Store/TN/Knoxville/Knoxville-Peters/8045,"138 N Peters Rd, Knoxville, TN 37923, USA",(865) 690-0220
ChIJPWz_aJYHZIgRnPgaGWO03nU,Pet Supplies Plus Murfreesboro East,"1664 Memorial Blvd, Murfreesboro, TN 37129, United States",35.8662892,-86.3865699,https://www.petsuppliesplus.com/store/tn/murfreesboro/4477-murfreesboro/4477,"1664 Memorial Blvd, Murfreesboro, TN 37129, USA",(615) 612-0240
ChIJreL9NiMaXIgRHfg3BM2Yc5U,Pet Supplies Plus Knoxville - Mountain,"7606 Mountain Grove Dr, Knoxville, TN 37920, United States",35.9037507,-83.8383776,https://www.petsuppliesplus.com/Store/TN/Knoxville/Knoxville-Mountain/8049,"7606 Mountain Grove Dr, Knoxville, TN 37920, USA",(865) 577-6073
ChIJtYgc1R2NWogRugRv5EQuy60,Pet Supplies Plus Kingsport,"1649 E Stone Dr Suite 02, Kingsport, TN 37660, United States",36.5470305,-82.5196219,https://www.petsuppliesplus.com/store/tn/kingsport/4473-kingsport/4473,"1649 E Stone Dr Suite 02, Kingsport, TN 37660, USA",(423) 690-8130
ChIJwVrG7AY7ZIgRx2klNOasVY0,Pet Supplies Plus Gallatin,"207 Maharris Dr Suite J, Gallatin, TN 37066, United States",36.3646204,-86.4440665,https://www.petsuppliesplus.com/store/tn/gallatin/4514-gallatin/4514,"207 Maharris Dr Suite J, Gallatin, TN 37066, USA",(615) 488-4502
ChIJO-G4QkCeXogRVZ3DkWmwbxA,Pet Supplies Plus Maryville,"543 N Foothills Plaza Dr #189, Maryville, TN 37801, United States",35.7403093,-83.9918262,https://www.petsuppliesplus.com/Store/TN/Maryville/Maryville/4026,"543 N Foothills Plaza Dr #189, Maryville, TN 37801, USA",(865) 980-8288
ChIJiVcHyW85R4YRazEYF4GYOxU,Pet Supplies Plus Conroe,"1317 W Davis St F, Conroe, TX 77304, United States",30.314346,-95.4744634,https://www.petsuppliesplus.com/store/tx/conroe/4321-conroe/4321,"1317 W Davis St F, Conroe, TX 77304, USA",(936) 242-1573
ChIJqRa_krKGRoYRqTfuqFzWKQs,Pet Supplies Plus Bryan,"3143 Wildflower Dr UNIT 700, Bryan, TX 77802, United States",30.6631413,-96.3203642,https://www.petsuppliesplus.com/store/tx/bryan/4016-bryan/4016,"3143 Wildflower Dr UNIT 700, Bryan, TX 77802, USA",(979) 776-0006
ChIJZctYkiHMRIYR4JDoEGzcveM,Pet Supplies Plus Austin - N Mopac,"12407 N Mopac Expy suite 525-b, Austin, TX 78758, United States",30.4171587,-97.7033705,https://www.petsuppliesplus.com/store/tx/austin/4069-austin/4069,"12407 N Mopac Expy suite 525-b, Austin, TX 78758, USA",(512) 358-6327
ChIJYQ0RxGmHT4YRJO0P9xDaUoo,Pet Supplies Plus Waco,"203 Hewitt Dr, Waco, TX 76712, United States",31.4945336,-97.2188131,https://www.petsuppliesplus.com/store/tx/waco/4330-waco/4330,"203 Hewitt Dr, Waco, TX 76712, USA",(254) 732-4941
ChIJBS5CK8jvToYRvWEmA15EosU,Pet Supplies Plus Waxahachie,"791 N Hwy 77 Suite 205, Waxahachie, TX 75165, United States",32.4121396,-96.8434881,https://www.petsuppliesplus.com/store/tx/waxahachie/4255-waxahachie/4255,"791 N Hwy 77 Suite 205, Waxahachie, TX 75165, USA",(214) 463-5178
ChIJFS0oqDDLSYYRBTRN4sEyINQ,Pet Supplies Plus Tyler,"5868 Old Jacksonville Hwy suite 500, Tyler, TX 75703, United States",32.2848476,-95.3301226,https://www.petsuppliesplus.com/store/tx/tyler/4194-tyler/4194,"5868 Old Jacksonville Hwy suite 500, Tyler, TX 75703, USA",(903) 504-5861
ChIJCVL1mdiXXIYR4jwr-rfYgqg,Pet Supplies Plus New Braunfels,"2736 Loop 337 Suite 102, New Braunfels, TX 78132, United States",29.7087428,-98.1630182,https://www.petsuppliesplus.com/store/tx/new-braunfels/4231-new-braunfels/4231,"2736 Loop 337 Suite 102, New Braunfels, TX 78132, USA",(830) 312-7356
ChIJf0T22tliToYRQl93BDQz9do,Pet Supplies Plus Arlington - S Cooper,"3801 S Cooper St, Arlington, TX 76015, United States",32.6837775,-97.1322386,https://www.petsuppliesplus.com/Store/TX/Arlington/Arlington-S-Cooper/7016,"3801 S Cooper St, Arlington, TX 76015, USA",(817) 583-8502
ChIJ5eJnfBfTRIYR5Iipr5Vd5cQ,Pet Supplies Plus Round Rock,"17420 Ranch to Market Rd 620 #150, Round Rock, TX 78681, United States",30.5070225,-97.717729,https://www.petsuppliesplus.com/store/tx/round-rock/4361-round-rock/4361,"17420 Ranch to Market Rd 620 #150, Round Rock, TX 78681, USA",(512) 831-7290
ChIJ4yICHBkkTIYR6nAKsm9KqC4,Pet Supplies Plus Dallas - Trinity Mills,"3315 E Trinity Mls Rd, Dallas, TX 75287, United States",32.9875495,-96.8538378,https://www.petsuppliesplus.com/Store/TX/Dallas/Dallas-Trinity-Mills/7011,"3315 E Trinity Mls Rd, Dallas, TX 75287, USA",(972) 428-5973
ChIJifq6kiGnToYRo1AWeDuulSg,Pet Supplies Plus Garland,"1031 Northwest Hwy, Garland, TX 75041, United States",32.862691,-96.6435903,https://www.petsuppliesplus.com/Store/TX/Garland/Garland/7015,"1031 Northwest Hwy, Garland, TX 75041, USA",(469) 814-0988
ChIJd1uFHkqfToYRJfduXIyhPnM,Pet Supplies Plus Dallas - Greenville Ave,"1704 Greenville Ave, Dallas, TX 75206, United States",32.8114725,-96.7699215,https://www.petsuppliesplus.com/Store/TX/Dallas/Dallas-Greenville-Ave/7017,"1704 Greenville Ave, Dallas, TX 75206, USA",(469) 249-8210
ChIJeawuu6ZlToYRcvjdTGJI6yw,Pet Supplies Plus Arlington - W Sublett,"5335 W Sublett Rd Ste 101, Arlington, TX 76017, United States",32.648064,-97.1895721,https://www.petsuppliesplus.com/Store/TX/Arlington/Arlington-W-Sublet/4247,"5335 W Sublett Rd Ste 101, Arlington, TX 76017, USA",(682) 808-4956
ChIJXRokPKXbQIYRUvd9AmHjkW0,Pet Supplies Plus Houston - Memorial & Kirkwood,"14056 Memorial Dr, Houston, TX 77079, United States",29.771633,-95.591193,https://www.petsuppliesplus.com/store/tx/houston/4317-houston--memorial--kirkwood/4317,"14056 Memorial Dr, Houston, TX 77079, USA",(346) 570-2540
ChIJOzgtzSu5QIYRiD--cJdrGCQ,Pet Supplies Plus Houston - Lower Heights,"2795 Katy Freeway Service Road Ste. 130, Houston, TX 77007, United States",29.7744377,-95.3878217,https://www.petsuppliesplus.com/store/tx/houston/4470-houston/4470,"2795 Katy Freeway Service Road Ste. 130, Houston, TX 77007, USA",(281) 888-3425
ChIJb54Ahv0hR4YRkq-3aYRro5M,Pet Supplies Plus Montgomery,"20042 Eva St #115, Montgomery, TX 77356, United States",30.3877006,-95.6749264,https://www.petsuppliesplus.com/store/tx/montgomery/4134-montgomery/4134,"20042 Eva St #115, Montgomery, TX 77356, USA",(936) 597-4893
ChIJrQ9NPIIlTIYR0zn8-Mpm9JE,Pet Supplies Plus Carrollton,"1012 W Hebron Pkwy #120, Carrollton, TX 75010, United States",33.022034,-96.9174754,https://www.petsuppliesplus.com/Store/TX/Carrollton/Carrollton/4057,"1012 W Hebron Pkwy #120, Carrollton, TX 75010, USA",(214) 731-6554
ChIJO70jtcchTIYRU7G9TUlnEXc,Pet Supplies Plus Richardson,"200 N Coit Rd #330, Richardson, TX 75080, United States",32.9535915,-96.7684503,https://www.petsuppliesplus.com/Store/TX/Richardson/Richardson/7010,"200 N Coit Rd #330, Richardson, TX 75080, USA",(214) 276-5496
ChIJS49KYwahZYYR5cS51-XeqXI,Pet Supplies Plus McAllen,"5800 N 10th St Suite 800, McAllen, TX 78504, United States",26.2562155,-98.2190639,https://www.petsuppliesplus.com/store/tx/mcallen/4539-mcallen/4539,"5800 N 10th St Suite 800, McAllen, TX 78504, USA",(956) 331-8451
ChIJZx0K0pIuTIYRhdABI3caKN0,Pet Supplies Plus Lewisville,"291 E Round Grove Rd #150, Lewisville, TX 75067, United States",33.0049233,-96.9857671,https://www.petsuppliesplus.com/Store/TX/Lewisville/Lewisville/7014,"291 E Round Grove Rd #150, Lewisville, TX 75067, USA",(972) 318-2381
ChIJ0SoKoUmxWoYRzUqkBhnEpjo,Pet Supplies Plus Copperas Cove,"1212 W BUS 190, Copperas Cove, TX 76522, United States",31.1197155,-97.8914229,https://www.petsuppliesplus.com/store/tx/copperas-cove/4070-copperas-cove/4070,"1212 W BUS 190, Copperas Cove, TX 76522, USA",(254) 238-8306
ChIJ5zd9P6mbQIYRNqE4g2h9irg,Pet Supplies Plus Friendswood,"1720 S Friendswood Dr Ste 100, Friendswood, TX 77546, United States",29.5074973,-95.1874616,https://www.petsuppliesplus.com/store/tx/friendswood/4242-friendswood/4242,"1720 S Friendswood Dr Ste 100, Friendswood, TX 77546, USA",(281) 648-1656
ChIJT1JhMJjLTYYRkyX0MrqcjSM,Pet Supplies Plus Denton,"1400 S Loop 288 #120, Denton, TX 76205, United States",33.1950781,-97.0944325,https://www.petsuppliesplus.com/Store/TX/Denton/Denton/4274,"1400 S Loop 288 #120, Denton, TX 76205, USA",(940) 222-2401
ChIJh0r33m05TIYRgpinRvTjzb4,Pet Supplies Plus Frisco,"12205 Teel Pkwy #300, Frisco, TX 75034, United States",33.1797925,-96.8675084,https://www.petsuppliesplus.com/Store/TX/Frisco/Frisco/4133,"12205 Teel Pkwy #300, Frisco, TX 75034, USA",(469) 803-5712
ChIJp9V3cQnXQIYRHYFoBBjhfOE,Pet Supplies Plus Cypress,"7041 Barker Cypress Rd, Cypress, TX 77433, United States",29.8819287,-95.6848523,https://www.petsuppliesplus.com/Store/TX/Cypress/Cypress/4476,"7041 Barker Cypress Rd, Cypress, TX 77433, USA",(281) 947-3720
ChIJ1aeyAxLtQIYR91MiCjmig-E,Pet Supplies Plus Pearland,"11940 Broadway St Suite 140, Pearland, TX 77584, United States",29.5547493,-95.404565,https://www.petsuppliesplus.com/Store/TX/Pearland//4434,"11940 Broadway St Suite 140, Pearland, TX 77584, USA",(346) 362-1321
ChIJmxNVAx31XIYRin9zsZtUKyE,Pet Supplies Plus San Antonio - Austin,"1242 Austin Hwy Suite 108, San Antonio, TX 78209, United States",29.4868369,-98.4458449,https://www.petsuppliesplus.com/Store/TX/San-Antonio/San-Antonio/7009,"1242 Austin Hwy Suite 108, San Antonio, TX 78209, USA",(210) 824-4111
ChIJxXQdGW-fToYR6CMyYQ-v1r8,Pet Supplies Plus Dallas - Mockingbird Ln,"6060 E Mockingbird Ln Ste A, Dallas, TX 75206, United States",32.8361562,-96.7623867,https://www.petsuppliesplus.com/Store/TX/Dallas/Dallas-Mockingbird-Ln/7002,"6060 E Mockingbird Ln Ste A, Dallas, TX 75206, USA",(214) 827-1248
ChIJp9x7kpaDToYRwDRGD0WkkT8,Pet Supplies Plus Irving Towne Center,"3305 W Airport Fwy, Irving, TX 75062, United States",32.8384345,-96.9899222,https://www.petsuppliesplus.com/store/tx/irving/4558-irving/4558,"3305 W Airport Fwy, Irving, TX 75062, USA",(972) 975-5663
ChIJ3fvR32tNW4YRgIdJjjmo-DU,Pet Supplies Plus South Austin,"1901 W William Cannon Dr #123, Austin, TX 78745, United States",30.2014545,-97.8058965,http://www.petsuppliesplus.com/,"1901 W William Cannon Dr #123, Austin, TX 78745, USA",(512) 305-3338
ChIJh_TB8EsoTIYRewQ1MDJt0W8,Pet Supplies Plus Irving,"7805 N MacArthur Blvd Suite 110, Irving, TX 75063, United States",32.9130298,-96.959305,https://www.petsuppliesplus.com/store/tx/irving/4509-irving/4509,"7805 N MacArthur Blvd Suite 110, Irving, TX 75063, USA",(469) 470-9422
ChIJa6TV7RTNQIYR4GubGBYEQdc,Pet Supplies Plus Champion Forest,"18550 Champion Forest Dr, Spring, TX 77379, United States",30.0343672,-95.5562399,https://www.petsuppliesplus.com/store/tx/spring/4243-spring/4243,"18550 Champion Forest Dr, Spring, TX 77379, USA",(832) 827-7900
ChIJvRqNW2KDQIYRayEejuWnnzI,Pet Supplies Plus League City,"1357 E League City Pkwy SUITE 200, League City, TX 77573, United States",29.4953321,-95.0600949,https://www.petsuppliesplus.com/Store/TX/League-City/League-City/4149,"1357 E League City Pkwy SUITE 200, League City, TX 77573, USA",(281) 525-6302
ChIJSzCXfAEVTIYRZjYAyqDTKQQ,Pet Supplies Plus McKinney,"1821 N Lake Forest Dr Ste 900, McKinney, TX 75071, United States",33.2162357,-96.680116,https://www.petsuppliesplus.com/Store/TX/McKinney/McKinney/4220,"1821 N Lake Forest Dr Ste 900, McKinney, TX 75071, USA",(469) 731-3281
ChIJkSu2NrGeToYRv01wI4bzCas,Pet Supplies Plus Dallas - Wycliff,"2525 Wycliff Ave #126, Dallas, TX 75219, United States",32.8106297,-96.8195877,https://www.petsuppliesplus.com/Store/TX/Dallas/Dallas-Wycliff/4064,"2525 Wycliff Ave #126, Dallas, TX 75219, USA",(972) 807-6317
ChIJGR5gwM54ToYR0Zb71xgqRT4,Pet Supplies Plus Hurst,"1616 Precinct Line Rd, Hurst, TX 76054, United States",32.8433391,-97.1859039,https://www.petsuppliesplus.com/Store/TX/Hurst/Hurst/7018,"1616 Precinct Line Rd, Hurst, TX 76054, USA",(682) 325-5973
ChIJWagSzcsiTIYRcp77_wQO5Uk,Pet Supplies Plus Plano,"4100 Legacy Dr #402, Plano, TX 75024, United States",33.0699822,-96.7734496,https://www.petsuppliesplus.com/Store/TX/Plano/Plano/7005,"4100 Legacy Dr #402, Plano, TX 75024, USA",(972) 491-0719
ChIJX-FTYNYxR4YRGHRcz1MnkHc,Pet Supplies Plus North Woodlands,"4130 FM 1488 Suite 110, Conroe, TX 77384, United States",30.2269957,-95.5284899,https://www.petsuppliesplus.com/store/tx/conroe/4135-conroe/4135,"4130 FM 1488 Suite 110, Conroe, TX 77384, USA",(936) 224-5514
ChIJOXTRxUEnTIYRwpjLVHhJHQA,Pet Supplies Plus Dallas - Forest Ln,"3717 Forest Ln, Dallas, TX 75244, United States",32.910085,-96.855461,https://www.petsuppliesplus.com/Store/TX/Dallas/Dallas-Forest-Ln/7013,"3717 Forest Ln, Dallas, TX 75244, USA",(972) 247-2491
ChIJhw6Dy-q1WoYRhPBIIlUrk9s,Pet Supplies Plus Killeen,"3700 W Stan Schlueter Loop #100, Killeen, TX 76549, United States",31.0861746,-97.7890788,https://www.petsuppliesplus.com/store/tx/killeen/4360-killeen/4360,"3700 W Stan Schlueter Loop #100, Killeen, TX 76549, USA",(254) 343-7333
ChIJJ_MzjCmfQIYRAI95BNJwAKw,Pet Supplies Plus Pasadena,"7333 Fairmont Pkwy Ste. 150, Pasadena, TX 77505, United States",29.6511985,-95.1248737,https://www.petsuppliesplus.com/store/tx/pasadena/4507-pasadena/4507,"7333 Fairmont Pkwy Ste. 150, Pasadena, TX 77505, USA",(281) 884-8797
ChIJ4yxE2w8hTIYR_G1_TtXDbeg,Pet Supplies Plus Pepper Square,"14902 Preston Rd Suites 1000 A-D Suites 1000 A-D, Dallas, TX 75254, United States",32.952526,-96.8029908,https://www.petsuppliesplus.com/Store/TX/Dallas/Pepper-Square/4150,"14902 Preston Rd Suites 1000 A-D Suites 1000 A-D, Dallas, TX 75254, USA",(469) 778-0155
ChIJQfcKHsVtToYR1vgEP_q5duM,Pet Supplies Plus,"6415 McCart Ave, Fort Worth, TX 76133, United States",32.6517127,-97.3640719,https://www.petsuppliesplus.com/,"6415 McCart Ave, Fort Worth, TX 76133, USA",(682) 499-6001
ChIJ04AcryJz_oYRk62bBCtI_9M,Pet Supplies Plus Lubbock,"5120 34th St, Lubbock, TX 79410, United States",33.56374,-101.9220547,https://www.petsuppliesplus.com/store/tx/lubbock/4511-lubbock/4511,"5120 34th St, Lubbock, TX 79410, USA",(806) 701-6011
ChIJKU1m4zVz_oYROgJvTqGwK1c,Pet Supplies Plus Lubbock,"5715 82nd St, Lubbock, TX 79424, United States",33.5193838,-101.9375523,https://www.petsuppliesplus.com/store/tx/lubbock/4228-lubbock/4228,"5715 82nd St, Lubbock, TX 79424, USA",(806) 993-5104
ChIJi6CRO_qfToYR42WkveZhrA8,Pet Supplies Plus Dallas - Medallion,"6464 E NW Hwy #170, Dallas, TX 75214, United States",32.8573231,-96.7529539,https://www.petsuppliesplus.com/Store/TX/Dallas/Dallas-Medallion/4482,"6464 E NW Hwy #170, Dallas, TX 75214, USA",(214) 785-2490
ChIJgUpX0ZkjQYYR107tFJ1CTrY,Pet Supplies Plus Katy West,"5215 FM 1463 Suite 600, Katy, TX 77494, United States",29.7169086,-95.8453983,https://www.petsuppliesplus.com/store/tx/katy/7019-katy/7019,"5215 FM 1463 Suite 600, Katy, TX 77494, USA",(281) 346-4535
ChIJ2x-2F3KJXIYRdjkrlPcKhwg,Pet Supplies Plus San Antonio - Bulverde,"22103 Bulverde Rd #116, San Antonio, TX 78259, United States",29.6460752,-98.4272788,https://www.petsuppliesplus.com/store/tx/san-antonio/4169-san-antonio/4169,"22103 Bulverde Rd #116, San Antonio, TX 78259, USA",(210) 455-2611
ChIJr-vHHXGKXIYRFj9ZWxSPF8k,Pet Supplies Plus San Antonio - San Pedro,"15034 San Pedro Ave A, San Antonio, TX 78232, United States",29.577859,-98.475693,https://www.petsuppliesplus.com/Store/TX/San-Antonio/San-Antonio/7006,"15034 San Pedro Ave A, San Antonio, TX 78232, USA",(210) 545-6900
ChIJzceZNNCNVoYRxJ7OXoCapiY,Pet Supplies Plus Abilene,"3950 S Clack St, Abilene, TX 79606, United States",32.4042602,-99.7633813,https://www.petsuppliesplus.com/store/tx/abilene/4349-abilene/4349,"3950 S Clack St, Abilene, TX 79606, USA",(325) 788-7387
ChIJj62rTgP1aIYRXb1chSgArSo,Pet Supplies Plus Corpus Christi,"5425 S Padre Island Dr #133B, Corpus Christi, TX 78411, United States",27.707323,-97.3749902,https://www.petsuppliesplus.com/store/tx/corpus-christi/4232-corpus-christi/4232,"5425 S Padre Island Dr #133B, Corpus Christi, TX 78411, USA",(361) 462-4186
ChIJASrNWTs_TIYR3eHCUfyAI80,Pet Supplies Plus Frisco-3 Corners,"16803 Coit Rd Suite 100, Frisco, TX 75035, United States",33.2168496,-96.7681483,https://www.petsuppliesplus.com/store/tx/frisco/4493-frisco/4493,"16803 Coit Rd Suite 100, Frisco, TX 75035, USA",(945) 207-2162
ChIJG4_ZDXrBQIYRsoNCP29hack,Pet Supplies Plus Houston (Braes Heights),"3851 Bellaire Blvd, Houston, TX 77025, United States",29.705481,-95.4388496,https://www.petsuppliesplus.com/store/tx/houston/4225-houston/4225,"3851 Bellaire Blvd, Houston, TX 77025, USA",(832) 699-5335
ChIJNfBtWcdTW4YR5QMf8jNHfsY,Pet Supplies Plus Buda,"710 Old San Antonio Rd, Buda, TX 78610, United States",30.0876273,-97.8226459,https://www.petsuppliesplus.com/store/tx/buda/4561-buda/4561,"710 Old San Antonio Rd, Buda, TX 78610, USA",(512) 523-8411
ChIJI6xTarfXTYYRez_e5k7Fzco,Pet Supplies Plus North Richland Hills,"9160 N Tarrant Pkwy Ste 180, North Richland Hills, TX 76182, United States",32.902302,-97.1877745,https://www.petsuppliesplus.com/Store/TX/North-Richland-Hills/North-Richland-Hills/4318,"9160 N Tarrant Pkwy Ste 180, North Richland Hills, TX 76182, USA",(817) 585-4552
ChIJ-YQf8ReNToYRiet6LuVEB2s,Pet Supplies Plus Cedar Hill,"516 Belt Line Rd Suite 100, Cedar Hill, TX 75104, United States",32.5893919,-96.9311462,https://www.petsuppliesplus.com/store/tx/cedar-hill/4570-cedar-hill/4570,"516 Belt Line Rd Suite 100, Cedar Hill, TX 75104, USA",(469) 454-6509
ChIJw2HlZ_JRAYcRbuJxvRV9ioI,Pet Supplies Plus Amarillo,"5807 SW 45th Ave Ste 220, Amarillo, TX 79109, United States",35.159929,-101.900237,https://www.petsuppliesplus.com/store/tx/amarillo/4311-amarillo/4311,"5807 SW 45th Ave Ste 220, Amarillo, TX 79109, USA",(806) 641-1100
ChIJK-Q7o0I3R4YRoIu689JctJ0,Pet Supplies Plus Harper's Preserve,"9662 TX-242 Suite 700, Conroe, TX 77385, United States",30.2078993,-95.4297452,https://www.petsuppliesplus.com/store/tx/conroe/4540-conroe/4540,"9662 TX-242 Suite 700, Conroe, TX 77385, USA",(346) 786-9156
ChIJUXx1WyfjW4YR6dZP20U-fEk,Pet Supplies Plus Kerrville,"305 Sidney Baker St S #400, Kerrville, TX 78028, United States",30.0421573,-99.143302,https://www.petsuppliesplus.com/Store/TX/Kerrville/Kerrville/7004,"305 Sidney Baker St S #400, Kerrville, TX 78028, USA",(830) 257-4120
ChIJrYyf7D-xUYYRXbt5jCefWk4,Pet Supplies Plus Stephenville,"106 Christy Plaza, Stephenville, TX 76401, United States",32.2013732,-98.2420069,https://www.petsuppliesplus.com/store/tx/stephenville/4013-stephenville/4013,"106 Christy Plaza, Stephenville, TX 76401, USA",(254) 965-7387
ChIJJa8Nwr2BUocRIY_g_-Bre8c,Pet Supplies Plus Lehi,"1712 W Traverse Pkwy Suite A, Lehi, UT 84043, United States",40.4331509,-111.8777963,https://www.petsuppliesplus.com/,"1712 W Traverse Pkwy Suite A, Lehi, UT 84043, USA",(385) 253-7387
ChIJox4bX3iJUocRscOv7kZdqe4,Pet Supplies Plus Sandy,"9103 Village Shop Dr, Sandy, UT 84094, United States",40.5859066,-111.8627579,https://www.petsuppliesplus.com/store/ut/sandy/4533-sandy/4533,"9103 Village Shop Dr, Sandy, UT 84094, USA",(385) 253-7050
ChIJ6_nS9iYL3okRxLj1LJ9wG3c,Pet Supplies Plus Albany,"1225 Western Ave Suite 6, Albany, NY 12203, United States",42.6773805,-73.8232742,https://www.petsuppliesplus.com/Store/NY/Albany/Albany/9024,"1225 Western Ave Suite 6, Albany, NY 12203, USA",(518) 438-1040
ChIJAQpjxKrj3YkRRIZP8R4iU_s,Pet Supplies Plus East Greenbush,"501 Columbia Turnpike SUITE 16, Rensselaer, NY 12144, United States",42.6068371,-73.7187879,https://www.petsuppliesplus.com/Store/NY/Rensselaer/East-Greenbush/4162,"501 Columbia Turnpike SUITE 16, Rensselaer, NY 12144, USA",(518) 477-5061
ChIJCSOWxtQRBYgR0BEvboTlmn4,Pet Supplies Plus Greenfield,"4505 S 76th St, Greenfield, WI 53220, United States",42.9624294,-88.0090503,https://www.petsuppliesplus.com/store/wi/greenfield/0081-greenfield/0081,"4505 S 76th St, Greenfield, WI 53220, USA",(414) 545-9790
ChIJAf-Jj7_7AogR3_UJ0zTrU_0,Pet Supplies Plus Green Bay,"2605 S Oneida St #125, Green Bay, WI 54304, United States",44.4792017,-88.0700792,https://www.petsuppliesplus.com/store/wi/green-bay/4086-green-bay/4086,"2605 S Oneida St #125, Green Bay, WI 54304, USA",(920) 489-8338
ChIJs89hkRxs3okRSTZyMoTtGRA,Pet Supplies Plus Glenville,"10 Glenridge Rd STE 3, Glenville, NY 12302, United States",42.8677993,-73.9300421,https://www.petsuppliesplus.com/Store/NY/Glenville/Glenville/9076,"10 Glenridge Rd STE 3, Glenville, NY 12302, USA",(518) 399-2578
ChIJeerru9i9uokR_WglGSEC1TM,Pet Supplies Plus Virginia Beach,"5394 Kemps River Dr #101, Virginia Beach, VA 23464, United States",36.8001652,-76.1795316,https://www.petsuppliesplus.com/store/va/virginia-beach/8016-virginia-beach/8016,"5394 Kemps River Dr #101, Virginia Beach, VA 23464, USA",(757) 424-8448
ChIJCxRQ1-WHs4kREgqwAToDwrI,Pet Supplies Plus,"1240 Seminole Trail, Charlottesville, VA 22901, United States",38.0707176,-78.4846412,https://www.petsuppliesplus.com/store/va/charlottesville/8013-charlottesville/8013/events/3-16-2025-join-us-for-an-excit,"1240 Seminole Trail, Charlottesville, VA 22901, USA",(434) 979-2009
ChIJE_5gPGFEtokRmGm6tHefqRI,Pet Supplies Plus Centreville,"5629 Stone Rd, Centreville, VA 20120, United States",38.8533205,-77.4498153,https://www.petsuppliesplus.com/Store/VA/Centreville/Centreville/8056,"5629 Stone Rd, Centreville, VA 20120, USA",(703) 830-8261
ChIJg8Bv2rDBuokRtBAXtSMkdbU,Pet Supplies Plus East Virginia Beach,"2129 General Booth Blvd #119, Virginia Beach, VA 23454, United States",36.7674581,-76.0161263,https://www.petsuppliesplus.com/store/va/virginia-beach/4603-virginia-beach/4603,"2129 General Booth Blvd #119, Virginia Beach, VA 23454, USA",(757) 720-6528
ChIJnYPkDeNctokRmRu5hYnIGZc,Pet Supplies Plus Manassas,"7859 Sudley Rd, Manassas, VA 20109, United States",38.7859093,-77.5121482,https://www.petsuppliesplus.com/Store/VA/Manassas/Manassas/4131,"7859 Sudley Rd, Manassas, VA 20109, USA",(703) 368-2940
ChIJD_RDpwA8tokRUtphAjh9nG0,Pet Supplies Plus Ashburn,"20020 Ashbrook Commons Plaza 150 Suite 150, Ashburn, VA 20147, United States",39.06178480000001,-77.4693568,https://www.petsuppliesplus.com/Store/VA/Ashburn/Ashburn/8060,"20020 Ashbrook Commons Plaza 150 Suite 150, Ashburn, VA 20147, USA",(703) 858-7108
ChIJnR5BrXI3tokRnt80BCP7xCI,Pet Supplies Plus Sterling,"21800 Towncenter Plz #217, Sterling, VA 20164, United States",39.014007,-77.3729518,https://www.petsuppliesplus.com/store/va/sterling/4487-sterling/4487,"21800 Towncenter Plz #217, Sterling, VA 20164, USA",(571) 534-5344
ChIJ_faz-BMKTYgR4jO6kG85p1E,Pet Supplies Plus Salem,"1439 W Main St, Salem, VA 24153, United States",37.2909164,-80.0815623,https://www.petsuppliesplus.com/Store/VA/Salem/Salem/4027,"1439 W Main St, Salem, VA 24153, USA",(540) 389-0615
ChIJEf34B3qtt4kRIHx1rfbQ2v8,Pet Supplies Plus Franconia,"7007 Manchester Blvd, Alexandria, VA 22310, United States",38.7659325,-77.1528212,https://www.petsuppliesplus.com/Store/VA/Alexandria/Franconia/8055,"7007 Manchester Blvd, Alexandria, VA 22310, USA",(703) 924-7246
ChIJWWwOVQAPsIkR_EGP0uK0C7U,Pet Supplies Plus,"1405 N Main St, Suffolk, VA 23434, United States",36.7482064,-76.5853499,https://www.petsuppliesplus.com/store/va/suffolk/4620-suffolk/4620,"1405 N Main St, Suffolk, VA 23434, USA",(757) 809-0353
ChIJ7wEARc6NsIkRoOrr5ajDlzk,Pet Supplies Plus Williamsburg,"6493 Centerville Rd Ste 209, Williamsburg, VA 23188, United States",37.3383681,-76.7569916,https://www.petsuppliesplus.com/store/va/williamsburg/4339-williamsburg/4339,"6493 Centerville Rd Ste 209, Williamsburg, VA 23188, USA",(757) 904-6074
ChIJcdEzIfJrsYkRKd7jpG1c8BE,Pet Supplies Plus Richmond - Ridge Shopping Center,"1519 N Parham Rd, Richmond, VA 23229, United States",37.60355330000001,-77.5633451,https://www.petsuppliesplus.com/store/va/richmond/4623-richmond/4623,"1519 N Parham Rd, Richmond, VA 23229, USA",(804) 923-2246
ChIJeVCR36dtsYkRuuoCvzQqlbY,Pet Supplies Plus Midlothian,"11400 W Huguenot Rd Ste 118, Midlothian, VA 23113, United States",37.5248025,-77.6101011,https://www.petsuppliesplus.com/Store/VA/Midlothian/Midlothian/8059,"11400 W Huguenot Rd Ste 118, Midlothian, VA 23113, USA",(804) 794-7961
ChIJ30p-mum7uokRfmfgoK3uKbc,Pet Supplies Plus Chesapeake Great Bridge,"237 S Battlefield Blvd #2, Chesapeake, VA 23322, United States",36.716931,-76.2381057,https://www.petsuppliesplus.com/store/va/chesapeake/4642-chesapeake-great-bridge/4642,"237 S Battlefield Blvd #2, Chesapeake, VA 23322, USA",(757) 410-5261
ChIJgxX_FzuhuokRgNcEC3M5PgA,Pet Supplies Plus Chesapeake,"4107 Portsmouth Blvd 118 B, Chesapeake, VA 23321, United States",36.8220055,-76.412253,https://www.petsuppliesplus.com/store/va/chesapeake/4560-chesapeake/4560,"4107 Portsmouth Blvd 118 B, Chesapeake, VA 23321, USA",(757) 966-1060
ChIJm6TlICARtokRBAQux_7wjpU,Pet Supplies Plus Purcellville,"120 Purcellville Gateway Dr Suite A, Purcellville, VA 20132, United States",39.1361377,-77.6932859,https://www.petsuppliesplus.com/store/va/purcellville/4404-purcellville/4404,"120 Purcellville Gateway Dr Suite A, Purcellville, VA 20132, USA",(540) 299-7959
ChIJuX5h79hthVQRevM9qBfa1CE,Pet Supplies Plus Burlington,"139 Cascade Mall Dr, Burlington, WA 98233, United States",48.4658842,-122.3370316,https://www.petsuppliesplus.com/store/wa/burlington/4628-burlington/4628,"139 Cascade Mall Dr, Burlington, WA 98233, USA",(360) 755-6858
ChIJg0cY7cHhBIgRpbPeCQV_-Q8,Pet Supplies Plus Mequon,"10964 N Port Washington Rd, Mequon, WI 53092, United States",43.2177972,-87.9222991,https://www.petsuppliesplus.com/store/wi/mequon/4203-mequon/4203,"10964 N Port Washington Rd, Mequon, WI 53092, USA",(262) 236-9486
ChIJV1Tz9w1oSogRDiMwog-vBmI,Pet Supplies Plus Clarksburg,"478 Emily Dr, Clarksburg, WV 26301, United States",39.26909120000001,-80.2837434,https://www.petsuppliesplus.com/Store/WV/Clarksburg/Clarksburg/139,"478 Emily Dr, Clarksburg, WV 26301, USA",(304) 624-3911
ChIJWSmDBrzyTogRP_Y7W6Nop0o,Pet Supplies Plus Beckley,"1268 N Eisenhower Dr, Beckley, WV 25801, United States",37.8043143,-81.176247,https://www.petsuppliesplus.com/Store/WV/Beckley/Beckley/165,"1268 N Eisenhower Dr, Beckley, WV 25801, USA",(304) 252-2994
ChIJ3X2Ma_1KSIgR0wsUUU147_E,Pet Supplies Plus Vienna,"605 Grand Central Ave, Vienna, WV 26105, United States",39.3045286,-81.5511824,https://www.petsuppliesplus.com/Store/WV/Vienna/Vienna/153,"605 Grand Central Ave, Vienna, WV 26105, USA",(304) 422-5100
ChIJ2-s-wMLLSIgRMhhban_gGzA,Pet Supplies Plus St Albans,"1461 MacCorkle Ave, St Albans, WV 25177, United States",38.3867904,-81.8246874,https://www.petsuppliesplus.com/store/wv/st-albans/4673-st-albans/4673,"1461 MacCorkle Ave, St Albans, WV 25177, USA",(304) 721-8756
ChIJOyAL5fQBRogRIRA1aS1ohgY,Pet Supplies Plus Barboursville,"150 Mall Rd, Barboursville, WV 25504, United States",38.4233661,-82.2630402,https://www.petsuppliesplus.com/,"150 Mall Rd, Barboursville, WV 25504, USA",(304) 733-0033
ChIJ-VerrCQxNIgRNwQM-X3kV3U,Pet Supplies Plus Weirton,"250 Three Springs Dr, Weirton, WV 26062, United States",40.3994065,-80.552206,https://www.petsuppliesplus.com/store/wv/weirton/4556-weirton/4556,"250 Three Springs Dr, Weirton, WV 26062, USA",(304) 945-3033
ChIJCTDDtEInB4gRor-L4QmF_0E,Pet Supplies Plus Portage,"2800 New Pinery Rd Suite 9A, Portage, WI 53901, United States",43.5658993,-89.4714694,https://www.petsuppliesplus.com/store/wi/portage/4495-portage/4495,"2800 New Pinery Rd Suite 9A, Portage, WI 53901, USA",(608) 839-7126
ChIJJUDEEePhBYgRFB2K9UN4dgs,Pet Supplies Plus Whitewater,"1411 W Main St, Whitewater, WI 53190, United States",42.8338302,-88.7598639,https://www.petsuppliesplus.com/store/wi/whitewater/4504-whitewater/4504,"1411 W Main St, Whitewater, WI 53190, USA",(262) 528-6350
ChIJEwr7iMO2A4gRYUmnSi3lfxY,Pet Supplies Plus Appleton,"702 W Northland Ave, Appleton, WI 54914, United States",44.288583,-88.416827,https://www.petsuppliesplus.com/Store/WI/Appleton/Appleton/97,"702 W Northland Ave, Appleton, WI 54914, USA",(920) 832-3858
ChIJSYgheqQHBYgRR1XlIh4x2AY,Pet Supplies Plus Brookfield,"18610 W Bluemound Rd, Brookfield, WI 53045, United States",43.0368971,-88.1433899,https://www.petsuppliesplus.com/store/wi/brookfield/0041-brookfield/0041,"18610 W Bluemound Rd, Brookfield, WI 53045, USA",(262) 827-9095
ChIJh79aljWnBYgRB5NHxB9bY40,Pet Supplies Plus Waukesha,"120 E Sunset Dr, Waukesha, WI 53189, United States",42.9893818,-88.2239527,https://www.petsuppliesplus.com/store/wi/waukesha/4155-waukesha/4155,"120 E Sunset Dr, Waukesha, WI 53189, USA",(262) 349-4905
ChIJ28qEwYBfBIgRdrOHuaHVYso,Pet Supplies Plus West Bend,"1605 S Main St, West Bend, WI 53095, United States",43.4011016,-88.1802615,https://www.petsuppliesplus.com/store/wi/west-bend/4204-west-bend/4204,"1605 S Main St, West Bend, WI 53095, USA",(262) 353-9943
ChIJo_ROvSq3BYgRnsySaMdjyGQ,Pet Supplies Plus Oconomowoc,"1460 Olympia Fields Dr, Oconomowoc, WI 53066, United States",43.08443889999999,-88.47363,https://www.petsuppliesplus.com/store/wi/oconomowoc/4506-oconomowoc/4506,"1460 Olympia Fields Dr, Oconomowoc, WI 53066, USA",(262) 354-0221
ChIJnQ6s-enHA4gRyqDkvc6THCk,Pet Supplies Plus Neenah,"872 Fox Point Plaza, Neenah, WI 54956, United States",44.1754318,-88.4841499,https://www.petsuppliesplus.com/store/wi/neenah/4299-neenah/4299,"872 Fox Point Plaza, Neenah, WI 54956, USA",(920) 215-3587
ChIJi1Q1qR3_BIgRV_rdzjZgH8g,Pet Supplies Plus Germantown,"N112W15800 Mequon Rd Ste 16, Germantown, WI 53022, United States",43.2222442,-88.1071745,https://www.petsuppliesplus.com/store/wi/germantown/4315-germantown/4315,"N112W15800 Mequon Rd Ste 16, Germantown, WI 53022, USA",(262) 252-9912
ChIJ3TPqqIseBYgRxva1dLWkrbk,Pet Supplies Plus Glendale,"5300 N Port Washington Rd, Glendale, WI 53217, United States",43.1131685,-87.9161247,https://www.petsuppliesplus.com/store/wi/glendale/0060-glendale/0060,"5300 N Port Washington Rd, Glendale, WI 53217, USA",(414) 964-7255
ChIJfQWZ7hWnBIgR_KLGABaWxVk,Pet Supplies Plus Sheboygan,"567 S Taylor Dr, Sheboygan, WI 53081, United States",43.7512181,-87.7470636,http://petsupplieswi.com/,"567 S Taylor Dr, Sheboygan, WI 53081, USA",(920) 453-0181
ChIJa_gbasjD_4cRbPY0V-4rD6s,Pet Supplies Plus Marshfield,"1810 N Central Ave, Marshfield, WI 54449, United States",44.6857907,-90.1605694,https://www.petsuppliesplus.com/store/wi/marshfield/4428-marshfield/4428,"1810 N Central Ave, Marshfield, WI 54449, USA",(715) 255-6060
ChIJK4Hgffj6rFIRmAT7iPKhgaA,Pet Supplies Plus Rice Lake,"2500A S Main St, Rice Lake, WI 54868, United States",45.4739108,-91.7369523,https://www.petsuppliesplus.com/store/wi/rice-lake/0215-rice-lake/0215,"2500A S Main St, Rice Lake, WI 54868, USA",(715) 736-5005
ChIJEcDbCDMnJYgRWwhwfXl6OfU,Pet Supplies Plus St. Clair Shores - Harper Grooming,"31029 Harper Ave, St Clair Shores, MI 48082, United States",42.5230547,-82.900859,https://www.petsuppliesplus.com/dog-grooming,"31029 Harper Ave, St Clair Shores, MI 48082, USA",(586) 771-3277
ChIJZ2uwEOw4O4gRtRL7zT6UEQs,Pet Supplies Plus Woodhaven,"19295 West Rd, Woodhaven, MI 48183, United States",42.1402237,-83.2245973,https://www.petsuppliesplus.com/store/mi/woodhaven/0002-woodhaven/0002,"19295 West Rd, Woodhaven, MI 48183, USA",(734) 671-6936
ChIJJZetall5mFQRy2rUD4MXDRk,Pet Supplies Plus Kennewick,"2913 W Kennewick Ave, Kennewick, WA 99336, United States",46.2082863,-119.1613826,https://www.petsuppliesplus.com/store/wa/kennewick/4521-kennewick/4521,"2913 W Kennewick Ave, Kennewick, WA 99336, USA",(509) 396-9237
ChIJP00D8uotQIgRuWc2pNKYqH0,Pet Supplies Plus Harrison,"200 Biggs Blvd Suite G, Harrison, OH 45030, United States",39.2604267,-84.7943705,https://www.petsuppliesplus.com/,"200 Biggs Blvd Suite G, Harrison, OH 45030, USA",(513) 715-1472
ChIJQx-YhJBx0okRueGOkGROEfk,Pet Supplies Plus Olean,"1853 Plaza Dr, Olean, NY 14760, United States",42.0790077,-78.4690488,https://www.petsuppliesplus.com/Store/NY/Olean/Olean/4171,"1853 Plaza Dr, Olean, NY 14760, USA",(716) 372-0251
ChIJ1zU6cK79UYYRsJjJP5tSnqA,Pet Supplies Plus Weatherford,"222 I-20, Weatherford, TX 76086, United States",32.7281178,-97.7974456,https://www.petsuppliesplus.com/store/tx/weatherford/4174-weatherford/4174,"222 I-20, Weatherford, TX 76086, USA",(817) 599-6066
ChIJS7iELuq3XIYRZvLrdirWF9c,Pet Supplies Plus Seguin,"1500 E Court St Ste 720, Seguin, TX 78155, United States",29.5707889,-97.9382169,https://www.petsuppliesplus.com/Store/TX/Seguin/Seguin/7008,"1500 E Court St Ste 720, Seguin, TX 78155, USA",(830) 386-2906
ChIJkSFh6FQnQYYR409HMeyYheA,Pet Supplies Plus Katy East,"21011 Highland Knolls Dr, Katy, TX 77450, United States",29.7592099,-95.7331986,https://www.petsuppliesplus.com/store/tx/katy/4129-katy/4129,"21011 Highland Knolls Dr, Katy, TX 77450, USA",(281) 324-0681
ChIJKyn_-T1nQoYRLo8OUYXHbIk,Pet Supplies Plus Victoria,"5217 N Navarro St Suite B, Victoria, TX 77904, United States",28.8450329,-97.0015496,https://www.petsuppliesplus.com/store/tx/victoria/4567-victoria/4567,"5217 N Navarro St Suite B, Victoria, TX 77904, USA",(361) 412-4545
ChIJ73V6QfYFTIYRAKkpoM_3rUo,Pet Supplies Plus Wylie,"807 Woodbridge Pkwy, Wylie, TX 75098, United States",33.0093246,-96.5738242,https://www.petsuppliesplus.com/Store/TX/Wylie/Wylie/4140,"807 Woodbridge Pkwy, Wylie, TX 75098, USA",(469) 991-6200
ChIJnQnG34VrToYRuv3P-w9ctO0,Pet Supplies Plus Crowley,"910 S Crowley Rd Suite 21, Crowley, TX 76036, United States",32.5644712,-97.3539371,https://www.petsuppliesplus.com/Store/TX/Crowley/Crowley/4369,"910 S Crowley Rd Suite 21, Crowley, TX 76036, USA",(817) 900-3557
ChIJA0eisqalToYRZYx59HzyC4U,Pet Supplies Plus Mesquite,"529 N Galloway Ave Suite 7, Mesquite, TX 75149, United States",32.7723451,-96.6004166,https://www.petsuppliesplus.com/Store/TX/Mesquite/Mesquite/4386,"529 N Galloway Ave Suite 7, Mesquite, TX 75149, USA",(469) 320-1229